code_comptable,code_postal,address,latitude,longitude,wilaya
1101,1016.0, ADRAR KSAR ADGHA,29.2629508972168,-0.222039997577667,1
1206,1011.0,DAIRA TSABIT,28.3080387115479,-0.240628004074097,1
1300,1004.0, DAIRA REGGANE CENTRE,26.7174892425537,-0.193939000368118,1
1303,1009.0,APC SALI,26.9612522125244,-0.0251550003886223,1
2100,2000.0,RUE DU 20 AOUT ,36.2842483520508,1.55891001224518,2
2101,2005.0,HAY BENSOUNA,36.1617012023926,1.32070004940033,2
2102,2041.0,HAY SAHLI,36.1755981445312,1.32770001888275,2
2104,2042.0,HAY LALLA AOUDA,36.1458015441895,1.32299995422363,2
2105,2013.0,RUE DE LA RESISTANCE,36.1637992858887,1.3371000289917,2
2121,2091.0,HAY ES SALAM,36.1562995910645,1.33990001678467,2
2122,2094.0,"CITE DES FONCTIONNAIRES,CHLEF CENTRE",36.1697006225586,1.34070003032684,2
2200,2003.0,ROUTE NATIONALE N°04 OUED FODDA,36.1860008239746,1.52839994430542,2
2201,2035.0,BENI RACHED,36.2766990661621,1.50370001792908,2
2205,2008.0,EL KARIMIA CENTRE,36.1102981567383,1.557000041008,2
2208,2049.0,KHERRARA,36.2714004516602,1.38660001754761,2
2210,2024.0,OUM DROU,36.1983985900879,1.38810002803802,2
2211,2029.0,OULED ABBES,36.2162017822266,1.48459994792938,2
2212,2010.0,OULED FARES CENTRE,36.2314987182617,1.23829996585846,2
2224,2001.0,OUED FODDA CENTRE,36.1847991943359,1.53022003173828,2
2300,2006.0,RUE KOSIER TENES CENTRE TENES,36.5106010437012,1.30610001087189,2
2304,2017.0,BENI HAOUA,36.529899597168,1.57400000095367,2
2306,2021.0,RN19,36.3368988037109,1.23969995975494,2
2309,2015.0,EL-MARSA,36.4042015075684,0.916100025177002,2
2313,2009.0,ROUTE NATIONALE N°19 SIDI AKKACHA,36.4628982543945,1.30280005931854,2
2315,2043.0,TADJNA CENTRE,36.3226013183594,1.1327999830246,2
2400,2002.0,ROUTE NATIONALE N°04 BOUKADIR,36.0681991577148,1.12890005111694,2
2401,2004.0,AIN MERANE CENTRE,36.1624984741211,0.971300005912781,2
2407,2011.0,OUED SLY CENTRE,36.1021003723145,1.19990003108978,2
2414,2033.0,SOBHA,36.1105995178223,1.1081999540329,2
2416,2038.0,HERENFA,36.2486000061035,1.04429996013641,2
2427,2086.0,DOUAIDIA,36.055980682373,1.13469099998474,2
2506,2087.0,ZONE 9,36.2084007263184,1.26569998264313,2
3100,3000.0,LAGHOUAT-RP RN 01,33.485279083252,2.52074003219604,3
3106,3002.0,MAAMOURAH,33.4758110046387,2.52114009857178,3
3113,3052.0,CITE EL WIAM,33.4715003967285,2.50324988365173,3
3200,3003.0,KSAR-EL-HIRANE,33.70120815,3.226928242239316,3
3202,3019.0,SIDI-MAKHLOUF,34.0753593444824,3.00535988807678,3
3205,3033.0,BENACER-BENCHOHRA,33.4516716003418,2.59556007385254,3
3300,3012.0,AIN-MADHI,33.4750289916992,2.18226003646851,3
3301,3040.0,EL-HOUITA,33.3836097717285,2.2627899646759,3
3302,3007.0,TADJEMOUT,33.5247917175293,2.31236004829407,3
3304,3010.0,EL-KHENEG,33.4438018798828,2.47227001190186,3
3306,3057.0,EL-HADJEUB RN23 VERS AFLOU,33.564380645752,2.37142992019653,3
3500,3001.0,AFLOU,34.0648498535156,2.05503988265991,3
3501,3013.0,BEIDHA,34.2832717895508,2.10318994522095,3
3502,3025.0,GUELTAT-SIDI-SAAD,34.1753196716309,1.56422996520996,3
3505,3024.0,SIDI-BOUZID,34.2042083740234,2.15529990196228,3
3508,3020.0,AFLOU-HAY-EL-GAADA,34.0607681274414,2.06154990196228,3
3513,3047.0,AFLOU-ZAOUI-SAID,34.0641212463379,2.0625,3
3515,3053.0,AFLOU 1ER MAI,34.0651206970215,2.0534999370575,3
3602,3023.0,EL-GHICHA,33.5554313659668,2.08320999145508,3
4100,4000.0,BD HOUARI BOUMEDIENE,35.8699989318848,7.09999990463257,4
4108,4003.0,rue 1er novembre 1954,35.8699989318848,7.1100001335144,4
4200,4020.0,DUPW Oum El Bouaghi,35.9300003051758,7.19000005722046,4
4302,4057.0,CITE SAIDI DJEMOI,35.7799987792969,7.3899998664856,4
4307,4015.0,RUE NATIONALE N°80,35.9000015258789,7.36999988555908,4
4311,4013.0,ROUTE NATIONALE N°10,35.6699981689453,7.30999994277954,4
4315,4004.0,RUE DU 1ER NOVEMBRE,35.6100006103516,7.65999984741211,4
4400,4002.0,CITE BRAKNIA 750 LOGTS BOUKETANA ALI,36.0,6.55000019073486,4
4407,4021.0,CARREFOUR BEN M'HIDI ROUTE NATINALE N°3,35.8899993896484,6.30000019073486,4
4420,4019.0,CITE ANNASR,36.0800018310547,6.46999979019165,4
4424,4011.0,OULED-ZAID,36.0999984741211,6.78000020980835,4
4426,4010.0,RUE NATIONALE N°10,35.8899993896484,6.38000011444092,4
4601,4016.0,CITE-SATHA,35.9900016784668,6.8600001335144,4
5100,5000.0,Cité des 410 logts ex ECOTEC BATNA,35.3368797302246,6.10416507720947,5
5106,5006.0,FRERES BOUABSA BATNA,35.3316612243652,6.10386514663696,5
5109,5073.0,ROUTE DE AIN TOUTA,35.3020515441895,6.0440821647644,5
5112,5021.0,CITE EL BOUSTENE,35.3203277587891,6.09579706192017,5
5115,5010.0,CITE 800 LOGTS,35.3246650695801,6.09431123733521,5
5117,5131.0,CITE TAMACHIT BATNA,35.315502166748,6.10203886032104,5
5120,5143.0,ROUTE HAMLA CITE KECHIDA,35.5501518249512,6.1274528503418,5
5200,5011.0,CENTRE VILLE TAZOULT,35.2857398986816,6.15250396728516,5
5205,5023.0,ROUTE DES RUINESTIMGAD,35.2940216064453,6.28014278411865,5
5307,5026.0,MEDINA CENTRE,35.1831970214844,6.30356788635254,5
5315,5042.0,CITE 1052 LOGTS ARRIS,35.1527061462402,6.22054815292358,5
5400,5013.0,ROUTE RAS EL AIOUN,35.3800010681152,5.53999996185303,5
5402,5032.0,CENTRE VILLE A. DJASSER,35.5132598876953,6.00059700012207,5
5404,5047.0,EL-KSAR,35.4030265808105,5.54054307937622,5
5406,5044.0,M'CIL CENTRE,35.0,5.0,5
5409,5025.0,CENTRE VILLE SERIANA,35.4133262634277,5.11071491241455,5
5420,5034.0,CITE HOUARI-BOUMEDIENE,35.3699989318848,5.53999996185303,5
5421,5030.0,RUE 5 JUILLET,35.3802909851074,5.54223203659058,5
5500,5001.0,CENTRE VILLE BARIKA,35.2306442260742,5.22136497497559,5
5503,5046.0,MERABTINE EL DJEZZAR,35.302661895752,5.1553750038147,5
5504,5037.0,M'DOUKAL CENTRE,35.071117401123,5.10384082794189,5
5600,5002.0,ROUTE DE BISKRA,35.3899993896484,5.90999984741211,5
5605,5027.0,ROUTE DE BARIKA,35.3754196166992,5.57370710372925,5
5700,5004.0,CITE ADMINISTRATIF,35.6916999816895,6.13059997558594,5
5702,5068.0,DJERIAT,35.4245223999023,5.28022813796997,5
5705,5066.0,OULED-SIDI-SLIMANE,35.6110000610352,5.63299989700317,5
5707,5064.0,SEFIANE ROUTE DE BARIKA,35.2616081237793,5.33302879333496,5
5718,5019.0,N'GAOUS CENTRE VILLE,35.3310050964355,5.3641300201416,5
5800,5035.0,TENIET-EL-ABED CENTRE,35.1511116027832,6.11525583267212,5
5814,5036.0,OUED-TAGA CITE NOUVELLE,35.2552375793457,6.24515581130981,5
5900,5015.0,CENTRE VILLE EL-MADHER,35.372501373291,6.22109889984131,5
5902,5062.0,BOULHILET CENTRE,35.4327354431152,6.39397716522217,5
5904,5039.0,CHEMMORA CENTRE,35.4005470275879,6.3839111328125,5
6100,6000.0,PLACE MEDJAHED CHERIF BEJAIA ,36.75,5.06666994094849,6
6120,6134.0,CITE   MEZZAI  ABDELKADER BEJAIA,36.75,5.05670022964478,6
6122,6149.0,CITE TOBAL,36.7501633,5.0715664,6
6201,6007.0,AOKAS CENTRE,36.63330078125,5.25360012054443,6
6203,6017.0,OUED GHIR CENTRE,36.7103996276855,4.97731018066406,6
6209,6066.0,TALA HAMZA,36.7052993774414,5.03754997253418,6
6300,6001.0,RUE  ABDELKADER  SAHNOUNE   N° 12  AKBOU CENTRE,36.4590148925781,5.53347826004028,6
6306,6018.0,BOUDJELLIL CENTRE,36.3339996337891,4.35869979858398,6
6308,6013.0,GUENDOUZE CENTRE,36.3744010925293,4.78888988494873,6
6309,6014.0,IGHIL ALI CENTRE,36.3333015441895,4.46667003631592,6
6312,6010.0,IGHER AMOKRANE,36.5385208129883,4.618323802948,6
6313,6006.0,RUE PRINCIPALE ABDERRAHMANE MIRA  06006,36.3843994140625,4.39927005767822,6
6326,6111.0,BOULEVARD  1er NOV N° 226  AKBOU ,36.4589996337891,4.53340005874634,6
6403,6009.0,BARBACHA CENTRE,36.5728988647461,4.97119998931885,6
6404,6003.0,EL KSEUR CENTRE,36.6845016479492,4.85212993621826,6
6600,6011.0,RUE MOHALI  LARBI  SEDDOUK  06011,36.2248992919922,4.4109001159668,6
6603,6024.0,BENI MAOUCHE CENTRE,36.478099822998,4.63844013214111,6
6700,6004.0,PLACE 8 MAI 1945    KHERRATA,36.4926986694336,5.27758979797363,6
6702,6015.0,BORDJ MIRA  06015  Cne TASKERIOUT  ,36.5475997924805,5.27334976196289,6
6703,6016.0,DARGUINA CENTRE,36.5647010803223,5.3051700592041,6
6708,6012.0,SOUK EL TENINE CENTRE,36.6251983642578,5.33607006072998,6
6800,6005.0,SIDI AICH CENTRE,36.6128997802734,4.68830013275146,6
6801,6019.0,AKABIOU CENTRE,36.6500015258789,4.76667022705078,6
6802,6022.0,CHEMINI CENTRE,36.5999984741211,4.61667013168335,6
6810,6087.0,TIBANE,36.6167984008789,4.64978981018066,6
7100,7000.0,BOULEVARD EMIR AEK BISKRA,34.8525276184082,5.73059320449829,7
7102,7006.0,RUE KHRACHI BRAHIM BISKRA,34.8324928283691,5.72413110733032,7
7103,7016.0,RUE FRERES OUANOUGHI EL ALIA BISKRA,34.8588562011719,5.7418851852417,7
7107,7015.0,CITE 726 LOGTS BISKRA,34.8489379882812,5.70827627182007,7
7110,7017.0,RUE FERAH MELOUD EL ALIA BISKRA,34.8530578613281,5.74099111557007,7
7115,7020.0,UNIVERSITE KHAIDER MED  BISKRA,34.8450584411621,5.74735927581787,7
7118,7086.0,CITE ADMINISTRATIVE EL ALIA,34.8549118041992,5.74883127212524,7
7120,7092.0,HAY EL MOUDJAHIDINE BISKRA,34.8604011535645,5.7178168296814,7
7200,7030.0,RUE BOUDJEMAA MIHOUB EL OUTAYA,35.035472869873,5.59451103210449,7
7204,7025.0,RUE 1ER NOV DJEMMORAH,35.0708198547363,5.84650945663452,7
7205,7008.0,RUE 5 JUILLET EL KANTARA,35.2257347106934,5.710205078125,7
7300,7005.0,ROUTE AIN NAGA SIDI OKBA,34.7501373291016,5.9084267616272,7
7301,7039.0,ROUTE NATIONAL N° 83 AIN-NAGA,35.1223373413086,5.61521100997925,7
7400,7003.0,AV 5 JUILLET TOLGA,34.7315406799316,5.38163185119629,7
7404,7031.0,RUE SELLAMINE AISSA FOUGHALA,34.7176513671875,5.34242105484009,7
7405,7009.0,RUE 1ER NOV 54 LICHANA,34.725700378418,5.43127298355103,7
7406,7033.0,RUE SAHEL SEDIK LIOUA,34.6366386413574,5.40159177780151,7
7410,7035.0,CITE BELKHOUKH OUMACHE,34.6905174255371,5.69819021224976,7
7411,7011.0,RUE CHAIBA ABDEL MADJID OURLAL,34.6561622619629,5.51395606994629,7
8100,8000.0,CENTRE VILLE,31.6165199279785,-2.21463990211487,8
8101,8005.0,BECHAR DJEDID ,31.5631198883057,-2.23414993286133,8
8103,8017.0,HAI RIADHI BECHAR,31.5990619659424,-2.22258496284485,8
8104,8018.0,3 Â°RM  BECHAR ,31.6238460540771,-2.19743490219116,8
8108,8024.0,HAI ENNOUR BECHAR,31.6095542907715,-2.21359491348267,8
8112,8004.0, DEBDABA BECHAR  ,31.6209583282471,-2.204754114151,8
8113,8009.0,CTE LA BARGA BECHAR,31.6109962463379,-2.22422909736633,8
8116,8007.0,HAI EL INARA BECHAR,31.584924697876,-2.2259418964386,8
8121,8008.0,HAI M'RAH BECHAR,31.6075286865234,-2.22057604789734,8
8126,8053.0,ZONE BLEU BECHAR,31.5827617645264,-2.24027609825134,8
8129,8061.0,ROUTE-LAHMAR,31.6385803222656,-2.22277998924255,8
8130,8062.0,CITE AADL BECHAR,31.5756492614746,-2.20777010917664,8
8133,8065.0,HAI EL MONGAR DEBDABA BECHAR,31.61667,-2.21667,8
9100,9000.0,Ave MEKERKEB BEN YOUCEF  BLIDA,36.2831192016602,2.4902400970459,9
9103,9004.0,RUE TAKARLI ABDEREZAK,36.2822608947754,2.4957799911499,9
9105,9046.0,centre hai drieouche,36.2909088134766,2.48304009437561,9
9111,9017.0,CITE BOUNAA MA DJILLALI,36.2858695983887,2.49005007743835,9
9113,9006.0,1ERE REGIOM MILITAIRE,36.280891418457,2.46475005149841,9
9116,9005.0,LOTISSEMENT BEN MOKADEM,36.2948608398438,2.49377989768982,9
9117,9055.0,BAB ERRAHBA BLIDA,36.280158996582,2.49524998664856,9
9204,9015.0,RUE HADDEF MOHAMED,36.2947998046875,2.51536989212036,9
9208,9058.0,CITE 1erMAI 1000 lgts,36.2934417724609,2.51143002510071,9
9300,9011.0,RUE RECHACHE MOHAMED,36.2810096740723,2.37529993057251,9
9303,9041.0,Cité chahid akarmi kouider N°55 beni mouimene el affroun,36.2734985351562,2.3742299079895,9
9304,9024.0,RUE AMRANE AHMED BENI TAMOU,36.3219604492188,2.49323010444641,9
9308,9013.0,RUE MABZOUT RABAH,36.2756614685059,2.41241002082825,9
9313,9014.0,RUE DES FRERES SAIDANI ,36.3322296142578,2.47182011604309,9
9315,9021.0,RUE BEN YEKHLEF ,36.2804183959961,2.41395998001099,9
9400,9002.0,RUE CHAALA OMAR ,36.334789276123,3.09194993972778,9
9403,9012.0,RUE DES FRERES AYADI MEFTAH,36.3711204528809,3.13252997398376,9
9510,9022.0,RUE KHRITLI MOKHTAR,36.3104705810547,2.54212999343872,9
9519,9056.0,ROUTE DE STADE,36.3443489074707,2.54224991798401,9
9521,9074.0,DGSN ,36.3136215209961,2.5416100025177,9
10100,10000.0,AXE FINANCIER CITE GOUIZI SAID BOUIRA nouveau siége UPW,36.3768882751465,3.90021204948425,10
10104,10018.0,CITE DES 280 LOGTS BAT 03 DRAA EL BORDJ,36.3717002868652,3.88930010795593,10
10107,10017.0,CITE 1100 LOGTS BOUIRA ,36.388801574707,3.88170003890991,10
10109,10101.0,CITE 140 LOGTS 10101 BOUIRA,36.3891563415527,3.88670897483826,10
10117,10115.0,RUE GHERBI EL GHEMRAOUI bouira,36.37489,3.902,10
10203,10012.0,BECHLOUL CENTRE,36.3166999816895,4.06666994094849,10
10208,10022.0,EL ESNAM CENTRE,36.3221015930176,4.01189994812012,10
10210,10024.0,HAIZER CENTRE,36.3973999023438,3.99970006942749,10
10216,10007.0,AGHBALOU CENTRE,36.4667015075684,3.34999990463257,10
10218,10008.0,AHL EL KSAR CENTRE,36.2523002624512,4.04129981994629,10
10304,10036.0,DJEBAHIA 10280,36.4776992797852,3.75620007514954,10
10306,10037.0,GUERROUMA 10230,36.4337005615234,3.42490005493164,10
10307,10006.0,ROUTE N° 5 KADIRIA,36.5341987609863,3.68219995498657,10
10321,10026.0,CITE OUALDACHE LAKHDARIA,36.5727005004883,3.5961000919342,10
10324,10098.0,KRICHICHE CITE CNEP LAKHDARIA,36.5657005310059,3.58529996871948,10
10401,10014.0,BORDJ OKHRISS RUE PRINCIPAL 10340,36.081901550293,3.97270011901855,10
10403,10020.0,DIRAH 10370,36.1304016113281,3.57590007781982,10
10407,10040.0,MESDOUR 10341,36.0782012939453,4.06979990005493,10
10414,10028.0,SEG AZZOUZ ROUTE DE BORDJ OKHRIIS 10304,36.1495018005371,3.70499992370605,10
10415,10029.0,RUE MAZANI MOKHTAR 10029,36.1484985351562,3.69050002098083,10
10500,10005.0,ROUTE MIHOUBI BRAHIM AIN BESSAM,36.2921981811523,3.67030000686646,10
10503,10013.0,PLACE ZOUBIRI BOUAZA 10440,36.2626991271973,3.58459997177124,10
10504,10023.0,RUE PRINCIPAL 10490,36.2187995910645,3.81520009040833,10
10508,10042.0,RAOURAOUA 10460,36.2355003356934,3.644700050354,10
10517,10107.0,ROUTE DE SOUK EL KHEMIS ,36.2048988342285,3.8092999458313,10
11100,11000.0,CITE EL HOFRA,22.7833309173584,5.51666688919067,11
11107,11002.0,CITE IN KOUF,22.7666702270508,5.53333282470703,11
11110,11025.0,CENTRE VILLE ,22.7833309173584,5.80000019073486,11
11200,11003.0,IN AMGUIL,23.6833305358887,5.13333320617676,11
12100,12000.0,CITE DJEBEL  EL DJORF ,35.4257278442383,8.11285209655762,12
12107,12028.0,CITE 414 LOGEMENT TEBESSA,35.4079513549805,8.10471057891846,12
12112,12007.0,Cité 600 logts TEBESSA,35.4204597473145,8.07547283172607,12
12113,12004.0,BOULVARD ELAMIR ABD ELKADER,35.4046592712402,8.11928844451904,12
12116,12060.0,Boulevard Chadli ben djedid Tébessa,35.4274864196777,8.09327983856201,12
12117,12061.0,CITE ADDL TEBESSA,35.394359588623,8.11105155944824,12
12122,12071.0,AEROPORT CHEIKH LARBI TEBESSI,35.429012,8.123231,12
12200,12006.0,CENTRE VILLE EL KOUIF,35.4963684082031,8.31890964508057,12
12201,12019.0,CENTRE VILLE BEKKARIA,35.376594543457,8.24047470092773,12
12203,12014.0,CITE 54 LOG EL MA LABIOD,35.2085189819336,8.16938209533691,12
12205,12016.0,CENTRE VILLE HAMMAMET,35.4484596252441,7.95350694656372,12
12402,12008.0,Centre-ville Ain Zerga,35.6483764648438,8.25893020629883,12
12403,12012.0,Cité Chahid Guenez Hafnaoui Boukhadra,35.747631072998,8.03385734558105,12
12406,12017.0,CENTRE VILLE MORSOTT,35.6692543029785,8.00775814056396,12
12407,12003.0,Cité Ben Badis OUENZA,35.9521217346191,8.13229656219482,12
13105,13007.0,RUE LARBI BEN M'HIDI TLEMCEN CERISIERS,34.5243492126465,1.19160997867584,13
13109,13103.0,UNIVERSITE ABOU BAKR BELKAID CITE KIFFANE,34.895329,-1.330204,13
13110,13108.0,BEL HORIZON,34.8794762,-1.3265588,13
13111,13093.0,RUE BOUKLI HACENE DJILALI,34.877466,-1.310015,13
13200,13016.0,CITE 1060 LOGTS,34.5257606506348,1.20559000968933,13
13204,13012.0,HAI EL ENNASR,36.74395,3.083627,13
13205,13008.0,RUE DE LA POSTE,36.7510154,2.9817783,13
13207,13010.0,BD DE LA REPUBLIQUE ,34.8542088,5.7309247,13
13236,13119.0,BOULEVARD DE L'INDEPENDACE CHETOUANE CENTRE,33.900433,-5.505051,13
13304,13031.0,HAI CHOUHADA,34.15607025,5.811975674021311,13
13404,13036.0,RUE HACHMAOUI MOHAMED,35.188535,-0.619149,13
13508,13020.0,RUE DE LA MOSQUEE,36.7783105,2.9733897,13
13509,13046.0,RUE ACHI AHMED SOUANI,35.76423,-5.8257,13
13510,13047.0,ROUTE PRINCIPALE,36.836715,6.63702,13
13600,13005.0,RUE LARBI BEN MHIDI ,36.2839147,7.9530754,13
13601,13013.0,1ER NOVEMBRE 1954,36.4514263,6.2626973,13
13602,13025.0,RUE SAYAH BOUKHARI ,36.370594,3.900138,13
13604,13009.0,RUE 1ER NOVEMBRE 1954,35.304351,-1.382646,13
13605,13015.0,RUE 18 FEVRIER HONAINE,35.17577,-1.65514,13
13700,13004.0,RUE DE L'INDEPENDANCE,36.7695889,3.000678,13
13703,13035.0,RUE DJERIEF AEK,36.077245,4.758123,13
13708,13018.0,CITE BEN BADIS,33.813927500000005,2.867196650000003,13
14100,14000.0,BOULEVARD DU 1ER NOVEMBRE ,36.7515264,3.4753723,14
14103,14021.0,CITE KARMAN,36.73337,3.279878,14
14104,14035.0,CITE DES 500 LOGEMENTS,35.3521995544434,1.31700003147125,14
14105,14036.0,HAI EL MANAR ,35.3450012207031,1.31889998912811,14
14106,14031.0,RUE CHADLI HABIB,35.3856010437012,1.31610000133514,14
14110,14016.0,BD BOUABDELLI BOUABDELLAH,35.3713989257812,1.32152199745178,14
14112,14006.0,CITE BELLE VUE TIARET,35.37103,1.31699,14
14114,14073.0,AADL ROUTE D'ALGER,36.6461544,2.7745945,14
14200,14010.0,RUE DE LA VOCTOIRE,36.66694,3.052403,14
14202,14040.0,RUE DU 1ER NOVEMBRE ,35.3562507629395,1.50463199615479,14
14203,14041.0,RUE BENAICHA AHMED,35.391898,0.129953,14
14211,14012.0,RUE  DU 05 JUILLET,36.4764601,2.8342603,14
14212,14025.0,RUE OMRISSI BELKACEM,35.255199432373,1.23370003700256,14
14215,14005.0,RUE CAPITAINE BOUCIF,35.3727144,1.3201111,14
14300,14003.0,BOULEVARD SI ABDELGHANI,35.1841173,1.5040629,14
14304,14013.0,RUE MANSOUR MED,35.898998260498,1.23860001564026,14
14312,14066.0,CITE SAFA ABDELKADER,36.73218,3.182413,14
14412,14011.0,ROUTE DE TIARET,35.1919154,1.4867373,14
14500,14001.0,CITE POLICIERE FRENDA,35.0617980957031,1.04589998722076,14
14501,14008.0,BOULEVARD DES MARTYRS,35.4599990844727,0.553200006484985,14
14515,14050.0,RUE PRINCIPALE,35.3520011901855,1.33000004291534,14
14517,14080.0,"Aïn Kermes, daïra Aïn Kermes, RADP",34.897954,1.108023,14
15100,15000.0,BD COLONNEL AMIROUCHE T O,36.4246597290039,4.24037981033325,15
15101,15008.0,RUE CHIKHI AMAR ,36.4275741577148,4.3120698928833,15
15111,15007.0,NVLLE VILLE,36.4154739379883,4.25219011306763,15
15202,15011.0,BENI DOUALA CENTRE,36.3710670471191,4.45783519744873,15
15305,15013.0,AVENUE DU 20 AOUT,36.3225402832031,4.2210807800293,15
15306,15015.0,OUACIF CENTRE,36.3126907348633,4.12170791625977,15
15309,15053.0,YATEFFANE,36.3393096923828,4.15185546875,15
15407,15009.0,BD COLONEL MOHAND OULHADI,36.6077995300293,4.47620010375977,15
15417,15038.0,RUE BOUDJEROUNA  SAID,36.5833015441895,4.41666984558105,15
15418,15040.0,IZARAZENE,36.475643157959,4.14489221572876,15
15419,15014.0,MEKLA CENTRE,36.4196090698242,4.16436004638672,15
15517,15042.0,RUE NATIONAL N° 30,36.3239364624023,4.02798938751221,15
15603,15030.0,BENI YENNI,36.3425750732422,4.1240382194519,15
15710,15069.0,IFLISSEN,36.5213394165039,4.13134813308716,15
15711,15041.0,RUE 8 MAI 1945,36.4728660583496,4.03459692001343,15
15719,15048.0,ROUTE DU CEM,36.4612197875977,4.10518407821655,15
15801,15063.0,AIT TOUDERT,36.5200996398926,4.18511009216309,15
16123,16040.0, CITé CLAIRVAL ROSTOMIA  ,36.7705841064453,3.00844502449036,16
16216,16129.0,CITE FRERES ACHOURI DAR EL BEIDA,36.723765,3.212943,16
16217,16154.0,"CITE AADL EL MOUSALAHA B,E,Z 5 JUILLET",36.734078,2.993778,16
16303,16027.0,BOULVARD BELARBI BARAKI,36.774736,3.060156,16
16321,16139.0,01 RUE MOHAMED BELARBI BARAKI,36.668986,3.094076,16
16404,16032.0,RUE LAMARI Bouzareah,36.791015625,3.01937508583069,16
16405,16043.0,CITE ABDELKADER GADOUCHE,36.6042633056641,2.98692393302917,16
16406,16047.0,RUE DE LA POSTE,36.7508544921875,2.98159003257751,16
16408,16028.0,"33, RUE MOSTAPHA KHALEF",36.7605323791504,3.01522588729858,16
16409,16089.0,15 RUE  DES VALOIS,36.7605323791504,3.00876092910767,16
16412,16044.0,RUE BRAHIM HADJESS (ROUTE PRINCIPALE DE BENI MESSOUS),36.7819175720215,2.98209404945374,16
16419,16177.0,HOTEL MILITAIRE BENI MESSOUSS,36.7731056213379,2.99623894691467,16
16421,16138.0,118 BD ALI KHODJA,36.769221,3.026757,16
16433,16243.0,CITE AADL 649 LOGTS  LOT 16 W 9 ( co1 co2),36.741717,2.953241,16
16703,16069.0,06 RUE AHCENE DJENKI,36.790612,3.060641,16
16709,16045.0,RUE BOUDELLA RAMDANE,36.6672019958496,3.04601693153381,16
16710,16099.0,ROUTE DE KOLEA ,36.6312446594238,2.94583702087402,16
16712,16061.0,ROUTE DAR BEIDA SIDI MOUSSA,36.721623,3.207065,16
16723,16226.0,cité  OPGI3216 logts CHAIBIA OULED CHBEL,36.6257286071777,2.98970699310303,16
16800,16014.0,RUE MEZALI CHERIF BT PTT,36.7694396972656,2.90529894828796,16
16805,16113.0,LOTISSEMENT AMARA 2,36.7640495300293,2.94440293312073,16
16808,16104.0,07 RUE DE LA MAIRIE EL ACHOUR,36.7123680114746,2.97538900375366,16
16809,16106.0,RUE BOUDJEMAA KHELIL,36.7419013977051,2.99593901634216,16
16810,16050.0,rue Boudjemaa Temim,36.7120475769043,2.99816203117371,16
16811,16049.0,RUE DES FRERES MAHDI,36.7997016906738,3.24720001220703,16
16812,16119.0,CITE SOUALMIA,36.6475944519043,2.97151708602905,16
16814,16081.0,RUE BOUDJNAH ARAB ,36.6959915161133,2.97052597999573,16
16820,16063.0, Rue1 ER NOVEMBRE,36.7130432128906,2.83560800552368,16
16823,16018.0,99 RUE COLONNEL SI M'HAMED,36.7946853637695,2.90712690353394,16
16825,16120.0,CITE 11 DECEMBRE ,36.6751670837402,2.88165903091431,16
16827,16098.0,RESIDENCE D'ETAT CLUB DES PINS,36.7688369750977,2.88508105278015,16
16830,16093.0,RUE MERZOUG MUSTAFA BEN ALI,36.756763458252,2.85721802711487,16
16832,16121.0,RUE BRAHIMI BOUKHARI,36.6805305480957,2.90615510940552,16
16833,16097.0,RUE MOHAMED SAID DJAOUT ,36.7071723937988,2.9223940372467,16
16843,16175.0,CITE AADL OULED FAYET,36.719425201416,2.9544689655304,16
16844,16181.0,CITE 1839 LOGTS AADL,36.7296295166016,3.00691199302673,16
16851,16201.0,"CITE AADL DE LA NOUVELLE VILLE DE SIDI ABDELLAH,MAHALMA",36.679630279541,2.88049006462097,16
16852,16202.0,"LA CITE 1067 LOGEMENTS LPP DE SIDI ABDELLAH,MAHALMA",36.6804084777832,2.88627505302429,16
16856,16225.0,cité 1000 logts BELLE VUE AIN BENIAN,36.7874336242676,2.91686010360718,16
16905,16115.0,RUE PRINCIPALE EL MARSA,36.789051,3.053979,16
16907,16017.0,"10, RUE COLONEL AMIROUCHE, ROUIBA",36.702756,3.025388,16
17101,17028.0,CITE AIN CHIH  DJELFA ,34.679988,3.250024,17
17200,17020.0, CENTRE VILLE EL IDRISSIA,34.44542,2.52749,17
17202,17015.0,RUE ABDELAZIZ EL HADJ   CHAREF,36.710184,2.994332,17
17302,17056.0,Rue 1er  Novebre   centre ville HASSI FDOUL,36.817099,3.01344,17
17320,17071.0,centre  Ville  HAD SAHARY,35.35056,3.36528,17
17500,17003.0,CITE   1ER Novembre MESSAAD,34.15429,3.50309,17
17510,17021.0,1 ER Novembre  FEID EL BOTMA,36.769953,3.001993,17
17522,17034.0,PLACE  EMIR     A E K  MESSAAD,36.767623,2.957922,17
18100,18000.0,RUE DE 1ER NOV,36.7541580200195,6.27583312988281,18
18101,18013.0,RUE ZIGHOUD YOUCEF,36.8131294250488,5.77481985092163,18
18102,18014.0,ROUTE DE LA SOUMMAM,36.8217697143555,5.75488996505737,18
18109,18012.0,RUE DES FRERES BOUCHAIR,36.8081283569336,5.75650978088379,18
18200,18006.0,RUE EMIR AEK,36.660530090332,5.79025983810425,18
18208,18031.0,RUE 08 MAI 1945,36.5791206359863,5.88429021835327,18
18211,18015.0,RUE CHIKIROU MOUHAMED,36.7718124389648,5.81151437759399,18
18221,18040.0,CITE ANDREU,36.7925109863281,5.66054010391235,18
18300,18002.0,RUE GHUEDIED AHMED,36.7687301635742,5.89759016036987,18
18301,18022.0,BAZOUL,36.8140907287598,5.9086799621582,18
18308,18029.0,RUE AHMED H'BIBATNI,36.8065185546875,6.12608003616333,18
18310,18010.0,RUE NACER DERRADJI,36.7509498596191,5.84412002563477,18
18313,18017.0,RUE RAHMANI TAHAR,36.8528518676758,6.04908990859985,18
18318,18019.0,RUE AMRA TAHAR,36.7710418701172,5.89600992202759,18
18400,18001.0,PLACE  BOUNNAH  BELKACEM ,36.7521514892578,6.27398014068604,18
18402,18024.0,KHEIRI-OUED-ADJOUL,36.8594703674316,6.41364002227783,18
18407,18004.0,RUE GUERFI  AMEUR,36.8008460998535,6.1582670211792,18
18419,18016.0,CITE AHMED DJELLIL,36.7207183837891,6.33483982086182,18
18420,18018.0,RUE SAAD BOULAATALI,36.6402053833008,6.2746000289917,18
19100,19000.0,RUE  01/11/1954  SETIF,36.1892471313477,5.41138172149658,19
19101,19006.0,RUE FRERE MESLEM SETIF,36.1879615783691,5.40809202194214,19
19104,19065.0,RUE KASEM KHALED,36.1959991455078,5.41950082778931,19
19105,19034.0,RUE KARMA KADOUR,36.1861839294434,5.43042898178101,19
19123,19134.0,500 AADL BT 14-AIN-MOUS SETIF,36.1970977783203,5.45154809951782,19
19201,19016.0,AIN  ABESSA,36.2962608337402,5.29388380050659,19
19301,19007.0,RUE DAOUD SALAH,35.8171119689941,5.51151084899902,19
19306,19050.0,GUELLAL,36.0363006591797,5.3311653137207,19
19307,19027.0,GUIDJEL,36.1189079284668,5.53086376190186,19
19309,19015.0,ADDAOUA,35.6780281066895,5.36899995803833,19
19310,19054.0,KSAR EL ABTAL,35.9870872497559,5.21622848510742,19
19313,19030.0,O.TEBBEN,35.9172210693359,5.29575395584106,19
19315,19061.0,RAS ISLY,35.7632637023926,5.20709562301636,19
19316,19013.0,RUE NATIONALE ,35.851375579834,5.28889513015747,19
19318,19039.0,BIR HADDADA,35.9371719360352,5.5402717590332,19
19322,19113.0,MELLOUL,36.0021514892578,5.37739515304565,19
19400,19003.0,RUE ALLAOUA EL AMRI  ,36.3328895568848,5.08699798583984,19
19401,19019.0,AIN ROUA,36.3336906433105,5.18291664123535,19
19402,19037.0,BENI HOCINE,36.2723007202148,5.05214214324951,19
19405,19026.0,GUENZET,36.3252220153809,4.83822298049927,19
19406,19051.0,H.GUERGOUR,36.3231506347656,5.05510187149048,19
19407,19028.0,MAOKLANE,36.3974075317383,5.07775402069092,19
19501,19033.0,AIN SEBT,36.4851837158203,5.71217203140259,19
19503,19009.0,RUE DE L' A L N   ,36.3881645202637,5.41035890579224,19
19505,19010.0,BENI AZIZ,36.5589828491211,5.57354259490967,19
19510,19020.0,BABOR,36.3438491821289,5.48761224746704,19
19511,19066.0,SOKHNA,35.978343963623,5.80840396881104,19
19512,19041.0,DEHAMCHA,36.383674621582,5.59305000305176,19
19513,19068.0,TIZI NâBECHAR,36.4306335449219,5.36051177978516,19
19520,19139.0,"RUE MARTYR SIARI KHELIFA A AIN TOUILA ,SETIF",36.3541526794434,5.51318120956421,19
19600,19012.0,BOUANDAS,36.4967651367188,5.10301780700684,19
19605,19029.0,O.A.B.ATHMANE,36.4365692138672,4.99677276611328,19
19606,19069.0,TIZI N'BRAHM,36.4622268676758,5.09109020233154,19
19609,19070.0,AIN DOKKAR,36.4992828369141,5.03958606719971,19
19703,19021.0,BEIDA BORDJ,35.8940010070801,5.66599988937378,19
19704,19022.0,BELLAA,36.1316795349121,5.83648109436035,19
19706,19024.0,BIR EL ARCH,36.1316795349121,5.83648204803467,19
19707,19025.0,DJEMILA,36.3155403137207,5.73640489578247,19
19718,19122.0,SIDI SALAH,36.1828193664551,5.61495494842529,19
19721,19005.0,426 LOTS  EL EULMA,36.1558113098145,5.68178701400757,19
19800,19011.0,BENI. OURTILANE,36.4435920715332,4.8515887260437,19
19804,19038.0,BENI MOHLI,36.5575675964355,4.86425304412842,19
19806,19082.0,BENI BRAHIM,36.4095001220703,4.89773893356323,19
19905,19141.0,RUE BERKENE SAID  AIN AZEL,35.8163681030273,5.51212978363037,19
20101,20017.0,Cite daoudi moussa Saida 20017 ,34.8311309814453,0.139503002166748,20
20102,20018.0,Cite Khater Abdelkader Saida 20018,34.1236534118652,0.152365401387215,20
20104,20010.0,Cite Boukhors saida 20010,34.1548805236816,0.152547001838684,20
20105,20015.0,Cite CDT MEJDOUB SAIDA 20015,34.8204116821289,0.153059005737305,20
20106,20006.0,cite ENNASR Saida 20006,34.8560600280762,0.149211004376411,20
20109,20042.0,CITE SOUMMAM SAIDA 20042,34.8485145568848,0.146621003746986,20
20112,20043.0,CITE 05 JUILLET SAIDA 20043,34.369873046875,0.152648702263832,20
20113,20005.0,Cite Belhadi benyamina 20005,34.8430557250977,0.150998994708061,20
20200,20001.0,CITE DES MARETYRE AIN HADJAR 20001,34.7585945129395,0.145169109106064,20
20209,20014.0,RUE 1ER NOVEMBRE MOULAY LARBI  20014,34.5053634643555,0.147373557090759,20
20211,20004.0,RUE AMIR ABDELKADER REBAHIA 20004,34.8755989074707,0.152278199791908,20
20213,20007.0,CITE FILAH TAYEB SIDI BOUBEKEUR 20007,35.0262107849121,0.101110801100731,20
20302,20002.0,RUE DES MARTYRES OUELD BRAHIM 20002,34.5643882751465,0.192350000143051,20
20306,20012.0,KHALFALLAH VILLAGE 20012,34.5488395690918,0.259616136550903,20
21102,21025.0,SKIKDA 8 MAI 1945,36.8658180236816,6.89962863922119,21
21208,21039.0,HAMROUCHE-HAMMOUDI,36.8470039367676,6.95567607879639,21
21300,21002.0,COLLO,37.0069732666016,6.56903028488159,21
21303,21007.0,AIN-KECHERA,36.7447319030762,6.42966270446777,21
21304,21052.0,BIN-EL-OUIDEN,36.8100280761719,6.56639623641968,21
21306,21012.0,BOU-NOGHRA,36.9955940246582,6.34029150009155,21
21309,21016.0,EL-OULOUDJ,36.9166679382324,6.48333311080933,21
21316,21005.0,TAMALOUS,36.8381500244141,6.63833713531494,21
21317,21028.0,ZITOUNA,36.9887924194336,6.46207427978516,21
21331,21081.0,LA PARTIE NORD DE LA VILLE DE TAMALOUS,36.8382453918457,6.64282321929932,21
21400,21001.0,AZZABA,36.7400894165039,7.10918426513672,21
21403,21010.0,BEN-AZZOUZ,36.8604049682617,7.29373121261597,21
21404,21035.0,BOUMAIZA,36.810001373291,7.34000015258789,21
21406,21058.0,EL-MARSA,37.0298919677734,7.25515127182007,21
21407,21018.0,ES-SEBT,36.6626052856445,7.07770586013794,21
21413,21008.0,AZZABA-INDEPENDANCE,36.7392616271973,7.10667896270752,21
21415,21006.0,AIN-CHARCHAR,36.7314910888672,7.21752405166626,21
21418,21032.0,AZZABA-BOUACIDA,36.7457618713379,7.10591650009155,21
21500,21003.0,EL-HARROUCH,36.652027130127,6.83560419082642,21
21501,21031.0,AIN-BOUZIANE,36.5997047424316,6.75183916091919,21
21509,21057.0,EL-GHEDIR,36.6870193481445,6.97673511505127,21
21514,21022.0,SALAH-BOUCHAOUR,36.7040519714355,6.85880470275879,21
21516,21023.0,SIDI-MEZGHICHE,36.6800918579102,6.71862840652466,21
21520,21004.0,RAMDANE-DJAMEL,36.7527313232422,6.89764165878296,21
21528,21021.0,"RAMDANE-DJAMEL 1ER NOV,",36.7546691894531,6.89698934555054,21
22100,22000.0,RUE HADID AISSA ,35.1909921,-0.6354427,22
22109,22017.0,RUE ASPIRANT SAADANE,35.185955,-0.635054,22
22111,22071.0,HAI BENI AMEUR,35.648177,-0.621943,22
22126,22088.0,"CITE 200 LOGEMENTS AZOUZ, SIDI DJILLALI",35.186844,-0.623971,22
22206,22033.0,RUE ASPIRANT ABDELKRIM,35.299438,-1.135531,22
22212,22094.0,RUE HALLOUCHE MOKHTAR ,35.18639,-0.645798,22
22302,22022.0,RUE CHAIB DJILLALI,35.3656997680664,-0.512838006019592,22
22400,22004.0,RUE MECHETI KOUIDER,35.195419,-0.628588,22
22408,22028.0,PLACE DE MARTYRS,34.9455986022949,-0.719433009624481,22
22409,22014.0,RUE SAHRAOUI KADOUR ,35.704471,-0.62979,22
22500,22007.0,Bvd ARBI BEN MHIDI ,34.853853,5.728359,22
22504,22011.0,RUE MOHAMED BOUDIAF,35.1865145,-0.6366084,22
22507,22026.0,RUE BENDAHOU BELAHCEN,36.606399,2.187044,22
22509,22005.0,Bvd AHMED FETHI ,36.734124,3.965391,22
22519,22073.0,Bvd LARBI BEN MHIDI,35.465806,2.903559,22
22605,22069.0,RUE DES MARTHYRS,36.752089,3.062804,22
23100,23000.0,RUE ZIGHOUD YOUCEF ANNABA,36.9028778076172,7.75986003875732,23
23102,23002.0,PHILIPPE DE CERNER MENADIA ,36.9124336242676,7.76406002044678,23
23106,23001.0,CITE AMIROUCHE  ANNABA ,36.9042510986328,7.75179100036621,23
23113,23012.0,CITE 1028 LOGTS BLOC  76 P/OUST ,36.8964309692383,7.73093414306641,23
23115,23016.0,CITE S/SALEM ANNABA ,36.8619232177734,7.77195596694946,23
23116,23003.0,AVENUE DE LâAVANT PORT ,36.8980712890625,7.76245594024658,23
23123,23007.0,CITE 05 JUILLET  ANNABA ,36.8867034912109,7.7116231918335,23
23124,23011.0,CITE RYM  ANNABA ,36.8799476623535,7.72541379928589,23
23127,23048.0,CITE OUED FORCHA ANNABA ,36.9114074707031,7.73557996749878,23
23129,23050.0,CITE SIDI ACHOUR ANNABA ,36.8770179748535,7.71377420425415,23
23200,23009.0,RUE  DE LA POSTE ,36.8359413146973,7.45455121994019,23
23204,23021.0,OUICHAOUA O/EL ANEB ,36.8807678222656,7.49346113204956,23
23205,23015.0,AVENUE TABET HOCINE ,36.9136390686035,7.67305278778076,23
23206,23022.0,VSA TREAT ,36.8990058898926,7.42766618728638,23
23301,23006.0,RUE EL MOKHERANI AIN BERDA ,36.6477966308594,7.59095191955566,23
23302,23018.0,LA POSTE CHEURFA,36.7207183837891,7.55390501022339,23
23304,23005.0,CITE 19 JUIN  SIDI AMAR ,36.8137054443359,7.71018218994141,23
23306,23036.0,CITE OUED EL HOUT ,36.737865447998,7.46507596969604,23
23311,23037.0,CITE HADJAR EDISS,36.7904815673828,7.62302017211914,23
23313,23010.0,CITE  BELLEVUE ,36.8552017211914,7.75087118148804,23
23319,23013.0,CITE  800 LOGTS  -BOUKHADRA,36.8743209838867,7.74438190460205,23
23324,23049.0,CITE DES ORANGERS  EL BOUNI,36.8517875671387,7.74249696731567,23
23328,23058.0,CITE FADILA SAADANE- EL HADJAR,36.8021087646484,7.73536205291748,23
24100,24000.0,CITE MOHAMED TAHAR SERIDI,36.4630393981934,7.43136978149414,24
24101,24021.0,CITE BEN CHEGHAIB,36.4682197570801,7.41944980621338,24
24102,24006.0,RUE CHORFI  GUELMA,36.4595794677734,7.42136001586914,24
24108,24003.0,CITE AGABI GUELMA,36.4611206054688,7.43942022323608,24
24201,24012.0,RUE KOHAILA LAKHMISSI,36.265941619873,7.39635992050171,24
24202,24025.0,RUE 05 JUIELLET 1962,36.4141616821289,7.29030990600586,24
24207,24005.0,RUE 1ER  NOV  1954 ,36.459228515625,7.51990985870361,24
24209,24007.0,CITE ANCIEN GARE ,36.4589195251465,7.27187013626099,24
24210,24008.0,RUE KHEMISTI MOHAMED,36.5035781860352,7.44188976287842,24
24300,24002.0,RUE 1ER NOV 1954,36.4735412597656,7.7278299331665,24
24304,24016.0,CITE KAF SIDI BRAHIM,36.3716087341309,7.53252983093262,24
24310,24027.0,RUE MERRAH ABDALLAH,36.6109580993652,7.51140022277832,24
24311,24009.0,RUE MESSAADIA LAYACHI,36.3782081604004,7.76383018493652,24
24402,24013.0,CITE KARA BADJA MOUSA,36.2436485290527,7.25015020370483,24
25100,25000.0,PLACE 1ER NOVEMBRE 1954  ,36.0,6.0,25
25123,25022.0,CITE DES MARTYRS ROUTE NATIONALE N 01,33.802771,2.858639,25
25128,25008.0,CITE 20 AOUT 1955,36.8657771,6.9142327,25
25208,25028.0,RUE NATIONALE ,36.7497158,2.986629,25
25216,25043.0,KADRI BRAHIM,36.2573852539062,6.61034297943115,25
25219,25026.0,CITE MASSINISSA,35.4565901,2.8978649,25
25220,25054.0,CITE H'RICHA BOULVARD 11 DEC 61,36.2831878662109,6.47165822982788,25
25306,25024.0,RUE LARBI BEN M'HIDI,36.6388398,2.770011,25
25307,25027.0,RUE 1 ER NOVEMBRE 1954,35.696022,-0.5791944,25
25309,25013.0,RUE ALN N 12 ,35.961409,0.919877,25
25319,25059.0,CITE OUED LAHDJAR DIDOUCHE MOURAD,36.869488,6.901462,25
26100,26000.0,PLACE 1 NOV MEDEA,36.2675018310547,2.75009989738464,26
26103,26011.0,AIN D'HAB MEDEA,35.5324172973633,3.09326505661011,26
26105,26009.0,RUE DE L'ALN MEDEA,36.263168,2.761799,26
26110,26083.0,POLE UNIVERSITAIRE YAHIA FARES MEDEA,36.1551322937012,2.46436095237732,26
26115,26090.0,HAI EL SALEM MEDEA,36.2774772644043,2.75354695320129,26
26200,26019.0,RUE PRINCIPALE OUZERA,36.1707954406738,3.29402589797974,26
26207,26034.0,OUAMRI CENTRE,35.5653228759766,2.49203109741211,26
26209,26045.0,SI MAHDJOUB CENTRE,36.0642356872559,3.00473093986511,26
26301,26006.0,CITE DJEDDI ABDELKADER BERROUAGHIA,36.13516,2.91085,26
26307,26043.0,SIDI NAAMANE CENTRE,36.213695526123,3.21237707138062,26
26309,26024.0,CITE 1 NOV BERROUAGHIA,35.4215354919434,2.50370502471924,26
26310,26021.0,ZOUBIRIA CENTRE,36.0726852416992,3.15427303314209,26
26400,26003.0,BOULEVARD MOHAMED KHEMISTI K-E-B,35.531005859375,2.44584107398987,26
26402,26013.0,BOGHAR CENTRE,35.9113998413086,2.71667003631592,26
26404,26023.0,BOUGHZOUL CENTRE,36.2505836486816,3.12563896179199,26
26405,26026.0,CHAHBOUNIA CENTRE,36.1129264831543,3.14051389694214,26
26412,26040.0, AZIZ CENTRE,36.0141448974609,3.81625008583069,26
26420,26077.0,CITE ZOBRA KSAR EL BOUKHARI,36.1207542419434,2.46313405036926,26
26500,26001.0,PLACE DES MARTYRS BENI SLIMANE,36.1332015991211,3.18210005760193,26
26502,26025.0,BOUSKENE CENTRE,36.0747985839844,2.56073307991028,26
26504,26016.0,LOUANES ABDELKADER DJOUAB,35.5429000854492,2.2319860458374,26
26505,26020.0,RUE CHAHID BOUKHORS SOUAGUI,36.1514358520508,2.50459599494934,26
26600,26005.0,RUE CHERFI HALIMA AIN BOUCIF,35.5324172973633,3.09110903739929,26
26603,26007.0,RUE 1 NOV CHELLALET EL ADHAOURA,35.5617332458496,3.24173188209534,26
26613,26010.0,AIN BOUCIF 5 JUILLET,36.155101776123,2.47469091415405,26
26700,26004.0,RUE MOHAMED KHEMISTI TABLAT,36.4120937,3.311158,26
26702,26014.0, BOUCHRAHIL CENTRE,35.5500679016113,2.4248480796814,26
26704,26030.0,EL GUELB KEBIR CENTRE,35.5341300964355,2.45082402229309,26
27100,27000.0,SQUARE BOUDJEMAA MOHAMED,35.035774,5.58958,27
27102,27006.0,RUE BENSAADOUNE MENAOUER,35.962998,0.912637,27
27103,27043.0,"CITE LAARADJ ABDELKADER , OUREAH ",35.86655,0.03803,27
27107,27019.0,MOSTAGANEM CITE 5 JUILLET MOSTA.,35.930267,0.094365,27
27201,27010.0,26 RUE OUALI ZOUBIR,35.24766,0.159404,27
27206,27045.0,CITE 50 LOGEMENT SAYADA ,35.926943,0.077891,27
27300,27001.0,CITE EMIR ABDELKADER RUE DE L'HOPITAL                               ,35.191212,-0.630326,27
27306,27016.0,RUE DES AURES,35.7020118,-0.6454217,27
27316,27011.0,CITE COLONEL LOTFI ,34.041387,0.091316,27
27401,27008.0,RUE BEDANI YOUCEF ,35.69398,-0.628034,27
27420,27073.0,RUE 1ER NOVEMBRE SIDI ALI,36.88337,6.90644,27
27501,27046.0,SOUAFLIAS CENTRE,36.533491,4.369928,27
27502,27070.0,CITE DES ENSEIGNANTS ,36.3083536,1.8494436,27
28100,28000.0,CITE ADMINISTRATIVE ,35.4220962524414,4.32125806808472,28
28107,28019.0,CITE 132 LOGEMENTS,35.4258804321289,4.32144403457642,28
28112,28077.0,CITE 256 LOGEMENT,35.44287109375,4.30531406402588,28
28115,28089.0,"CITE 120 LOGEMENTS POLE UNIVERSITAIRE,M'SILA",35.4414291381836,4.31549692153931,28
28200,28022.0,CENTRE VILLE,34.675660050000005,3.2524603794813047,28
28306,28029.0,BIR GUELLALIA,35.1955795288086,4.47248411178589,28
28307,28030.0, BIR HANI,35.1921234130859,4.24570894241333,28
28311,28032.0,EDDIS,35.1756782531738,4.10987997055054,28
28313,28013.0,CITE CHAABANI,34.6633883,3.2598999045454544,28
28317,28033.0,MED-BOUDIAF,35.887681,3.152342,28
28401,28003.0,ROUTE D'ALGER,35.4024200439453,3.52585792541504,28
28408,28034.0,PLACE  5 JUILLET,35.5316848754883,3.46174001693726,28
28410,28092.0,CITE CHENAFI SAID SIDI AISSA,35.5216827392578,3.46204090118408,28
28503,28024.0,AIN OGHRAB,34.9930304,4.0907504,28
28510,28037.0,SLIM,34.8975410461426,3.7343955039978,28
28514,28070.0,MENAA,35.8462104797363,3.41464495658875,28
28606,28017.0,MELOUZA,35.9822568,4.188425,28
29108,29008.0,RUE MENAOUER DJEBAR MASCARA,35.4013442993164,0.149557992815971,29
29112,29085.0,CITE 275 LOGTS MASCARA,35.4020233154297,0.124711997807026,29
29201,29020.0,RUE REMAL ABDELKADER AIN FARES,35.4811859130859,0.244688004255295,29
29209,29018.0,RUE NASREDDINE TIZI,35.3152122497559,0.0740469992160797,29
29211,29056.0,RUE HAMRI AEK MAMOUNIA,35.426197052002,0.141742005944252,29
29304,29012.0,RUE DES MARTYRS EL BORDJ,35.5160942077637,0.302487999200821,29
29412,29010.0,RUE ABDENOUR MOSTAPHA SIG,35.5309219360352,-0.188281998038292,29
29503,29023.0,RUE DE LA MOSQUEE EL GHOMRI,35.6901435852051,0.20660600066185,29
29515,29003.0,CITE DES 124 LOTS MOHAMMADIA,35.5935249328613,0.0773129984736443,29
29600,29006.0,RUE GHEZZOUAR GHRISS,35.2494163513184,0.160344004631042,29
29602,29011.0,RUE DE L'INDEPENDANCE AIN FEKAN,35.2249221801758,-0.0051460000686347,29
29607,29015.0,RUE FERHAOUI AHMED  MAOUSSA ,35.3776702880859,0.245897993445396,29
29609,29026.0,RUE EMIR ABDELKADER  MATEMORE ,35.3247413635254,0.214734002947807,29
30100,30000.0,ROUTE DE GHARDAIA - OUARGLA,35.686305,-0.639611,30
30101,30033.0,RUE BEN BOULAID,36.3652671,6.6093966,30
30103,30011.0,AVENUE SI EL HAOUAS OUARGLA,35.453063,2.895931,30
30106,30042.0,RUE BOUROUBA DAHMANE,31.968958,5.305171,30
30107,30021.0,RUE COMMUNAL,36.734638,3.089593,30
30115,30014.0,ROUTE NATIONALE N°49,36.076065,4.744496,30
30119,30012.0,RUE ATTAOUT KADOUR OUARGLA,31.947996,5.32006,30
30125,30061.0,AVENUE EMIR AEK,34.665618,3.255381,30
30204,30013.0,RUE CHAHID BENSALEM,36.370727,3.880953,30
31100,31000.0,Rue Cheikh Mébarek El Mili- ORAN ,35.7029075622559,-0.645645976066589,31
31104,31092.0,AV SIDI CHAHMI - ORAN ,35.6855583190918,-0.616684973239899,31
31105,31008.0,RUE LARBI BENMHIDI -ORAN-,35.700353,-0.642459,31
31107,31087.0,AHMED BENABDELMALEK -WILAYA-,35.7033882141113,-0.628799021244049,31
31112,31011.0,RUE BOUSHABA ABDELLAH -ORAN-,35.6795272827148,-0.661902010440826,31
31115,31012.0,RUE PIGRIFY BOULANGER ,35.6838188171387,-0.651090025901794,31
31129,31033.0,COTE DES AMANDIERS -ORAN-,35.6768531799316,-0.679090023040771,31
31143,31034.0,RUE DE AMANDIERS -ORAN-,35.705803,-0.627692,31
31147,31003.0,AVE SAIM MOAHMED -ORAN-,35.6950035095215,-0.633948028087616,31
31152,31096.0,CITE HAI FELLOUCENE - EL BARKI - ORAN ,35.6852645874023,-0.601760029792786,31
31156,31104.0,HAI KHEMISTI ORAN,35.725103,-0.587938,31
31159,31121.0,Rue Yagoubi Mohamed El Minzah  Oran   ,35.6913,-0.624375,31
31201,31108.0,AEROPORT ES SENIA - ORAN ,35.622784,-0.592565,31
31202,31039.0,02 CITE SAAD AHMED -AIN BEIDA ORAN-,35.6398544311523,-0.667769014835358,31
31204,31023.0,BIR EL DJIR  CENTRE -BIR EL DJIR-,35.72516,-0.588257,31
31215,31031.0,RUE EMIR AEK -MISSERGHINE-,35.6153945922852,-0.736404001712799,31
31231,31006.0,"ROUTE ES SENIA ,EN FACE ENSEP -ES SENIA ORAN-",35.6645317077637,-0.634473979473114,31
31233,31010.0,CITE 789 LOGTS -HAI ESABAH - ORAN ,35.694995880127,-0.567332029342651,31
31235,31086.0,HAI  ZABANA MISSERGHINE ,35.6230773925781,-0.720079004764557,31
31241,31093.0,HAI AKKID LOTFI - ORAN ,35.7214622497559,-0.592768013477325,31
31248,31102.0,POLE UNIVERSITAIRE -BIR EL DJIR ,35.7427749633789,-0.534979999065399,31
31300,31004.0,AVE FRANCE FANON -ARZEW-,35.854808807373,-0.311628997325897,31
31303,31040.0,RUE KHELIFA MOHAMED -AIN BYA-,35.813362121582,-0.285730987787247,31
31304,31015.0,AVE EMIR AEK -BETTIOUA-,35.8073234558105,-0.27013099193573,31
31313,31027.0,ROUTE NATIONA -HASSIANE ETTOUAL-,35.7118797302246,-0.443827003240585,31
31314,31049.0,HASSI BENOKBA ,35.7262802124023,-0.464062005281448,31
31315,31028.0,ROUTE NATIONALE -HASSI BOUNIF-,35.6904678344727,-0.502608001232147,31
31318,31030.0,RUE DE LA PLACE -MERS EL HADJADJ-,35.7939949035645,-0.166893005371094,31
31331,31018.0,RUE EMIR AEK -GDYEL -,35.7791061401367,-0.433147996664047,31
31400,31014.0,PLACE 1ER NOVEMBRE -AIN EL TURK-,35.7455062866211,-0.772188007831573,31
31402,31059.0,LOCALITE AIN KERMA ,35.6482887268066,-0.975116014480591,31
31403,31022.0,24 RUE MILINOT AKID ABBES ,35.7388534545898,-0.75060898065567,31
31404,31025.0,RUE BENAMAR MILOUD -BOUSFER-,35.7028007507324,-0.812111973762512,31
31407,31043.0,03 RUE COLONEL OTHMANE -EL ANAOR-,35.6729774475098,-0.89851701259613,31
32100,32000.0,ROUTE D'AFLOU,31.730053,6.04434,32
32201,32002.0,PLACE 19 JUIN 1965,35.976485,5.810073,32
32202,32017.0,PLACE  ADELI A'MEHAMED,36.284705,7.956409,32
32400,32003.0,RUE EMIR ABDELKADER,36.7379127,3.340554,32
32402,32014.0,RUE ABBAD MED TAHAR PLACE 1ER NOVEMBRE 1954,32.865716,0.02475,32
32412,32007.0,CITE GHARBI RUE DAHMANI HAMZA ,31.606532,-2.231746,32
33107,33027.0,HAI BELBACHIR ILLIZI,35.216575,-0.625761,33
33303,33010.0,VILLAGE Ohanet,28.704608,8.880829,33
34100,34000.0,CITE 01 NOVEMBRE BBA,36.0727310180664,4.76523113250732,34
34101,34003.0,RUE DE LA REPUBLIQUE BORDJ BOU ARRERIDJ,36.0710334777832,4.76138019561768,34
34106,34013.0,RUE ESSADA CITE 12 HECTARS BORDJ-BOU-ARRERIDJ,36.0670776367188,4.74625492095947,34
34108,34002.0,1044 LOGT BBA,36.0807266235352,4.77891397476196,34
34200,34008.0,RUE MOUHI EL HADI MANSOURA,36.0779113769531,4.46271276473999,34
34206,34006.0,AVENUE LA LIBERTE EL ACHIR,36.0633354187012,4.62972116470337,34
34207,34018.0,RUE DE L'INDEPENDANCE EL-MAIN,36.3693351745605,4.73420095443726,34
34208,34019.0,CITE AISSA HATOUT EL-MEHIR,36.1184272766113,4.37786388397217,34
34210,34016.0,DJAAFRA,36.2928276062012,4.66109704971313,34
34212,34033.0,OULED-DAHMANE,36.2231407165527,4.77028894424438,34
34214,34021.0,TENIET-EN-NASR,36.2307891845703,4.60013914108276,34
34227,34067.0,CITE BOUAZIZ BORDJ ZEMMOURA,36.2697677612305,4.8375039100647,34
34301,34010.0,RUE SAAD REGHI AIN TAGHROUT,36.1294746398926,5.07757997512817,34
34303,34025.0,RUE DE L'INDEPENDANCE BELIMOUR,35.9794769287109,4.87867307662964,34
34306,34011.0,RUE AMIR ABDELKADER BIR KASD ALI,36.1433868408203,5.02884292602539,34
34307,34004.0,RUE AHMED BEN DRIMIA BORDJ GHEDIR,35.9013328552246,4.89741086959839,34
34309,34030.0,RUE DE LA MOSQUE EL-ANNASSER ,36.0382232666016,4.81940984725952,34
34311,34031.0,CITE 95 LOGTS GHILASSA,36.0404014587402,4.46640014648438,34
34313,34007.0,KHELLIL,36.1802787780762,5.02537107467651,34
34316,34032.0,OULED-BRAHAM,35.873104095459,5.07818794250488,34
34321,34022.0,TIXTER,36.0478630065918,5.08080196380615,34
34323,34037.0,AIN-TASSERA,36.0357818603516,4.99986982345581,34
34325,34065.0,CITE 19 MARS RAS EL OUED,35.9508285522461,5.03427791595459,34
35100,35000.0,CITE 408 LOGEMENTS BOUMERDES,36.75,3.47000002861023,35
35102,35007.0,CITE 350 LOGEMENTS BOUMERDES,36.7641372680664,3.45927619934082,35
35103,35062.0,CITE 1200 LOGEMENTS COMPLEXE DES PTT BOUMERDES,36.7299995422363,3.16000008583069,35
35203,35013.0,25 RUE KACIMI MOHAMED BAGHLIA,36.8166999816895,3.84999990463257,35
35303,35024.0,RUE PRINCIPALE DJINET ,36.8400001525879,3.73000001907349,35
35309,35018.0,RUE BENNOUR ALI NACIRIA ,36.747501373291,3.82890009880066,35
35311,35028.0,RUE M'HAMED BEN AMROUCHE SI MUSTAPHA,36.7299995422363,3.60999989509583,35
35313,35012.0,RUE BELHIDOUCHE HAMOUD ZEMMOURI ,36.7799987792969,3.59999990463257,35
35321,35002.0,BD COLONEL AMIROUCHE BORDJ MENAIEL,36.7552490234375,3.75366640090942,35
35403,35017.0,RUE BOUCHKIR MED LARBATACHE ,36.6300010681152,3.36999988555908,35
35406,35015.0,RUE KORBABE AEK HAMMEDI ,36.6699981689453,3.25999999046326,35
35407,35039.0,RUE PRINCIPALE CHEBACHEB ,36.7000007629395,3.29999995231628,35
35408,35010.0,RUE BOUZIANE HOCINE K. E. K. ,36.6300010681152,3.3199999332428,35
35500,35003.0,RUE 1 ER NOVEMBRE BOUDOUAOU,36.7206001281738,3.18549990653992,35
35501,35006.0,RUE CHAALAL SAID BENI AMRANE ,36.6500015258789,3.5699999332428,35
35503,35014.0,RUE TADJOUIMAT LOUNES CORSO ,36.7299995422363,3.44000005722046,35
35507,35011.0,RUE ABDELAZIZ EL KEBIR OULED MOUSSA,36.6800003051758,3.39000010490417,35
35510,35020.0,RUE TIMEZRIT EL OUNAS SOUK EL HAD ,36.689998626709,3.6800000667572,35
35511,35005.0,RUE REBATCHI THENIA,36.7299995422363,3.54999995231628,35
35512,35021.0,RUE COLONEL AMIROUCHE TIDJELABINE ,36.7400016784668,3.5,35
35514,35052.0,CITE GARIDI RABAH OULED HEDADJ,36.7099990844727,3.33999991416931,35
35519,35045.0,HAI MOHAMED BOUDIAF EX-HAOUCH EL MOKHFI - OULED HEDADJ ,36.7099990844727,3.36999988555908,35
36100,36000.0,RN 44 EL TARF,36.7655563354492,8.32234954833984,36
36210,36020.0,ROUTE DE TUNIS,36.8824043273926,8.56793308258057,36
36304,36012.0,COMMUNE ASFOUR,36.6794548034668,7.97697782516479,36
36306,36004.0,RUE 1ER NOV 1954,36.7011795043945,7.84714984893799,36
36307,36013.0,CITE BOUKHRIS MED SALAH,36.7555313110352,7.73893356323242,36
36309,36014.0, CHIHANI,36.6450347900391,7.77566385269165,36
36311,36015.0,CNE ZERIZER,36.7264938354492,7.89623594284058,36
36313,36022.0,VSA SIDI-KACEM,36.7574462890625,7.96648597717285,36
36400,36005.0,RN 82 ZITOUNA,36.5062789916992,8.10683059692383,36
36401,36011.0,COMMUNE AIN-KERMA,36.5898933410645,8.19793891906738,36
37101,37016.0,HAI REMADIN,27.6700000762939,-8.14000034332275,37
37102,37003.0,OUM-EL-ASSEL,28.6599998474121,-6.98000001907349,37
37103,37005.0,HASSI-KHEBI,29.1800003051758,-5.07000017166138,37
37115,37014.0,el hikma ,27.6118974,-8.1048061,37
37116,37015.0,cite moussani,27.6651496887207,-8.14484024047852,37
37119,37019.0,aeroport tindouf,26.882217,-7.166754,37
37121,37021.0,hai el wifak tindouf,27.6450595855713,-8.11423969268799,37
38100,38000.0,RUE 24 FEVRIER ,35.6041145324707,1.80769801139832,38
38103,38009.0,RUE 1ER NOVEMBRE,35.6029472351074,1.79948902130127,38
38104,38010.0,RUE MKEBRET BELAID,35.6038131713867,1.8136990070343,38
38107,38034.0,HAI CHAHID RAOUI MOHAMED,35.5939254760742,1.81765294075012,38
38108,38035.0,HAI 1ER NOVEMBRE,35.6006736755371,1.81054902076721,38
38200,38006.0,HAI 05 JUILLET,35.6667518615723,1.96379494667053,38
38202,38012.0,RUE OUABEL ALI,35.5757141113281,1.66708600521088,38
38300,38003.0,HAI FRERE MAALAG LAARBI,35.8733062744141,2.02429890632629,38
38302,38004.0,RUE CHAHID ACHOUR,35.8651275634766,2.26704406738281,38
38304,38007.0,RUE DES FRERES HARHAR,35.697193145752,1.99736297130585,38
38311,38032.0,RUE DE L'INDIPENDANCE,35.8692932128906,2.02849102020264,38
38400,38001.0,RUE HOUARI BOUMADIENE,35.8505020141602,1.61889505386353,38
38401,38008.0,BD DJILALI BOUNAAMA,35.9344177246094,1.56176102161407,38
38402,38005.0,RUE AKAD MEFTAH,35.890495300293,1.62003397941589,38
38403,38002.0,RUE EMIR AEK,35.7484855651855,1.54700398445129,38
38408,38029.0,HAI TAMOUME MOHAMED,35.8117790222168,1.62282299995422,38
39102,39006.0,CITE TIKSEBT ,33.37584,6.84093,39
39104,39010.0,CITE BELLE  VUE ,33.4681359,6.799978637068543,39
39105,39009.0,CITE 17 OCTOBRE,36.257331,2.2151235,39
39110,39011.0,CITE CHOUHADA ,35.6929637,-0.6169374,39
39111,39012.0,CITE  NADOR,33.388569,6.8770516,39
39113,39084.0,CITE 19 MARS,33.9505115,5.9296652,39
39202,39007.0,CITE EMIR ABDELKADER ,33.3212013244629,6.89629983901978,39
39203,39020.0,RUE HOUARI BOUMEDIEN ,35.41978,0.327268,39
39207,39031.0,CITE EN-NOUR ,35.896267,0.071627,39
39209,39017.0,CITE 1ER NOVEMBRE ,33.2862701416016,6.90588712692261,39
39211,39044.0, TRIFAOUI,33.41786245,6.934140653719348,39
39400,39019.0,TALEB LARBI,33.728911,7.5176604,39
39500,39002.0,CITE 5 JUILLET ,36.71978845,3.195565429910837,39
39508,39016.0,CITE EL AMAL ,34.8443682,5.7085548,39
40100,40000.0, CITE SONATIBA KHENCHELA  ,35.3788986206055,7.04540014266968,40
40102,40020.0, RUE DE BAGHAI KHENCHELA   ,35.1697006225586,7.11420011520386,40
40108,40018.0, CITE HASNAOUI KHENCHELA  ,35.173698425293,7.02890014648438,40
40116,40056.0,ROUTE AIN ELAIZAR KHENCHELA  ,35.43583,7.14333,40
40200,40016.0, EL HAMMA ,35.2052001953125,6.7645001411438,40
40202,40005.0, AIN TOUILA  ,35.4373016357422,7.38290023803711,40
40203,40014.0, BAGHAI ,35.5231018066406,7.11189985275269,40
40300,40001.0, CITE DRARDJA SLIMANE KAIS  ,35.4833297729492,6.93333005905151,40
40301,40007.0, BOUHMAMA ,35.2863998413086,6.73390007019043,40
40304,40023.0, YABOUS ,35.0,7.0,40
40306,40039.0, M'SARA ,34.9833984375,6.81279993057251,40
41100,41000.0,RUE BADJI MOKHTAR,36.1657981872559,7.57361888885498,41
41103,41022.0,CITE AHMED DRAIA,36.1651840209961,7.56343507766724,41
41104,41036.0,"CITE IBN ROCHD,64 LOGTS RUE ARAAR SADEK",36.1681213378906,7.57339477539062,41
41108,41024.0,"CITE HAMMA LOULOU,470 LOGTS",36.1721649169922,7.58394718170166,41
41200,41009.0,RUE ABABSIA LEHBIBE,36.1001014709473,8.22690963745117,41
41201,41010.0,RUE NATIONNAL N°16,36.1859664916992,7.5217342376709,41
41203,41012.0,ZONE COMMERCIAL HEDDADA,36.1349220275879,8.19414710998535,41
41204,41013.0,CITE CHAHID,36.1653480529785,8.19192314147949,41
41207,41016.0,EL-BTIHA CENTERE HANANCHA,36.1539306640625,7.47330808639526,41
41208,41017.0,RUE 1 NOVEMBRE 1954 MECHROHA,36.2126693725586,7.5018630027771,41
41210,41005.0, RUE 20 AOUT OULED-DRIS,36.2126045227051,8.12802982330322,41
41212,41025.0,CITE ZERAIAIA AZZEDINE ,36.1332168579102,7.57277488708496,41
41303,41011.0,CITE 05 JUILLET ROUTE NATIONAL  80,36.0531997680664,7.25366878509521,41
41306,41001.0,RUE MOHAMMED KHEMISTI ,36.4360389709473,7.49102783203125,41
42100,42000.0,RUE DU 1ER NOVEMBRE,36.252799987793,2.26489996910095,42
42103,42022.0,CITE ADMINISTRATIVE TIPASA,36.3516998291016,2.27239990234375,42
42205,42007.0,RUE DU BAIN ROMAIN GOURAYA,36.3418006896973,2.54040002822876,42
42209,42018.0,RUE CHIKH RAMDANE MENACEUR,36.2929992675781,2.14310002326965,42
42212,42020.0,RUE PRINCIPALE SIDI AMAR,36.3228988647461,2.18190002441406,42
42213,42021.0,RUE IKHIDER MED SIDI-GHILES,36.3456993103027,2.07119989395142,42
42223,42013.0,HAI 17 OCTOBRE 1961 CHERCHELL,36.3636016845703,2.13059997558594,42
42300,42001.0,RUE DU 1ER NOVEMBRE HADJOUT,36.477653503418,2.49005270004272,42
42301,42005.0,RUE ACHOUR MED AHMEUR EL AIN,36.282901763916,2.33520007133484,42
42303,42011.0,RUE MAAMRI MED BOURKIKA,36.2927017211914,2.28369998931885,42
42307,42019.0,RUE DE LA POSTE MERAD,36.2947998046875,2.25160002708435,42
42502,42023.0,RUE 1ER NOVEMBRE AIN TAGOURAIT,36.355899810791,2.36129999160767,42
42503,42009.0,RUE DE L'APC BOUHAROUN,36.3726005554199,2.39240002632141,42
42504,42004.0,RUE DE HOURIA BOU ISMAIL,36.3830986022949,2.41319990158081,42
42506,42015.0,RUE DAOUDI ALI DOUAOUDA VILLE,36.4019012451172,2.47180008888245,42
42509,42006.0,RUE RAMI AMOKRANE FOUKA VILLE,36.393798828125,2.44250011444092,42
42512,42016.0,RUE AMIR AEK KHEMISTI VILLE,36.3735008239746,2.40409994125366,42
42522,42032.0,CITE 70 LOGEMENTS - KERKOUBA - KOLEA,36.3841018676758,2.46009993553162,42
43108,43066.0,SENNAOUA INFERIEUR ,36.4421577453613,6.2702488899231,43
43200,43004.0,"RUE DE A,L,N ",36.5159034729004,6.32631206512451,43
43202,43025.0,rue zouabi  ,36.5592460632324,6.22480487823486,43
43205,43010.0,RUE 11 DECEMBRE ,36.6208801269531,6.26172304153442,43
43304,43020.0,"RUE DE A,L,N BENYAHIA",36.2324981689453,6.01660013198853,43
43307,43023.0,SAF MOHAMED,36.1464691162109,6.19513177871704,43
43313,43031.0,RUE YASAAD RABEH,36.285701751709,6.17959117889404,43
43401,43013.0,AHMED-RACHDI,36.163215,6.172015,43
43402,43014.0,RUE KACHE KACHE,36.3954048156738,5.89297389984131,43
43403,43022.0,CITE MEZIZ AISSA,36.859947,6.901829,43
43404,43017.0,BOUGHARDAYEN,36.4991925,6.0707078,43
43405,43018.0,BARDOU ,36.5299673,6.126309845734795,43
43417,43012.0,RUE BOUDEBANE,36.333872,5.181326,43
44100,44000.0,RUE EMIR-AEK,36.2657012939453,1.97017002105713,44
44200,44009.0,RUE 1ER NOVEMBRE,36.2027015686035,2.07951998710632,44
44202,44008.0,RUE REMIMA MOHAMED,36.2919006347656,2.06833004951477,44
44205,44021.0,RUE MED LASFAR,36.1199989318848,2.204509973526,44
44206,44044.0,ESSEBTE CENTRE BOURACHED,36.1697998046875,1.93211996555328,44
44300,44003.0,RUE PASTEUR,36.3046989440918,2.22679996490479,44
44304,44019.0,RUE 05 JUILLET,36.2482986450195,2.2973198890686,44
44314,44001.0,AVENUE BOUGARA,36.2610397338867,2.22014999389648,44
44322,44015.0,HAY SOUFFAY,36.2627983093262,2.24522995948792,44
44400,44002.0,RUE  MOHAMED KHEMISTI ,36.2243995666504,1.67252004146576,44
44403,44006.0,RUE DJILLALI BOUAMAMA,36.2750015258789,1.68543994426727,44
44407,44017.0,RUE DES MARTYRS,36.244800567627,1.80559003353119,44
44410,44031.0,RUE 19 MARS 1962,36.1562004089355,1.82017004489899,44
44418,44011.0,CITE 08 MAI 45,36.209400177002,1.68508994579315,44
45100,45000.0,"RUE DERBAL ABDELKADER CITE SAADA ROUTE N N°6, NAAMA",33.2667617797852,0.312453001737595,45
45104,45006.0,"CITE 205 LOGTS, NAAMA",33.2711563110352,0.308396995067596,45
45203,45008.0,"CENTRE VILLE, AIN BENKHELIL",33.2890281677246,0.764361023902893,45
45204,45004.0,"CENTRE VILLE, EL BIODH",33.7615547180176,0.130641996860504,45
45214,45034.0,"QUARTIER BEN BADIS, MECHERIA",33.5469627380371,0.289216995239258,45
45300,45001.0,"CENTRE VILLE, AIN SEFRA",32.7561187744141,0.578957974910736,45
45301,45012.0,"CENTRE VILLA, ASLA",33.0058860778809,0.0786390006542206,45
45304,45019.0,"CENTRE VILLE, MOGHRAR FOUGANI",32.518253326416,0.581914007663727,45
45306,45030.0,"CENTRE VILLE, TIOUT",32.7732734680176,0.421449989080429,45
45307,45021.0,CENTRE VILLE SFISSIFA,32.7247123718262,0.859381020069122,45
45314,45003.0,"QUARTIER BOUMERIFEG, AIN SEFRA",32.7532768249512,0.593375027179718,45
45319,45011.0,"QUARTIER KSER SIDI BOUTKHIL, AIN SEFRA",32.746223449707,0.580136001110077,45
46102,46003.0,BD MED BOUDIAF,35.305046081543,-1.13888394832611,46
46104,46002.0,NOUVELLE VILLE AKID OTHMANE,35.3155059814453,-1.12821400165558,46
46200,46007.0,BD MED KHEMISTI,35.3938026428223,-1.09118902683258,46
46203,46033.0,BOUZEDJAR-PLAGE,35.5802955627441,-1.14781284332275,46
46206,46006.0,Rue Emir Abdelkader,35.5247001647949,-1.01489996910095,46
46208,46012.0,Rue Bailiche Kouider ,35.4548454284668,-1.05268609523773,46
46209,46013.0,RUE MEDDAH BENAHMED,35.305591583252,-1.18018674850464,46
46210,46015.0,RUE 1ER NOVEMBRE,35.4061737060547,-1.20857000350952,46
46300,46005.0,RUE 1ER MAI ,35.3793334960938,-0.966943979263306,46
46301,46009.0,RUE EMIR ABDELKADER,35.4063301086426,-0.881542980670929,46
46308,46026.0,RUE MED KHEMISTI,35.4083251953125,-0.66040301322937,46
46400,46001.0,RUE DE LA REPUBLIQUE,35.302604675293,-1.38630402088165,46
46404,46010.0,RUE BOUCHEKIF BOUMAZA,35.2061614990234,-1.37512505054474,46
46407,46014.0,RUE AHMED BENCHAIB MOUSSA,35.2332916259766,-1.50485265254974,46
46415,46004.0,BENI SAF LA ZHUN ,35.3060684204102,-1.36353051662445,46
47100,47000.0,GARE ROUTIERE GHARDAIA,32.4894790649414,3.6687159538269,47
47103,47005.0,RUR LARBI BEN M'HIDI BENI ISGUEN,32.4771537780762,3.69399094581604,47
47106,47009.0,QUARTIER BENGHANEM GHARDAIA,32.4944877624512,3.64460110664368,47
47108,47032.0,ROUTE NATIONAL N 01 GHARDAIA,32.5181350708008,3.67153811454773,47
47110,47033.0,RUE ECHOHADA TENIET ELMEKHZEN  GHARDAIA,32.4770202636719,3.68372988700867,47
47118,47017.0,QUARTIER BEN SMARA GHARDAIA,32.4993362426758,3.66659593582153,47
47121,47044.0,QUARTIER LACHBOUR,32.5160865783691,3.63450598716736,47
47200,47003.0,CENTRE VILLE BERRIANE,32.8277206420898,3.76290011405945,47
47201,47010.0,CENTRE VILLE BOUNOURA,32.4848327636719,3.70541310310364,47
47202,47011.0,CENTRE VILLE DAIA BEN DAHOUA,32.5338249206543,3.60864901542664,47
47209,47016.0,CITE 20 AOUT 55 SIDI ABAZ,32.4840660095215,3.69875311851501,47
47300,47002.0,CENTRE VILLE METLILI,32.2684516906738,3.63212490081787,47
47310,47040.0,ROUTE DE METLILI ,32.3615188598633,3.79151010513306,47
48100,48000.0,BD MED KHEMISTI,35.7447967529297,0.559352993965149,48
48105,48025.0,CITE AISSAT IDIR,35.7484245300293,0.566147029399872,48
48107,48007.0,CITE DES 42 LOGTS,35.7441825866699,0.561940014362335,48
48206,48012.0,RUE BENYAMINA MISSOUM,35.49755859375,0.863978028297424,48
48207,48021.0,RUE KRIM MOHAMED,35.7964706420898,0.682069003582001,48
48210,48029.0,RUE SI KHEIREDDINE,35.9119491577148,0.508650004863739,48
48212,48008.0,CITE MOULOUD FEROUNE,35.719123840332,0.757430970668793,48
48300,48002.0,CTE 5 JUILLET 1962,36.1217613220215,0.867299973964691,48
48303,48011.0,RUE AZZI  SAYEH,36.123291015625,0.744459986686707,48
48403,48004.0,RUE LIEUTENANT S/AHMED,35.8671607971191,1.10985994338989,48
48408,48020.0,RUE AHMED ZEBANA,35.8922004699707,0.976454019546509,48
48412,48024.0,CENTRE RAMKA,35.868408203125,1.28447902202606,48
48425,48014.0,CTE BOUDALIA HASSANI,35.9576606750488,0.902750015258789,48
49500,49001.0,APC TIMIMOUN,36.662405,2.741845,49
51500,51002.0,RUE DE L'INDEPENDANCE OULED DJELLAL,34.42011,5.06235,51
55300,55002.0,RUE LIBERTE,36.777864,3.06018,55
57300,57005.0,CITE SAADA ,35.209655,-0.62909,57
38305,38031.0,HAI 16 LOGTS,35.9480323791504,2.11211109161377,38
29502,29022.0,RUE DU 1ER NOVEMBRE 1954 BOUHENNI,35.6059684753418,0.0485339984297752,29
30105,30041.0,RUE 20 AOUT,36.3672011,6.6014324,30
38405,38013.0,HAI BELKACEM RABAH,35.7144203186035,1.33324098587036,38
21401,21049.0,AIN-NECHEMA,36.8311958312988,7.27211570739746,21
22413,22059.0,SAF SAF,34.8999509,-1.2759589,22
26119,26095.0,QUARTIER AHMED GAID SALAH-26017 DRAA ESMAR,36.27354,2.71695,26
26801,26062.0,KHAMS DJOUAMAA CENTRE,36.1337738037109,2.38014793395996,26
22405,22010.0,ROUTE NLE VERS TLEMCEN,35.038523,-1.80676,22
15314,15149.0,HOTEL DE LA POSTE,36.3223266601562,4.20285034179688,15
34203,34026.0,BENI-LAALEM,36.2898979187012,4.78538084030151,34
26606,26041.0,SEGHOUANE CENTRE,35.4937133789062,2.27121901512146,26
41112,41049.0,CITE MECHENTEL SALAH 460 LOGTS BLOC G,36.1753158569336,7.55596303939819,41
26605,26038.0,OULED MAAREUF CENTRE,35.5614204406738,2.29510092735291,26
26401,26035.0,OULED ANTAR CENTRE,36.1353340148926,2.33522391319275,26
44201,44037.0,BOULVARD DU 19 JUIN,36.1969985961914,2.11671996116638,44
26406,26015.0, DERRAG CENTRE,36.150936126709,3.09281206130981,26
40209,40012.0, TAZOUGUERT ,35.3732986450195,7.21460008621216,40
32406,32025.0,RUE BEN ZOHRA ABD RAHMANE BNOUD ,36.687019,4.857565,32
34223,34058.0,SIDI-IDIR,36.3881340026855,4.72751379013062,34
26607,26046.0,TLETAT EDDOUAIR CENTRE,36.0935974121094,2.43197393417358,26
32111,32044.0,ROUTE ROGASSA ,33.68939,1.023621,32
7105,7056.0, HAY FELIACHE BISKRA,34.8262367248535,5.75103139877319,7
21313,21040.0,MELLAB,36.9321250915527,6.47933721542358,21
13704,13082.0,RUE DE POSTE,35.869253,2.02852,13
42510,42027.0,RUE DU PORT FOUKA MARINE,36.4019012451172,2.44190001487732,42
23210,23038.0,CITE KHERRAZA II,36.836841583252,7.65848016738892,23
55310,55009.0,BOULVARD CENTRE VILLE,36.415785,6.590319,55
3105,3017.0,CITE 1ER NOV.,33.4714202880859,2.5106201171875,3
7407,7066.0,RUE AKID EL HAOUAS MEGLOUB,34.7890548706055,5.595130443573,7
57312,57039.0, STILL,34.2591866,5.9149716,57
28301,28069.0,CITE SIDI-SLIMANE,35.1939919,4.1650417,28
34205,34015.0,COLLA,36.2617950439453,4.66104078292847,34
33307,33015.0,VILLAGE TIN FOUYE,36.750002,3.005923,33
34109,34064.0,CITE 20 AOUT 1955 BORDJ BOU ARRERIDJ,36.0706825256348,4.74860191345215,34
49502,49039.0,KSARO/SAID,34.83034,0.15171,49
2301,2018.0,ABOU EL-HASSEN,36.4177017211914,1.19570004940033,2
50302,50010.0,DAIR BBM,21.532544,2.081956,50
26601,26051.0, KEF LAKHDAR CENTRE,36.2046394348145,3.06405305862427,26
54206,54011.0,TIN ZAOUATINE,19.9541906,2.9694782,54
3101,3018.0,ELGHARBIA,33.4815483093262,2.52432990074158,3
26308,26044.0,OULED DEID CENTRE,36.1250228881836,3.07338309288025,26
10215,10089.0,TAGHZOUT 10170,36.4081993103027,3.958899974823,10
45321,45040.0,"QUARTIER EL HAMMAR, AIN SEFRA",32.7633743286133,0.607200026512146,45
44318,44027.0,RUE KELOUAZ MOUSSA,36.2655982971191,2.16176009178162,44
58401,58008.0,QUARTIER HOFRET EL ABBAS EL MENIAA,27.876008,-0.287751,58
57703,57022.0,CITE OUGHLANA ,36.76639,3.47717,57
49518,49052.0,TIMIMOUN CENTE,29.244287,0.281368,49
49504,49012.0,DAIRA AOUGROUT,28.70289,0.33519,49
38208,38039.0,HAI AIN EL HAMRA ,35.6701812744141,1.95902597904205,38
26212,26076.0,TIZI MAHDI CENTRE,36.1928482055664,2.41123294830322,26
38409,38030.0,RUE PRINCIPALE,35.9728240966797,1.5728679895401,38
26114,26084.0,GARE ROUTIERE MEDEA,36.163631439209,2.46412301063538,26
15437,15097.0,AIT-ZELLAL,36.3935546875,4.20246648788452,15
26418,26029.0,QUARTIER ROMANAT K-E-B,35.5243148803711,2.44574809074402,26
15104,15067.0,ROUTE PRINCIPALE,36.4433364868164,4.16882991790771,15
26804,26071.0,SIDI MAHIEDDINE VILLAGE,36.1631546020508,3.18248295783997,26
19216,19144.0,CITE 1500 LOGTS BT G4,36.2109489440918,5.3263692855835,19
26118,26093.0,QUARTIER 15 DECEMBRE,36.271735,2.735863,26
32112,32046.0,MECHERIA SEGHIRA SEHNOUN AHMED,37.651378,12.604397,32
26202,26012.0, BEN CHICAO CENTRE,36.1536140441895,2.47107100486755,26
9520,9064.0,CENTRE HASSAINIA,36.312629699707,3.00535988807678,9
30130,30068.0,BOUR EL HAICHA OUARGLA,32.0205423,5.3314394,30
26305,26036.0,OULED BRAHIM CENTRE,35.5652694702148,2.36111903190613,26
39228,39094.0,CITE IZDIHAR,34.847572650000004,5.71380938652162,39
1313,1045.0,KSAR INZAGLOUF,26.8194236755371,-0.0308720003813505,1
20219,20040.0,DOUAR SIDI AHMED 20040,35.0703010559082,0.0161773003637791,20
9515,9037.0,Rue iboud boualem benchabane ,36.371280670166,2.52308011054993,9
22501,22041.0,ROUTE TAGHOURAYA,36.757285,2.991493,22
28321,28056.0,KHETTOUTI SED DJIR,35.3749961853027,4.1035680770874,28
9411,9060.0,CENTRE LAABAZIZ,36.3429794311523,3.05014991760254,9
15103,15029.0,ALMA BENI ZMENZER CENTRE,36.3818016052246,4.21680927276611,15
1301,1017.0,KSAR BAHOU,26.8623161315918,-0.0071299998089671,1
2318,2019.0,LA GARE,36.3095016479492,1.24489998817444,2
1319,1076.0,KSAR  INZAGMIR,27.110481262207,0.122432999312878,1
12506,12053.0,VILLAGE THLIDJEN,35.118350982666,7.76853799819946,12
40404,40049.0, BABAR ,35.1674995422363,7.10379981994629,40
15427,15052.0,RUE ABANE RAMDANE N°12,36.4427185058594,4.2622709274292,15
3110,3015.0,CITE-ESSADIKIA,33.474048614502,2.52360010147095,3
12311,12010.0,CITE EL HOURIA BIR EL ATER,34.7596969604492,8.05059242248535,12
34107,34012.0,VILLAGE NORD CITE 24 FEVRIER BORDJ BOU ARRERIDJ,36.0853729248047,4.74201679229736,34
28102,28007.0,AVENUE  COLONEL AMIROUCHE,35.4219932556152,4.32469606399536,28
25115,25021.0,CITE DES FRERES FERRAD,34.896354,-1.323608,25
49503,49014.0,DAIRA CHAROUINE,29.0176907,-0.2590628,49
9500,9001.0,BD MOKHTARI ALI ,36.3419494628906,2.54422998428345,9
15114,15161.0,TIZI OUZOU  KRIM BELKACM,36.428581237793,4.33648681640625,15
26422,26096.0,HAI EL WIAM 26003 KSAR EL BOUKHARI,35.8769676,2.7294384,26
1310,1048.0,KSAR TIMADANINE,26.7107009887695,-0.121871002018452,1
13213,13048.0,RUE INDEPENDANCE,34.838365,-1.726521,13
15318,15165.0,AIT-SIDI-SAID,36.341178894043,4.18329620361328,15
26410,26065.0,OUM EL DJELLIL CENTRE,36.061897277832,2.42507910728455,26
25212,25051.0,SALAH DERRDJI,36.781717,3.245208,25
26612,26048.0,AIN OUKSIR CENTRE,35.5315170288086,2.45347690582275,26
26706,26058.0,DEUX BASSINS CENTRE,35.5519866943359,3.33459401130676,26
14701,14053.0,VILLAGE AGRICOLE,36.689459,3.3669099,14
26708,26042.0,MEZGHANA CENTRE,36.0004348754883,2.540766954422,26
20313,20051.0,BALLOUL-GARE-ROUTIERE,34.2587127685547,0.102654002606869,20
57308,57032.0,CITE N'CIRA,35.924105,5.301081,57
34221,34057.0,SELATNA,36.0291786193848,4.31104898452759,34
14307,14060.0,RUE CHEBIL ABDELKADER,35.0903015136719,1.47669994831085,14
26210,26075.0,TAMESGUIDA CENTRE,35.5815467834473,3.21055603027344,26
42104,42065.0,CENTRE UNIVERSITAIRE ,36.3456993103027,2.27419996261597,42
15403,15054.0,AGOUNI BOUAFIR,36.4044799804688,4.13204383850098,15
12509,12056.0,ROUTE  THLIDJEN CHERIA,35.2647857666016,7.74778318405151,12
34312,34046.0,GUEMOUR,36.032039642334,4.88622283935547,34
20107,20036.0,DOUAR TOUTA  20036,34.2589645385742,0.0921546965837479,20
10205,10034.0,AIT LAAZIZ 10110,36.4508018493652,3.87660002708435,10
43206,43060.0,CHARTEOUI EL BACHIR,36.3500747680664,6.30005788803101,43
26306,26039.0,REBAIA CENTRE ,35.5157165527344,2.53086996078491,26
42517,42047.0,CITE BARBESSA BEN AGRAB CHAIBA ,36.3644981384277,2.45020008087158,42
12115,12062.0,UNIVERSITE LARBI TEBESSI,35.4274864196777,8.05497741699219,12
6706,6077.0,EL ALEM,36.5719985961914,5.3737998008728,6
6715,6114.0,TIZI EL OUED  CENTRE  MELBOU ,36.6251983642578,5.33066987991333,6
58403,58034.0,CITE EL MENIAA PORT SAID EL MENIAA,36.360149,6.641592,58
26604,26057.0,CHENIGUEL CENTRE,36.1307983398438,2.52448296546936,26
33110,33032.0,CITE 1000 LOGTS BISKRA,34.84905,5.747015,33
18217,18050.0,CITE AZIROU -ZIAMA MANSOURIAH,36.6621208190918,5.45192003250122,18
20202,20021.0,DOUAR SIDI AISSA 20021,34.9462356567383,0.170715093612671,20
12105,12022.0,CITE 1ER NOV TEBESSA,35.4216690063477,8.06674957275391,12
31135,31055.0,CITE 880 LOGTS -DAR BEIDA-,35.6894721984863,-0.608727991580963,31
43501,43057.0,OULED-BOUAZOUNE,36.2274208068848,6.95488977432251,43
20225,20048.0,DOUAR OUM-DOUD 20048,34.5053749084473,0.147381767630577,20
55320,55060.0,ROUTE NATIONALE N 05,36.749574,2.986734,55
7403,7027.0,RUE SOUERET EL TAYB EL GHROUS,34.7045059204102,5.28487157821655,7
34327,34078.0,RAS-EL-OUED-CITE-TOUMELA,35.9331855773926,5.02894401550293,34
42218,42039.0,ROUTE NATIONALE N°11 SIDI MOUSSSA,36.3404998779297,2.20099997520447,42
10207,10021.0,EL ADJIBA CENTRE,36.3258018493652,4.1502799987793,10
42501,42008.0,RUE PRINCIPALE  GOURAYA,36.3414001464844,2.40179991722107,42
51506,51057.0,CITE OUEST OULED DJELLAL,34.421849,5.0534525,51
15506,15025.0,PLACE SLIMANI MOHANED,36.3027839660645,4.35838556289673,15
30112,30034.0,CITE SIDI AMRANE MEKHADMA,35.203928,-0.634742,30
1207,1022.0,APC SBAA,28.2108955383301,-0.469969987869263,1
13616,13120.0,RUE COLONEL LOTFI REMCHI,34.883206,-1.315454,13
20208,20029.0,RUE DALIL KHAYRET MOHAMED AIN SULTANE 20029,34.8981590270996,0.146326497197151,20
19210,19056.0,MEZLOUG,36.2156677246094,5.27881813049316,19
22321,22027.0,ROUTE DE BOUHANIFIA,35.54308,6.160261,22
34112,34076.0,FERME AKHROUF,36.069087,4.813191,34
25218,25012.0,CITE 1013 LOGTS,36.80254,2.924149,25
12400,12005.0,Cité 1 er NOV 1954 LAOUINET,35.8656997680664,7.88771295547485,12
51509,51036.0,CITE DRISSI MOHAMED SIDI KHALED ,34.387,4.98785,51
51503,51007.0,RUE EL AMARI KHALIFA DOUCEN,36.73246,3.095502,51
39517,39099.0,GHAMRA NORD,33.5711652,6.775621,39
7210,7053.0,CITE 200 LOGEMENT EL KANTARA,35.2164268493652,5.71671009063721,7
9207,9039.0,QARYA BENI CHOGRANE,36.30126953125,2.50445008277893,9
12109,12029.0,Cité 262 logts TEBESSA,35.4244651794434,8.10989475250244,12
12119,12064.0,annexe universitaire,35.2522315979004,8.04296779632568,12
9314,9023.0,CENTRE AIN-ROMANA,36.2340087890625,2.39191007614136,9
21100,21000.0,AVENUE ZIGHOUD YOUCEF,36.8847274780273,6.90257883071899,21
26211,26027.0,HANNACHA CENTRE,35.3237991333008,2.36220002174377,26
26411,26067.0,SANEG CENTRE,36.1758613586426,2.46078896522522,26
38206,38023.0,HAI CHAHID HOUARI ABED,35.6594772338867,1.55166900157928,38
10221,10068.0,IGHIL NAIT AMEUR 10131,36.214599609375,4.16379976272583,10
12419,12067.0,GARE-ROUTIERE ouenza,35.9362716674805,8.14871978759766,12
26416,26079.0,OULED HELLAL CENTRE,36.1538925170898,2.46237707138062,26
26802,26050.0,BAATA CENTRE,35.5259704589844,2.56049203872681,26
14402,14047.0,VILLAGE AGRICOLE .,35.2904014587402,1.88619995117188,14
26313,26055.0,BOUAICHOUNE CENTRE,35.3399505615234,2.21312594413757,26
26711,26081.0,OULED EL HADJ VILLAGE,36.0723419189453,2.48574090003967,26
15421,15044.0,SOUAMA CENTRE,36.63330078125,4.34999990463257,15
26302,26052.0,QUARTIER OUED EL GHOLAT BERROUAGHIA,35.5541152954102,3.17307496070862,26
26414,26047.0,VIEUX KSAR,35.8874397277832,2.75955510139465,26
20203,20041.0,DOUAR OULED FALETTE 20041,34.7113838195801,0.16395103931427,20
26609,26074.0,TAFRAOUT CENTRE,35.5930519104004,3.15219306945801,26
33103,33018.0,CENTRE VILLE ILLIZI,26.48333,8.46667,33
15303,15061.0,AIT SAADA,36.314380645752,4.16518688201904,15
39501,39027.0,CITE GHAMRA ,33.538315,6.789391,39
51501,51044.0,HAY EL CHORFA BESBES,36.911192,7.732066,51
56207,56014.0,VILLAGE TABAKAT,36.587582,4.579739,56
26707,26068.0,SEDRAIA CENTRE,35.5108985900879,2.50219988822937,26
7209,7049.0,ROUTE NATIONAL N°03,34.9738693237305,5.62786769866943,7
26511,26053.0,BIR BEN ABED CENTRE,36.0834999084473,2.55170011520386,26
13314,13113.0,HAI DERMAM ROUTE D'EL GOR SEBDOU,35.732601,-0.580466,13
41211,41038.0,CENTRE TIFFECH,36.1127014160156,7.47300004959106,41
4319,4022.0,BERRIRICHE,35.8400001525879,7.38000011444092,4
6705,6076.0,MELBOU  CENTRE,36.6394996643066,5.360680103302,6
7104,7001.0,RUE ZAATCHA STAR BEN MELOUK  BISKRA,34.8459892272949,5.7174506187439,7
12404,12023.0,CENTRE VILLE EL MERIDJ,35.7936401367188,8.23097801208496,12
26304,26008.0,RUE SI TAYEB EL DJOUGHLALI EL OMARIA,36.1555328369141,3.01473093032837,26
7109,7014.0, HAI BELAIATH BISKRA,34.8563537597656,5.71149921417236,7
12500,12002.0,Cité 1 er Nov. 1954 CHERIA,35.2707366943359,7.75125217437744,12
19106,19075.0,AIN TRICK  SETIF,36.1423530578613,5.44371223449707,19
22511,22054.0,RUE GHALEM AHMED,35.66208,-0.633466,22
12300,12001.0,Cité El Moudjahidine  BIR EL ATER,34.7437515258789,8.05618953704834,12
15400,15001.0,CHERIFI ALI TIZI BOUCHENE,36.4450874328613,4.22261476516724,15
26413,26049.0,EL M'FATHA CENTRE ,35.5101623535156,3.28075695037842,26
57317,57025.0,CITE 18 FEVRIER ,36.26134985,1.9532221877922489,57
17316,17027.0, cite  Kadi TAHAR  BIRINE  ,35.635,3.225,17
12508,12021.0,Cité Cheriet Lazhar CHERIA,35.2630157470703,7.75321197509766,12
32114,32053.0,HAY EL ANNASSER,36.735234,3.245896,32
26104,26066.0,QUARTIER REZARZA MEDEA,35.4939002990723,2.3726019859314,26
26206,26061.0,OUED HARBIL CENTRE,36.2145538330078,2.4600989818573,26
42521,42051.0,CITE RAHMANE- ATTATBA,36.3321990966797,2.35560011863708,42
37124,37024.0,CITE NASR TINDOUF,27.674188,-8.147782,37
25302,25035.0,BENI HEMIDENE,35.307579,-1.356703,25
9115,9043.0,CITE R'MEL ,36.275318145752,2.50076007843018,9
44102,44007.0,RUE EMI-KHALED,36.2650985717773,1.97269999980927,44
34102,34014.0,RUE MED BOUDIAF CHERCHAR,36.1509246826172,4.79495191574097,34
44323,44014.0,HAY SOUAMAA,36.2644004821777,2.21597003936768,44
51515,51062.0,RUE SALLE DE SOINS HASSI-SMARA,36.590111,2.545741,51
38407,38019.0,HAI DAANOUNE,35.8202514648438,1.7997020483017,38
14117,14078.0, CENTRE UNIVERSITAIRE TIARET,35.202114,1.482585,14
38411,38020.0,HAI MOSTAFA ZERRAR,35.8124961853027,1.68934404850006,38
53300,53001.0,CENTRE VILLE IN SALAH,27.19351,2.46069,53
33301,33003.0,BORDJ OMAR DRISS -CENTRE VILLE,28.133045,6.839166,33
22317,22057.0,RUE SERDI KADDOUR,35.31327,-1.131118,22
13307,13043.0,RUE AMIR AEK,35.390466,5.36123,13
5703,5128.0,FENAROU,35.5243988037109,6.20709991455078,5
12120,12066.0,GARE-ROUTIERE- Tebessa,35.4296417236328,8.04961967468262,12
51514,51087.0, RUE APC EL-BAYADH,36.522773,4.306801,51
7311,7067.0,RUE TASOURIT MESSAOUD MEZIRAA,34.7206764221191,6.29172992706299,7
17301,17040.0,AIN FEKKA,35.45139,2.90583,17
31261,31134.0,NOUVEAU POLE MISSERGHINE ZABANA 2000 LOGTS SITE 03,35.639715,-0.587089,31
51518,51064.0,RUE ECOLE AHMED CHABIRA LEGSAIAT,36.748107,4.719408,51
19700,19001.0,RUE DE LA REVOLITION ,36.148796081543,5.69171667098999,19
26610,26059.0,EL AOUINET CENTRE,36.2809371948242,3.1756420135498,26
22308,22052.0,RUE MEGHREBI KADDA,35.700713,-0.636211,22
31111,31009.0,AVE EMIR KHALED -ORAN-,35.687897,-0.664641,31
47213,47026.0,QUARTIER SIDI M'HAMED DAIA BEN DAHOUA,32.5490226745605,3.60212898254395,47
47308,47038.0,QUARTIER CHABET CHABET SID CHIKH,32.2534408569336,3.62618398666382,47
30122,30063.0,UNIVERSITE KASDI MERBAH OUARGLA,31.941688,5.296164,30
25214,25039.0,BOUNOUARA,36.2112035,6.807644,25
12108,12018.0,CITE   EZZOUHOUR TEBESSA,35.410327911377,8.13107013702393,12
51512,51071.0,ROUTE NATIONAL N°46 RAS-DJEDER,36.735742,3.134977,51
5108,5054.0,CHAABET-OULED-CHELIH,35.313159942627,5.59595489501953,5
25205,25031.0,03 RUE NATIONALE ELGOURZI,36.13093,6.602854,25
15607,15051.0,RUE BOUCHFIAA,36.4038505554199,4.12301111221313,15
35522,35023.0,CITE BENTORKIA BOUDOUAOU,36.7000007629395,3.40000009536743,35
13100,13000.0,BD COLONEL LOTFI PLACE DU 1ER MAI,34.5338706970215,1.18473303318024,13
22313,22021.0,RUE TOUMI LAKHDAR,36.167377,0.442597,22
14210,14004.0,RUE MOSTAPHA BENBOULAID,35.4286346435547,1.78473997116089,14
53307,53015.0,EL BARKA,27.1798144,2.4395362,53
29511,29074.0,RUE BEN ARBA MILOUD OULED DAHOU YALOU,35.5705871582031,-0.0417720004916191,29
29510,29062.0,SEDJERARA CENTRE,35.6433601379395,0.215819999575615,29
26203,26056.0,RUE ASSISTANCE BEN CHICAO,36.0845527648926,2.39444589614868,26
56209,56020.0,CENTRE VILLE DJANET,24.552906,9.482253,56
20309,20003.0,RUE DE L'INDEPENDENCE EL HASSASNA  20003,34.7898750305176,0.152224004268646,20
12118,12063.0,RESIDENCE UNIVERSITAIRE EL WIAME,35.418041229248,8.08516025543213,12
24406,24049.0,RUE SALAH DARDAR,36.3737602233887,7.22466993331909,24
28604,28047.0,CED EL GHABA,35.3656272888184,4.3038330078125,28
26113,26078.0,QUARTIER TAKBOU MEDEA,35.521110534668,2.45367193222046,26
19204,19099.0,EL HACHICHIA,36.1469993591309,5.32320594787598,19
26419,26028.0,QUARTIER BELKHEIRET MANSOUR K-E-B,36.1125411987305,2.34040498733521,26
15300,15002.0,"RUE, 1ER NOVEMBRE",36.3415756225586,4.1839861869812,15
26408,26033.0,MOUDJBEUR CENTRE,36.2101287841797,2.28391909599304,26
42306,42055.0,RUE DE NADOR HADJOUT,36.3217010498047,2.23420000076294,42
34110,34069.0,CITE UNIVERSITAIRE EL ANNASSER,36.0558052062988,4.79182910919189,34
24213,24043.0,CITE SALAH LATRACHE,36.445629119873,7.30888986587524,24
25210,25049.0,OULED RAHMOUNE,36.1788485,6.701422,25
9106,9050.0,Cité Sidi Kebir Blida,36.2714004516602,2.50224995613098,9
50317,50073.0,APC BORDJ BADJI MOKHTAR,36.062708,4.626583,50
13302,13030.0,RUE 11 DECEMBRE 1962,36.081085,4.757996,13
26507,26072.0,SIDI ZAHAR CENTRE,36.1655502319336,3.05538702011108,26
26106,26031.0,CITE MERDJECHKIR MEDEA,36.1520538330078,3.25,26
19211,19073.0,AIN MESSAOUD,36.2155265808105,5.27869510650635,19
41109,41040.0,RUE   D'ALGER,36.1709594726562,7.57110500335693,41
1102,1062.0,HAI 200LOGTS ADRAR,27.8662700653076,-0.282842010259628,1
26701,26022.0,AISSAOUIA CENTRE,36.0416946411133,2.54104399681091,26
58400,58001.0,CENTRE VILLE EL MENIAA,33.330733,6.886294,58
2214,2082.0,CINQ PALMIER,36.2817993164062,1.23940002918243,2
57301,57045.0, CITE AIN CHEIKH ,34.6768323,3.2410538,57
34225,34036.0,AIN-KAHLA,36.1866760253906,4.54654312133789,34
20307,20027.0,KHOURICHFA VILLAGE 20027,34.2589683532715,0.163650006055832,20
32409,32020.0,RUE BELKHADER MAHMOUD ARBAT FOUGANI,36.813228,2.983693,32
51510,51045.0,RUE NATIONAL N°46 BIR-NAAM,36.702588,3.207688,51
1308,1056.0,KSAR EL BERRICH,26.8708343505859,-0.0031439999584108,1
26204,26017.0, DRAA ESMAR CENTRE,36.0817985534668,3.23320007324219,26
38404,38028.0,RUE MED BOUDIAF,35.8592872619629,1.67932999134064,38
12510,12068.0,GARE-ROUTIERE - cheria,35.2575302124023,7.76304006576538,12
16315,16105.0,HOPITAL CENTRAL MILITAIRE AIN NAADJA,36.719318,3.065341,16
15416,15036.0,IGUERSAFENE,36.6664009094238,4.51865005493164,15
7321,7077.0,EL HAY EL DJADIDE SIDI-KHELLIL,34.8142967224121,5.9082202911377,7
51504,51004.0,RUE 1ER NOVEMBRE SIDI KHALED,34.3919285,5.002321,51
49524,49072.0,TIMIMOUN VILLE,29.26388,0.23098,49
3108,3016.0,CITE-NORD,33.4843406677246,2.51235008239746,3
26317,26080.0,EL GOUEA VILLAGE,35.5801658630371,2.31509900093079,26
2503,2048.0,KHERBA,36.3605995178223,1.230299949646,2
9306,9044.0,Cité 251 logts BORDJ AMIR AEK ain romana mouzaia,36.255989074707,2.44219994544983,9
41111,41046.0,"GARE-ROUTIERE,COMMUNE DE SOUK-AHRAS",36.1551551818848,7.5628228187561,41
9312,9054.0,Rue dzanouni abdelkader zaouia beni tamou blida,36.3154411315918,2.48567008972168,9
2221,2076.0,BENI OUDRENE,36.1254005432129,1.38119995594025,2
20220,20032.0,SIDI MAAMAR VILLAGE 20032,34.7927894592285,0.14419136941433,20
25213,25048.0,LAMBLECHE,36.3479,6.7034,25
26300,26002.0,AVENUE DE LA REPUBLIQUE BERROUAGHIA,36.0821685791016,2.54407095909119,26
12312,12065.0,GARE ROUTIERE BIR EL ATER,34.770191192627,8.05910015106201,12
42308,42038.0,CENTRE VILLE NADOR,36.3409004211426,2.23340010643005,42
44320,44016.0,CITE 05 JUILLET 1962 KORKAH MILIANA,36.3071136474609,2.214359998703,44
55305,55024.0,RUE AMIROUCHE,36.7194302,3.0891373,55
20110,20016.0,Cite Erriadh Saida 20016 ,34.7418518066406,0.156987398862839,20
34213,34052.0,OULED-SIDI-BRAHIM,36.2289047241211,4.33569097518921,34
12310,12020.0,CITE EL IMRANE BIR EL ATER,34.7624092102051,8.05482482910156,12
44108,44071.0,AIN DEFLA,36.2657178,1.9701347,44
13709,13127.0,RUE DE LA POSTE MEFTAHIA,36.695535,2.973282,13
54212,54042.0,19-mars,34.1542398,5.822142774060712,54
11112,11040.0,GROUPEMENT-MILITAIRE OUTOUL TAMANRASSET,22.8666706085205,5.33333301544189,11
16118,16002.0,119 RUE DIDOUCHE MOURAD,36.763500213623,3.04690003395081,16
16119,16007.0,01 RUE LAHCENE MIMOUNI PLACE 1ER MAI,36.7599983215332,3.0566999912262,16
10400,10004.0,AVENUE 1er NOVEMBRE SOUR EL GHOZLANE,36.1477012634277,3.68889999389648,10
9200,9003.0,RUE SAHRAOUI  MUSTAPHA,36.3116798400879,2.51342010498047,9
35300,35001.0,RUE BENNOUR ALI BORDJ MENAIEL ,36.75,3.75,35
9505,9020.0,RUE BOUTABAL AHMED,36.3135795593262,2.59432005882263,9
9506,9009.0,RUE LAZERGUI,36.3437385559082,3.00340008735657,9
16206,16031.0,"10 RUE, OUAZENE MOHAMED B,E,K",36.712198,3.087854,16
16803,16084.0,BOUCHAOUI CENTRE,36.6652221679688,2.93621110916138,16
44311,44005.0,RUE 20 AOUT,36.2192001342773,2.41538000106812,44
35304,35009.0,BD COLONEL AMIROUCHE ISSER ,36.723991394043,3.66814398765564,35
44305,44020.0,RUE 26 AVRIL ,36.3326988220215,2.30253005027771,44
16807,16094.0,19 BOULVARD BOUCHAOUI,36.7436943054199,2.95007300376892,16
2417,2012.0,TAOUGRITE CENTRE,36.2463989257812,0.923200011253357,2
15409,15010.0,RUE DE LA POSTE,36.5340156555176,4.25106048583984,15
9402,9008.0,ROUTE NATIONAL 64 BOUGARA,36.3223609924316,3.04573011398315,9
16817,16095.0,RUE COLONEL AMIROUCHE,36.692554473877,3.03089094161987,16
16826,16062.0,RUE BEN DADAY AHMED,36.7516593933105,2.89745903015137,16
14208,14020.0,ROUTE DE TISSEMESILT,36.198858,1.322528,14
44208,44010.0,RUE MOHAMED MEDDEGHRI,36.3050003051758,1.8482700586319,44
44303,44018.0,RUE BELMESTFAOUI DJILLALI,36.1570014953613,2.40535998344421,44
35305,35016.0,RUE MELLAH ALI ISSER-VILLE,36.7099990844727,3.34999990463257,35
35302,35008.0,RUE DOUDAH ALI CHABET EL AMEUR,36.6100006103516,3.6800000667572,35
42507,42026.0,RUE RAHIM RABAH DOUAOUDA MARINE,36.4053001403809,2.46169996261597,42
6812,6041.0,IL MATTEN,36.6717987060547,4.79061985015869,6
31319,31058.0,SIDI BENYEBKA ,35.8297538757324,-0.393934011459351,31
28506,28015.0,EL HAMEL,35.1308796,4.0879174,28
34319,34020.0,SIDI-EMBAREK,36.1035919189453,4.90938806533813,34
18304,18027.0,CHAHANA,36.6794204711914,5.95768022537231,18
21103,21046.0,STORA,36.9029083251953,6.87806367874146,21
10309,10039.0,MAALA 10240,36.4931983947754,3.57209992408752,10
10303,10016.0,BOUDERBALA ,36.5817985534668,3.5113000869751,10
7202,7013.0,RUE 10 JUILLET 57 AIN ZAATOUT,35.1457138061523,5.83740615844727,7
29606,29024.0,PLACE EN-NASR FROHA,35.3050842285156,0.127074003219604,29
29314,29030.0,RUE DES MARTYRS SIDI KADA,35.3324928283691,0.341250002384186,29
13305,13034.0,RUE L'INDEPENDANCE ,34.67523,3.250628,13
24307,24024.0,RUE RZIGUI MOHAMED,36.3254203796387,7.6417498588562,24
52405,52028.0,OULED KHODEIR,29.2565086,-1.0596458,52
52403,52021.0,IGLI,30.4528493,-2.2908264,52
24203,24015.0,CITE 90 LOGTS BELKHEIR,36.4635810852051,7.47299003601074,24
13306,13085.0,RUE BOUCHAMA AHMED,36.717877,3.141734,13
2409,2037.0,OULED BEN AEK,36.0269012451172,1.2742999792099,2
44315,44024.0,RUE PRINCIPALE ,36.1655006408691,2.55461001396179,44
2317,2014.0,ZEBOUDJA CENTRE,36.356201171875,1.4326000213623,2
9309,9032.0,CENTRE OUED-DJER,36.3627014160156,2.50524997711182,9
21204,21015.0,EL-HADAIEK,36.8310127258301,6.88319206237793,21
40405,40022.0, TABERDGA ,35.0383987426758,7.00479984283447,40
40406,40013.0, ZOUI ,35.2956008911133,7.35540008544922,40
29307,29025.0,RUE DU 1ER NOVEMBRE 1954 KHALOUIA,35.4622001647949,0.296137005090714,29
48410,48019.0,RUE ZEBOUDJ BELGACEM,35.8263778686523,0.96448802947998,48
7310,7010.0,RUE MEOURI M'CHOUNECHE,34.9410171508789,5.99362468719482,7
13203,13023.0,HAI TOFOULA AIN GHORABA,35.313411,-1.138814,13
24208,24019.0,CITE LOUNIS BOUGUERRA,36.5046615600586,7.3981499671936,24
24206,24018.0,RUE RABAH ZEROUALE,36.5895118713379,7.32773017883301,24
52404,52022.0,KERZAZ,29.88168035,-0.8889015998802978,52
45206,45005.0,"CENTRE VILLE, BENAMMAR",33.7178421020508,0.730081021785736,45
14401,14017.0,CITE ZIROUD YOUCEF,35.3546371459961,1.66906297206879,14
24407,24028.0,RUE 20AOUT 55 ROKNIA ,36.5441703796387,7.23420000076294,24
24404,24017.0,RUE MOHAMED BOUDIAF,36.4024810791016,7.04937982559204,24
24306,24038.0,VILLAGE BOUKAMOUZA ,36.5822486877441,7.75013017654419,24
1305,1007.0,DAIRA ZT KOUNTA,27.229061126709,-0.150742992758751,1
46306,46022.0,ROUTE DE SIDI BEL ABBES,35.2176666259766,-0.980536997318268,46
52401,52020.0,EL OUATA,29.8608014,-1.8496314,52
52303,52029.0,TABELBALA ,29.4054154,-3.2553664,52
26703,26018.0, EL AZIZIA CENTRE,36.1629066467285,2.43008899688721,26
46406,46025.0,RUE BENAICHA SAFI,35.281177520752,-1.31220996379852,46
5101,5014.0,CITE AN-NASR,35.3300857543945,6.10080814361572,5
6410,6030.0,TOUDJA,36.75,4.90000009536743,6
15502,15023.0,AGOUNI GUEGHRANE,36.4924011230469,4.13667011260986,15
17304,17014.0,Route AIN OUSSERA   BIRINE ,35.442651,2.93823,17
15212,15072.0,TAGT OUKERROUCHE,36.3550643920898,4.3598198890686,15
40208,40021.0, M'TOUSSA ,35.5066986083984,7.30219984054565,40
19206,19047.0,EL OURICIA,36.2835998535156,5.40956020355225,19
47203,47012.0,RUE ENNASR  EL ATTEUF,32.4798774719238,3.74420189857483,47
39200,39003.0,CITE EL.WIFAK ,31.953333,5.334067,39
2402,2040.0,AIN SERDOUNE,36.2036018371582,0.946600019931793,2
5501,5045.0,ROUTE BISKRA-BITAM,35.1848907470703,5.2224588394165,5
21308,21036.0,CHERAIA,37.0023307800293,6.51297235488892,21
21205,21038.0,HAMADI-KROUMA,36.8442802429199,6.93198823928833,21
27402,27009.0,RUE AMRANI LAID N° 10,36.198062,5.415082,27
48209,48030.0,BD HOUARI BOUMEDIENE,35.6051635742188,0.588865995407104,48
48208,48022.0,CITE ISMAIL ISMAIL,35.5785789489746,0.925230026245117,48
2310,2046.0,GUELTA,36.3592987060547,0.833299994468689,2
7304,7024.0,RUE AMRANE MOHAMED CHETMA,34.8493881225586,5.79372692108154,7
6409,6032.0,KENDIRA CHEF LIEU COMMUNALE,36.539852142334,5.02542686462402,6
29604,29021.0,RUE LARBI BENMEHIDI  AOUF,35.0974998474121,0.355502992868423,29
29404,29029.0,RUE DE L'INDEPENDANCE OGGAZ,35.5637702941895,0.258163005113602,29
46305,46023.0,RUE 20 AOUT 1955,35.3760070800781,-0.809670984745026,46
6411,6020.0,SEMAOUNE CENTRE,36.6150016784668,4.82369995117188,6
28508,28016.0,MEDJEDEL,35.8519897460938,3.41395998001099,28
17503,17011.0,cité sailaa mabrouk,36.723742,3.129605,17
15505,15058.0,AIT ABDELMOUMENE,36.3433494567871,4.21237516403198,15
15504,15057.0,BUREAU DE POSTE OUADHIA,36.3321495056152,4.51913976669312,15
15702,15062.0,AIT SAID,36.504322052002,4.5446720123291,15
15529,15026.0,AIT IDIR,36.3025856018066,4.05138826370239,15
15509,15066.0,RUE ALLILI DAHMANE,36.5099983215332,3.98000001907349,15
15308,15074.0,TASSAFT,36.3236503601074,4.14140510559082,15
6503,6028.0,SILLAL,36.6664009094238,4.69721984863281,6
5709,5055.0,TAXLENT,35.3619613647461,5.47585821151733,5
5405,5033.0,CITE ALI-NEMEUR,35.3629302978516,5.5606517791748,5
6505,6035.0,TAOURIT IGHIL,36.7000007629395,4.73600006103516,6
3600,3005.0,BRIDA,33.5206413269043,1.51256000995636,3
9102,9016.0,CITE BEN BOULAID BLIDA,36.2904815673828,2.50147008895874,9
6304,6026.0,BENI MANSOUR,36.3361015319824,4.35222005844116,6
7402,7022.0,RUE EMIR AEK BOUCHAGROUNE,34.7065773010254,5.49658632278442,7
41307,41019.0,CITE ZAMZOM BRAHIME,36.1513214111328,7.36839008331299,41
21511,21043.0,OULED-HABEBA,36.5163764953613,6.97240591049194,21
35209,35029.0,RUE MAHIEDINE MED SEGHIR TAOUERGA,36.7900009155273,3.9300000667572,35
15526,15050.0,TIZI NTLETA,36.3250007629395,4.31602716445923,15
6602,6034.0,AMALOU,36.4832992553711,4.65000009536743,6
18309,18030.0,PLACE ACILA HOCINE,36.8247985839844,5.9594202041626,18
15601,15059.0,AIT AGUOUACHA,36.3655090332031,4.13584232330322,15
4417,4012.0,HENCHIR-LAATACHE,35.9300003051758,6.78999996185303,4
20215,20011.0,HAMMAM RABI VILLAGE 20011,34.9300231933594,0.182132795453072,20
9201,9019.0,ROUTE PRICIPALE BOUARFA,36.2759208679199,2.48587989807129,9
42206,42029.0,RUE DE LA MAIRIE HADJRET-ENNOUS,36.3424987792969,2.03110003471375,42
42515,42033.0,RUE NASSAH LAHCENE KHEMISTI PORT,36.380500793457,2.40260004997253,42
43302,43015.0,RUE 1ER NOVEMBRE ,36.2757606506348,6.17858982086182,43
18404,18008.0,BELGUIMOUZ,36.818359375,6.13161993026733,18
15405,15060.0,AIT CHAFFA,36.4918518066406,4.31291103363037,15
43414,43034.0,TASSALA,36.5693012,5.9884624,43
19702,19036.0,BAZER SAKHRA,36.0789985656738,5.61399984359741,19
10501,10031.0,AIN EL HADJAR 10480,36.3406982421875,3.8092999458313,10
36310,36017.0,VSA DARHOUSSA,36.7325820922852,7.79817485809326,36
13409,13044.0,RUE SIDI MEDJAHED,34.774805,-1.638731,13
5311,5043.0,TIFELFEL,35.0700073242188,6.1355562210083,5
5812,5038.0,NOUADER ROUTE MENAA,35.1335792541504,6.07495880126953,5
6502,6029.0,KIRIA,36.6833000183105,4.66666984558105,6
6504,6025.0,TIZAMOURINE,36.2942008972168,4.5544900894165,6
6813,6037.0,TINEBDAR,36.625301361084,4.6810097694397,6
6401,6092.0,AGHBALA,36.5833015441895,4.93330001831055,6
6808,6036.0,TAKERIETZ,36.6299018859863,4.83300018310547,6
5304,5049.0,FOUM-TOUB,35.2420349121094,6.33078718185425,5
12501,12011.0,CENTRE VILLE B.MOKKADEM,35.5716781616211,7.81046009063721,12
5102,5003.0,ALEES BEN BOULAID,35.3332977294922,6.10267019271851,5
10502,10032.0,AIN LALOUI 10410,36.3203010559082,3.74670004844666,10
19202,19091.0,BOUIRA,36.2159843444824,5.28019857406616,19
16127,16041.0,CITE BEAU CHERAYE,36.7806015014648,3.042799949646,16
31222,31084.0,LOCALITE TAFRAOUI,35.5217475891113,-0.533501982688904,31
30203,30031.0,N'GOUSSA,32.34338985,5.340404788687302,30
34201,34023.0,RUE DEMOUCHE MOHAMED AIN-SOLTANE,36.1335105895996,4.7344012260437,34
22103,22006.0,RUE ALI BOUMENDJEL ,35.4514937,2.9045977,22
10217,10011.0,ATH MANSOUR ,36.2999992370605,4.31666994094849,10
16115,16022.0,01 RUE HAHAD ABDEREZAK,36.7848701477051,3.06204104423523,16
34304,34027.0,BIR-AISSA,36.061710357666,4.96779203414917,34
10214,10043.0,SAHARIDJ 10140,36.4000015258789,4.25,10
18311,18036.0,OULED ASKEUR,36.7722587585449,5.89555978775024,18
18405,18023.0,BELHADEF,36.7020111083984,6.10304021835327,18
5704,5067.0,GUIGBA,35.4403038024902,5.35227203369141,5
42210,42036.0,RUE PRINCIPALE MESSELMOUN,36.3349990844727,2.0006000995636,42
5202,5077.0,CITE FRERES-BENCHADI,35.354434967041,6.12442302703857,5
43201,43016.0,RUE CHANDERLI BRAHEM LAKHDAR ,36.3980102539062,6.32493305206299,43
5817,5058.0,T'LETZ,35.17041015625,6.150221824646,5
44408,44026.0,RUE IBN-BADISS,36.2307014465332,1.71577000617981,44
2406,2028.0,EL-ATMANIA,36.0185012817383,1.16149997711182,2
21305,21034.0,BOUDOUKHA,36.7440872192383,6.40216493606567,21
35308,35026.0,RUE MOHAMED AMMARI LEGHATA ,36.7700004577637,3.67000007629395,35
40402,40015.0, DJELLAL ,34.9192008972168,6.89289999008179,40
24408,24029.0,RUE ABDEJKADER HAROUCHE ,36.3869895935059,7.25076007843018,24
14404,14027.0,RUE EMIR ABDELKADER,35.2318000793457,1.63489997386932,14
12204,12031.0,VILLAGE AIN FEDHA,35.5554733276367,7.81739807128906,12
34211,34034.0,OULED-RACHED,36.2637214660645,4.70158910751343,34
13505,13032.0,RUE BOUCHIKHI AISSA,35.723136,-0.540518,13
5104,5040.0,BATNA CITE KECHIDA,35.3340950012207,6.09241676330566,5
5105,5005.0,CITE LAMBARKIA,35.3243637084961,6.11269378662109,5
21519,21047.0,ZERDAZAS,36.5878105163574,6.90768337249756,21
5908,5065.0,TOUFFANA OULED FADEL,35.2859878540039,6.37292623519897,5
29101,29007.0,RUE CHEIKH BOURAS BAB ALI MASCARA,35.3979301452637,0.135971993207932,29
41101,41021.0,CITE 17 OCTOBRE,36.1723289489746,7.58216381072998,41
17401,17025.0, CENTRE VILLE   AIN MAABED,34.8,3.13333,17
46304,46021.0,RUE SI OMAR,35.2749061584473,-0.98667699098587,46
28319,28035.0,SIDI-AMEUR,35.3651917,3.825700727388949,28
32101,32010.0,CITE EL GRABA RUE DES FEDAYEEN,36.168129,1.337427,32
16821,16110.0,CITE 500 LOGEMENT ZERALDA ,36.7086753845215,2.84542798995972,16
16203,16024.0,"CITE 08 MAI 45 N°20 B,E,Z",36.7328147888184,3.18724608421326,16
13103,13021.0,FG BOUDGHENE,34.5222282409668,1.19196999073029,13
18307,18028.0,DEKKARA,36.7404899597168,5.89024019241333,18
7412,7083.0,ZAATCHA-BEN-BOULAID,34.8026924133301,5.64060115814209,7
7408,7034.0,RUE DES COUSINS ZAGHEZ  MEKHADMA,34.6506309509277,5.47095966339111,7
43412,43061.0,SIDI-ZERROUK,36.4760802,5.9980868,43
18215,18049.0,SELMA,36.6229209899902,5.65291976928711,18
18205,18025.0,BOUDIA BENI YADJIS,36.599609375,5.80682992935181,18
39103,39063.0, CITE LIZERG ,33.41243595,6.94882645595046,39
39210,39037.0, SIDI AOUN,33.8391534,6.810855882530575,39
4413,4032.0,OULED-GACEM,35.8899993896484,6.63000011444092,4
39507,39035.0, OURMES,33.353029,6.539482005025707,39
18406,18026.0,BORDJ ALI,36.6836814880371,6.35873985290527,18
57315,57042.0, TENEDLA   EL BERD,35.87541,7.11353,57
10102,10046.0,ZEBOUDJA 10221,36.4418983459473,3.83680009841919,10
57306,57056.0, CITE EL-ARFIANE ,33.63939,5.98187,57
57302,57021.0,CITE AIN CHOUCHA ,35.303629,-1.140037,57
57313,57041.0,CITE TAMERNA ,33.44542,5.95527,57
48301,48041.0,RUE BOUKHARI ALI,36.1124114990234,0.664290010929108,48
48304,48023.0,CHAHID BELKAID ABDI ABDELLAH,36.1090087890625,0.855799973011017,48
48302,48016.0,CHAHID TOUMI AEK,36.0887107849121,0.816179990768433,48
48405,48047.0,RUE MOULAY ALI SLIMANE,35.8962593078613,0.738910019397736,48
48204,48052.0,KENENDA,35.6563529968262,0.822676002979279,48
48201,48036.0,BD 1ER NOVEMBRE,35.8404388427734,0.0501080006361008,48
48401,48057.0,CITE CHEBIRA,35.975399017334,0.952069997787476,48
57307,57067.0, M'RARA ,33.4762319,5.6606773,57
28320,28065.0,TEMSA,35.1033248901367,3.55325508117676,28
21209,21042.0,OUED-RIGHA,36.8987274169922,7.05273962020874,21
43309,43047.0,DJEBEL-AOUGUEB,36.1738395690918,6.22270917892456,43
41206,41015.0,RUE BRAHMIA ABEDELLAH,36.7103118896484,7.625816822052,41
41308,41033.0,ANCIEN RAGOUBA,36.6448287963867,7.41214179992676,41
21411,21065.0,MEKKASSA,36.7456855773926,7.40982675552368,21
21202,21053.0,BOUCHTATA-MAHMOUD,36.7938117980957,6.79670476913452,21
21410,21041.0,MENZEL-BENDICHE,36.7158088684082,7.07882165908813,21
21414,21072.0,RAS-EL-MA,36.6960525512695,7.01026344299316,21
21311,21062.0,KANOUA,37.0376739501953,6.40374183654785,21
2203,2020.0,CHETTIA VSA,36.1864013671875,1.25020003318787,2
21207,21051.0,AIN-ZOUIT,36.891185760498,6.78934526443481,21
19509,19055.0,MAOUIA,36.3981056213379,5.69839811325073,19
19502,19078.0,AKRIF BOURDIM,36.349723815918,5.03125,19
21201,21033.0,BENI-BECHIR,36.776123046875,6.93724918365479,21
35505,35046.0,VILLAGE EL KARMA,36.7700004577637,3.50999999046326,35
16806,16107.0,VILLAGE AGRICOLE,36.7630043029785,2.92575097084045,16
35307,35025.0,CENTRE KOUDIET LAREIS ,36.7999992370605,3.67000007629395,35
7307,7028.0,HAI EL MOUDJAHIDINE EL HAOUCH,34.5795822143555,6.01645946502686,7
21301,21030.0,AIN-AGHBEL,36.9698486328125,6.52579307556152,21
7305,7050.0,ROUTE D'ARRIS  DROH,34.8677177429199,5.872145652771,7
21307,21029.0,AHMED-SALEM,36.8762664794922,6.60937404632568,21
6408,6096.0,TADART TAMOKRANT,36.6440010070801,4.90500020980835,6
6807,6085.0,SIDI AYAD,36.61669921875,4.75360012054443,6
6803,6043.0,EL FLAYE,36.6021003723145,4.66359996795654,6
6407,6095.0,KHELLIL,36.5666999816895,4.96667003631592,6
6811,6042.0,SOUK OUFELA,36.6060981750488,4.63901996612549,6
2302,2060.0,MOUSSADEK,36.3543014526367,1.00849997997284,2
2415,2036.0,DAHRA,36.2565994262695,0.851499974727631,2
2413,2032.0,SIDI MOUSSA,36.2459983825684,0.815500020980835,2
2204,2053.0,PETIT BARRAGE,36.089298248291,1.59150004386902,2
44309,44048.0,LA RUE PRINCIPALE ,36.310001373291,2.39723992347717,44
2316,2065.0,TALASSA,36.4266014099121,1.09080004692078,2
2404,2083.0,BORDJ BAAL,36.2778015136719,0.845399975776672,2
44306,44036.0,RUE 11 DECEMBRE 1962,36.195499420166,2.51143002510071,44
44302,44035.0,RUE BOUCHETA MOHAMED,36.3521003723145,2.39031004905701,44
44319,44059.0,ZOUGGALA  CENTRE,36.2901992797852,2.22128009796143,44
44307,44040.0,RUE EMIR AEK,36.3111000061035,2.16394996643066,44
44211,44050.0,RUE MELLAHI BENYOUCEF,36.3026008605957,1.95975005626678,44
44406,44025.0,RUE CHEKIKEN BEN YAHYA,36.209300994873,1.68508005142212,44
44204,44043.0,QUARTIER KHOUCHI MOHAMED,36.1806983947754,2.2276599407196,44
2202,2034.0,BIR SAF SAF,36.2048988342285,1.59270000457764,2
2410,2074.0,OULED BERRADJAH,36.1525993347168,1.00279998779297,2
2207,2031.0,HARCHOUN,36.111499786377,1.50510001182556,2
7203,7023.0,RUE 19 JUIN BRANIS,34.9954605102539,5.76987028121948,7
26403,26054.0,BOUAICHE CENTRE,36.1140213012695,2.35868000984192,26
19304,19040.0,BIR LABIED,36.0762901306152,5.46480274200439,19
19209,19111.0,MAHOUAN,36.26416015625,5.34552431106567,19
19108,19048.0,FERMATOU    SETIF,36.2276306152344,5.39463186264038,19
19205,19100.0,EL HAMMAM,36.0657997131348,5.24624586105347,19
36303,36024.0,AIN ALLEM,36.6796875,7.714111328125,36
23303,23020.0,CITE MENAOUAR AIN SAYD,36.6825523376465,7.64792680740356,23
28404,28027.0,BENI ILMANE,35.9483559,4.1197605,28
46403,46027.0,AIN-ALEM,35.1607780456543,-1.43281900882721,46
6710,6044.0,TEREGRET  06044  Cne AIT SEMAIL,36.5469017028809,5.22966003417969,6
6606,6109.0,TAMOKRA,36.3931999206543,4.66446018218994,6
31305,31063.0,RUE PRINCIPALE -BENFREHA-,35.6947479248047,-0.419813007116318,31
31316,31050.0,RUE EMIR AEK -HASSI MEFSOUKH-,35.8007698059082,-0.376507014036179,31
22410,22062.0,CITE DU 08 MAI 1945,35.362109,1.33422,22
22202,22060.0,SEHALA THAOURA,35.22293875,-0.8594959590161937,22
22404,22045.0,CHETOUANE,34.9207591,-1.2910642,22
22304,22040.0,RUE KERIM DJELLOUL,36.60588,2.193017,22
22301,22034.0,RUE GHALEM,35.3063881,-1.1302035,22
13701,13028.0,ROUTE BOUTRAK,35.8794,0.087807,13
13405,13040.0,BD PRINCIPALE,35.187427,-0.6389,13
36207,36037.0,VSA KANTARA-EL-MALHA,36.865406036377,8.34626388549805,36
23305,23019.0,VILLAGE  VRA EL KARMA ,36.7513618469238,7.67809820175171,23
36211,36046.0,RIGHIA,36.8291473388672,8.18086624145508,36
23207,23046.0,VSA TACHA ,36.8462715148926,7.42553997039795,23
36212,36021.0,CNE ROUM-EL-SOUK,36.7861709594727,8.53454399108887,36
13607,13042.0,RUE CHAHID BERRAMDANE AEK,35.678291,-0.411199,13
13603,13033.0,RUE BELAIDOUNI MED,35.942311,0.092085,13
12401,12033.0,VILLAGE AIN SIDI SALAH,35.9740715026855,8.20700836181641,12
34317,34035.0,RABTA,35.899543762207,4.77455282211304,34
45202,45007.0,VILLAGE ABDELMOULA,33.8849182128906,0.985105991363525,45
28309,28051.0,DJEBEL THAMEUR,35.2230758666992,4.1620659828186,28
28318,28063.0,ROUMANA,35.1251945495605,4.17590522766113,28
28602,28041.0,BANIOU,35.2454147338867,4.20270681381226,28
10201,10033.0,AIN TURK 10120,36.3936004638672,3.82410001754761,10
10509,10044.0,SOUK EL KHEMIS 10420,36.3914985656738,3.63240003585815,10
10406,10071.0,MAAMORA 10390,36.0331001281738,3.55209994316101,10
10202,10035.0,BAHALIL  10191,36.4225006103516,4.36719989776611,10
10506,10038.0,KHABBOUZIA 10441,36.3162994384766,3.60019993782043,10
10212,10076.0,OUED-EL-KHEMIS 10182,36.2140998840332,4.11399984359741,10
10311,10080.0,OULED-LALEM 10261,36.5167007446289,3.64790010452271,10
10408,10045.0,TAGUEDITE 10350,36.0185012817383,3.9893000125885,10
25203,25038.0,BORDJ MEHERIS,36.0,7.0,25
5204,5069.0,SIDI-MANCAR,35.3114738464355,6.22368288040161,5
5305,5083.0,INOUGHISSENE,35.170238494873,6.32099914550781,5
5411,5051.0,TALKHEMPT,35.4005012512207,5.47304821014404,5
5816,5056.0,TAGOUST-EL-HAMRA,35.1406364440918,6.02522611618042,5
31116,31013.0,25 AV D'ALCOOL -ORAN-,35.7070617675781,-0.617731988430023,31
31117,31021.0,05 RUE GAFAITI KERZAZI -ORAN-,35.684926,-0.649482,31
27307,27018.0,MESRA,35.8372794,0.1693314,27
46100,46000.0,RUE CHOUIREF SALAH,35.3414001464844,-1.04779994487762,46
46303,46017.0,RUE LIEUTENANT  ZITOUNI,35.1362724304199,-0.992157995700836,46
27304,27003.0,RUE GACEM ABDELLAH,35.395307,0.145275,27
29200,29005.0,RUE DE LA REPUBLIQUE BOUHANIFIA,35.3132972717285,0.0483280010521412,29
27400,27002.0,RUE DE LA PALESTINE,36.2658164,1.9743194,27
48200,48009.0,RUE CHAHID SI HAOUAS,35.7433242797852,0.456221014261246,48
29204,29014.0,ROUTE DE BOUHANIFIA HACINE,35.4595413208008,-0.0078600002452731,29
48205,48006.0,RUE GACEM L'AID,35.7222480773926,0.352355986833572,48
48400,48001.0,BD DES MARTYRES ,35.5961036682129,0.916649997234344,48
46204,46011.0,Cité Houari Boumedienne - Chaâbat leham,35.3361015319824,-1.10106003284454,46
27409,27007.0,RUE DES MARTYRES,36.3319135,5.0898725,27
46201,46016.0,"RUE TALHA ,COMMUNE DE AGHLAL",35.2020378112793,-1.36906111240387,46
29305,29013.0,RUE EMIR ABDELKADER EL HACHEM,35.3724822998047,0.420886993408203,29
29100,29000.0,RUE FRIMAHDI MASCARA,35.3942756652832,0.136649996042252,29
20212,20019.0,SIDI AMAR VILLAGE 20019,34.9400329589844,0.172178700566292,20
22203,22029.0,RUE EMIR AEK ,35.2924643,-1.1386502,22
10302,10010.0,AOMAR CENTRE,36.49169921875,3.769700050354,10
34204,34005.0,CITE SATTOR BORDJ ZEMMOURA,36.2708282470703,4.84865093231201,34
2303,2039.0,BENAIRIA,36.3550987243652,1.37580001354218,2
19705,19023.0,BENI FOUDA,36.2048187255859,5.44508695602417,19
21512,21020.0,OUM-TOUB,36.6894493103027,6.57311105728149,21
5306,5082.0,KEF-LAAROUS,35.0257148742676,6.08071804046631,5
5809,5097.0,MEZLINE,35.1646690368652,6.07133388519287,5
5905,5101.0,DRAA-BOULTIF,35.4950218200684,6.22106504440308,5
5403,5070.0,VILLAGE AGRICOLE DRAA-EL-GBOR,35.2316589355469,6.24311208724976,5
5308,5080.0,RHOUFI,35.0340766906738,6.10139894485474,5
5903,5063.0,BOU-EL-FREISS,35.3056602478027,6.45192813873291,5
5711,5096.0,TINIBAOUINE,35.3439674377441,5.44244194030762,5
5302,5081.0,CHENAOURA,35.1003837585449,6.20234298706055,5
5807,5108.0,CHIR,35.1258850097656,6.06124496459961,5
5804,5095.0,BAALI,35.1739349365234,6.16436719894409,5
5301,5060.0,BOUSSALAH,35.1245613098145,6.18104410171509,5
28210,28048.0,DEHAHNA,35.4358215332031,5.03166007995605,28
5303,5084.0,EL-HADJADJ,35.1604270935059,6.02414321899414,5
19403,19096.0,DAR EL HADJ,36.3256874084473,4.8515887260437,19
28605,28053.0,DREAT,35.5934867858887,4.27497911453247,28
36308,36032.0,COMMUNE CHEFFIA,36.6623764038086,8.10688591003418,36
13403,13026.0,HAI EL-BALADI BOUHALLOU,34.7786521911621,-1.5686844587326,13
34302,34038.0,AYADA,35.9909400939941,4.96591377258301,34
6605,6038.0,SIDI SAID,36.5640983581543,4.71261978149414,6
43101,43039.0,RUE SERRAOUI SACI AZEBA,36.4281768798828,6.32063579559326,43
36101,36016.0,VSA AIN KHIAR,36.8039512634277,8.33075046539307,36
36203,36028.0,BOUABED F'ZAARA,36.7944869995117,8.13458919525146,36
36209,36043.0,OUED EL HOUT,36.8225440979004,8.50349140167236,36
34308,34028.0,CHEFAA,36.2117462158203,4.97025489807129,34
36206,36030.0,VSA BOUTELLA-ABDALLAH,36.8270797729492,8.42164993286133,36
36202,36027.0,CNE BERRIHANE,36.8377876281738,8.12352180480957,36
25308,25040.0,EL MALLAH,35.3899817,-1.0959775,25
10211,10073.0,MERKALLA 10168,36.4301986694336,3.98639988899231,10
10209,10063.0,GUENTOUR CENTRE VILLE 10167,36.4013977050781,4.04514789581299,10
2307,2070.0,BREIRA,36.4490013122559,1.61539995670319,2
28205,28026.0,BELAIBA,35.527774,5.1546938,28
28608,28038.0,TARMOUNT,35.4919509887695,4.16548490524292,28
6307,6031.0,BOUHAMZA,36.4897003173828,4.60677003860474,6
55309,55030.0,CITE MOGGAR ,33.26667,6.06025,55
17410,17036.0,MOUILAH,34.7552272,3.4809357,17
55205,55037.0,ROUTE PRINCIPALE SIDI SLIMANE,35.45562,4.16573,55
55313,55018.0,RUE OUED RIGH ,35.954543,2.180611,55
55311,55036.0,CITE SIDI MADHI,34.8406191,5.7341561,55
5815,5099.0,OULED-AZZOUZ,35.1841506958008,6.17554616928101,5
45305,45014.0,VILLAGE KALAAT CHEIKH BOUAMAMA,32.4889373779297,0.463605999946594,45
35205,35041.0,VILLAGE AGRICOLE FOURAR AIN SEBAOU ,36.7055015563965,3.52369999885559,35
35513,35031.0,RUE CHAALAL ALI AMMAL,36.6345367431641,3.59140110015869,35
10204,10053.0,BENI HAMDOUNE 10196,36.407901763916,4.37449979782104,10
28405,28036.0,SIDII-HADJERES,35.4026947021484,4.15471982955933,28
15705,15064.0,ATTOUCHE,36.4833602905273,4.22245979309082,15
15307,15037.0,CHEMIN DE WILLAYA N°253,36.3236503601074,4.23402738571167,15
13210,13079.0,VILLAGE TERNY,34.79583,-1.35812,13
42511,42030.0,VILLAGE AGRICOLE HALLOULA SAHILIA,36.3417015075684,2.38100004196167,42
15208,15071.0,SOUK EL T'NINE,36.3541984558105,4.02724504470825,15
19604,19057.0,OUED SEBT,36.3798828125,4.98834848403931,19
57311,57038.0, SIDI KHELIL,33.8381103,5.9603994,57
43314,43032.0,OULED-KHELLOUF,35.984970000000004,6.07359267779688,43
9104,9018.0,CITE LE PLAN ZABANA ,36.2841911315918,2.48138999938965,9
9202,9027.0,parc nationnal de chrea,36.2543601989746,2.53020000457764,9
9401,9040.0,CENTRE HAMMAM-EL-OUANE,36.2808609008789,3.00461006164551,9
47302,47025.0,CENTRE VILLE SEB SEB,32.1614837646484,3.58920788764954,47
31312,31073.0,DOUAR EL GOTNI ,35.6808013916016,-0.364032000303268,31
43303,43040.0,BEN-BOULAID,36.1605214,6.1578951,43
10310,10072.0,M'CID-Z'BARBORA 10201,36.5564994812012,3.63899993896484,10
10312,10082.0,OULED-TCHALABI 10211,36.5821990966797,3.51370000839233,10
31406,31067.0,DOUAR DADAYOUM ,35.7110786437988,-0.68586802482605,31
29605,29038.0,RUE CHAHID KORICHI HABIB BENIAN ,35.0993461608887,0.229358002543449,29
29509,29066.0,RUE GHORBAL ALI SIDI ABDELMOUMEN,35.6538887023926,0.0135329999029636,29
29208,29042.0,RUE BEN BAKIR TAHAR EL-GUEITHNA,35.407958984375,0.0516990013420582,29
29312,29057.0,01 RUE COLONEL LOTFI ZELAMTA,35.2904968261719,0.473737001419067,29
29507,29061.0,09 RUE CHAHID BEN ABOU HAMID SAHAOURIA,35.6195487976074,0.112814001739025,29
29608,29055.0,RUE ALMI BOUZIANE  MAKDA,35.1743965148926,0.298348993062973,29
10314,10047.0,ZOUABRIA 10241,36.4934005737305,3.57220005989075,10
31307,31065.0,COMMUNE  CHAIRIA ,35.7704696655273,-0.281598001718521,31
19715,19067.0,TAYA,36.0513916015625,5.47778129577637,19
19716,19125.0,TACHOUDA,36.2651634216309,5.7379298210144,19
19712,19049.0,RUE MAATOUG AHMED EL EULMA,36.1578636169434,5.70695018768311,19
19711,19046.0,EL OULDJA,36.0453109741211,5.90347909927368,19
30109,30049.0,CITE FRANE,36.782422,3.251557,30
55501,55020.0,ROUTE NATIONALE N° 16,36.2558527,1.9567518,55
28105,28018.0,CITE 504 LOTS,35.4310264587402,4.31206321716309,28
17305,17044.0,BOUIRAT LAHDAB,35.21561725,3.117979274303765,17
42302,42046.0,CITE FEDJANA PAR MERAD,36.2952003479004,2.19479990005493,42
55302,55010.0,RUE ABANE RAMADANE,36.068174,4.765907,55
42309,42061.0,VILLAGE EL HOUARI EX SAHEL BOURKIKA,36.2755012512207,2.29590010643005,42
42204,42056.0,CITE FEDJANA MENACEUR,36.3144989013672,2.21099996566772,42
5110,5008.0,CITE 742 LOGTS,35.320369720459,6.10598278045654,5
16207,16087.0,CITE DIPLOMATIQUE DERGANA,36.7749121,3.2624221588342097,16
42211,42054.0,CITE EL HAMIDIA CHERCHELL,36.3445014953613,2.1438000202179,42
34215,34061.0,TEFREG,36.3065910339355,4.71276187896729,34
30202,30052.0,RUE HAOUARI BOUMEDIENE,35.678944,-0.4121,30
46405,46037.0,EMIR-ABDELKADER,35.2243041992188,-1.39966201782227,46
42214,42041.0,RUE PRINCIPALE SIDI SEMIANE,36.3009986877441,2.0550000667572,42
10301,10048.0,AIN-BEIDA 10231 ,36.4491996765137,3.46830010414124,10
16209,16135.0,ANNEX APC B.E.K CITE FAIZI,36.784694,3.253846,16
7208,7029.0,ROUTE DE BATNA EL KANTARA,35.235237121582,5.69952011108398,7
31134,31056.0,CITE 20 AOUT BT C8 -USTO-,35.7047805786133,-0.600445985794067,31
55303,55016.0,RUE BAGHDAD,36.734243,3.175335,55
10213,10081.0,OULED-RACHED 10185,36.2099990844727,4.1100001335144,10
9205,9031.0,CITE 500 LGTS KHAZROUNA BENI MERED,36.3328285217285,2.43002009391785,9
2110,2022.0,ZONE 3,36.1369018554688,1.30490005016327,2
24103,24022.0,CITE CHEGHAIB RABAH,36.460620880127,7.40993022918701,24
48102,48026.0,CITE EL INTISSAR,35.7371635437012,0.544790983200073,48
2107,2023.0,ZONE 5,36.1609001159668,1.36640000343323,2
2108,2045.0,HAY ABBAD,36.1436996459961,1.34599995613098,2
2106,2007.0,ANNEXE,36.1974983215332,1.26059997081757,2
17521,17033.0,CITE EL QUODS,36.069558,1.138831,17
3104,3006.0,EL-MAKAM,33.4742012023926,2.51129007339478,3
21106,21024.0,SKIKDA 20 AOUT 1955,36.8698616027832,6.91347980499268,21
15609,15147.0,TAOURIRT MOKRANE,36.3752937316895,4.11541557312012,15
15610,15055.0,AGOUNI BOURAGH,36.3995628356934,4.13186311721802,15
19601,19072.0,AIN MARGOUM,36.4145545959473,5.12626886367798,19
6302,6039.0,BEN MELIKECHE,36.4333000183105,4.43599987030029,6
31324,31041.0,HAI EMIR AEK -ARZEW-,35.84773,-0.31468,31
30200,30035.0,RUE 05 JUILLET,36.3047122,2.2216774,30
24104,24023.0,CITE FRERES RAHABI,36.4680213928223,7.45981979370117,24
5609,5048.0,RUE LOUCHENE TAHAR,35.2240524291992,5.53488206863403,5
21525,21014.0,EL-HARROUCH-EL-MELHA,36.6595573425293,6.83841514587402,21
41102,41023.0,RUE ABDERRAHMANE BEN SALEM,36.1726493835449,7.56487417221069,41
47207,47014.0,ZONE INDUSTRIELLE GARAT ETTAAM,32.448600769043,3.69814705848694,47
47206,47020.0,HAI EL MOUDJAHIDINE BARRIANE,32.8225021362305,3.75240588188171,47
43305,43021.0,BLED-YOUCEF,36.3142484,6.2659423,43
43308,43043.0,BOUMALEK,36.2750015258789,6.17799997329712,43
19516,19053.0,EL KHERBA,36.4660491943359,5.67140769958496,19
5810,5053.0,NARA,35.0934753417969,6.02347087860107,5
5818,5052.0,ROUTE DE MENAA,35.1110458374023,6.0204291343689,5
5813,5059.0,OUARKA,35.0800285339355,5.58084917068481,5
5701,5057.0,BOUMAGUER,35.3017501831055,5.33093690872192,5
21409,21066.0,MENZEL-EL-ABTAL,36.7423515319824,7.15623664855957,21
5805,5061.0,BAIOU,35.2529296875,6.20309591293335,5
10507,10075.0,OUED BERDI 10490,36.2555999755859,3.9375,10
10510,10079.0,OULED-GUEMRA 10491,36.2902984619141,3.91919994354248,10
5802,5093.0,AMENTANE,35.065013885498,5.55495691299438,5
5201,5076.0,AIN-EL-ASSAFEUR,35.3315200805664,6.18187093734741,5
5203,5078.0,COMMUNE FESDIS,35.370288848877,6.14469623565674,5
5309,5079.0,SIDI-ALI,35.125846862793,6.32429122924805,5
5708,5129.0,TARF,35.3849411010742,5.27379322052002,5
5414,5112.0,ZANA,35.464729309082,6.05023717880249,5
5408,5072.0,R'HAOUET,35.3018836975098,5.54362678527832,5
5506,5119.0,OULED-AICHE,35.2829475402832,4.58386516571045,5
5803,5094.0,AOUGHANIME,35.0718536376953,5.59093999862671,5
18312,18037.0,S'BET,36.7335586547852,5.95207023620605,18
18302,18041.0,BORDJ THAR,36.7474517822266,6.03174018859863,18
19717,19116.0,O A BEN NACER,36.293342590332,5.52084350585938,19
23310,23031.0,CITE EL EULMA  ,36.7296142578125,7.50499296188354,23
23309,23041.0,CITE MEDJEZ RASSOUL,36.7092323303223,7.62445116043091,23
6311,6057.0,IGHRAM,36.4630012512207,4.50532007217407,6
21105,21045.0,SKIKDA-BEN-M'HIDI,36.8870620727539,6.9834098815918,21
15313,15073.0,TAJKA ATH YAHIA,36.3647384643555,4.19555997848511,15
18106,18011.0,RUE DES FRERES BOUKETTA,36.8100738525391,5.76310586929321,18
40210,40024.0, AIN EL AIZAR ,35.1348991394043,6.83039999008179,40
40303,40041.0, REMILA ,34.9480018615723,6.89130020141602,40
19311,19110.0,MAAFEUR,35.8578491210938,5.36639642715454,19
19320,19121.0,OULED SI AHMED,35.9819602966309,5.08898115158081,19
2405,2072.0,CHAABNIA,36.2433013916016,0.950699985027313,2
2314,2066.0,SIDI ABDERAHMANE,36.4925994873047,1.09570002555847,2
2308,2044.0,EL-KALAA BOUHALLOU,36.4375991821289,1.29750001430511,2
2312,2067.0,REGGOUN,36.502799987793,1.255499958992,2
34315,34029.0,EL-EUCH,35.9457778930664,4.68513011932373,34
2411,2030.0,OULED ZIAD ,36.1321983337402,1.09140002727509,2
10305,10059.0,EL MADJEN LOTFI 10430,36.4664993286133,3.78489995002747,10
10410,10049.0,AIN TERZINE 10342,36.0968017578125,3.92580008506775,10
21319,21074.0,TAHOUNA,36.8036613464355,6.51473665237427,21
21518,21075.0,TOUMIETTES,36.615837097168,6.80964612960815,21
21310,21083.0,LA LOCALITE DE EL HADJERIA,36.9593238830566,6.60567998886108,21
21513,21044.0,SAID-BOUSBAA,36.6301193237305,6.86373519897461,21
2320,2061.0,OUED GOUSSINE,36.5247993469238,1.49609994888306,2
44308,44042.0,RUE BELMESTFAOUI ,36.1071014404297,2.48347997665405,44
18316,18038.0,CITE DES MOUDJAHDINES,36.8006401062012,5.84236001968384,18
39201,39046.0, CITE AKFADOU ,36.782879,3.061629,39
39213,39053.0, CITE DOKKAR ,35.84122,4.40169,39
39208,39070.0,  OGLA,35.2720347,7.740882,39
7415,7055.0,HAY FARFAR TOLGA,34.728889465332,5.40058612823486,7
31203,31042.0,HAI BENDAOUD -BIR EL DJIR-ORAN,35.718715,-0.537603,31
31320,31048.0,ROUTE NATIONALE -HASSI AMEUR-,35.7041053771973,-0.472876995801926,31
31317,31052.0,KRISTEL ,35.8224296569824,-0.483671993017197,31
7206,7059.0,ROUTE DJEMOURAH GUEDILA,35.0590896606445,5.7840781211853,7
7207,7081.0,RUE DADA AMAR AIN ZAATOUT,35.1577453613281,5.84612274169922,7
35212,35050.0,CENTRE OULED AISSA - OULED AISSA ,36.7900009155273,3.80999994277954,35
19312,19120.0,OULED SABER,36.1614570617676,5.56144142150879,19
19708,19097.0,DJERMANE,36.1528282165527,5.75565719604492,19
19714,19123.0,SMARA,36.1603775024414,5.6315221786499,19
31302,31062.0,DOUAR AYAIDA ,35.7856254577637,-0.33203798532486,31
31210,31071.0,HAI EN NEDJMA ,35.6474380493164,-0.570333003997803,31
31311,31074.0,DOUAR GRANINE ,35.7156028747559,-0.208708003163338,31
21315,21071.0,RAMOUL,36.9696998596191,6.54799604415894,21
21302,21073.0,SEBTI-MAAMECHE,36.9234619140625,6.52590799331665,21
31214,31078.0,DOUAR MAHDIA ,35.5519142150879,-0.500627994537354,31
5505,5130.0,M'TKAOUAK,35.2555618286133,5.07481002807617,5
18414,18035.0,VSA MEHARKA,36.7476692199707,6.14428997039795,18
9502,9036.0,Rue brahim rabah amroussa,36.3209190368652,2.57575988769531,9
9503,9047.0,Rue 14 septembre 1956 centre hallouya,36.3205108642578,2.54400992393494,9
10223,10087.0,SEMMACHE 10161,36.342098236084,4.15339994430542,10
19410,19108.0,KORDJANA,36.3375701904297,4.94821739196777,19
19314,19060.0,RASFA,35.7791976928711,5.24755191802979,19
29104,29052.0,KHESSIBIA CENTRE,35.3838195800781,0.142573997378349,29
19303,19074.0,AIN REMADA,36.0235939025879,5.59444046020508,19
46408,46024.0,SIDI OURIACHE,35.1777076721191,-1.4345109462738,46
46310,46020.0,"CITE 1ER NOVEMBRE,CHENTOUF",35.3036994934082,-1.02930998802185,46
10222,10086.0,SELLOUM 10192,36.4114990234375,4.31010007858276,10
32203,32033.0,RUE HASSANI KADOUR STITTEN,35.185604,1.497707,32
32407,32023.0,RUE KHAOIFA MAMER CHELLALA GUEBLIA,32.870474,0.025914,32
44402,44045.0,RUE CHIEKH BENYAHIA ,36.0674018859863,1.80559003353119,44
19208,19107.0,KHALFOUN,36.1725616455078,5.33943033218384,19
19514,19109.0,LAOUAMEUR,36.3554763793945,5.39590454101562,19
44405,44030.0,TIBERKANINE CENTRE,36.1679992675781,1.83659994602203,44
44401,44032.0,AIN BENYAHIA CENTRE,36.2877998352051,1.77586996555328,44
44317,44054.0,OULED BELGACEM CENTRE,36.1968994140625,2.28083992004395,44
21505,21054.0,BOUHALBES,36.7083854675293,6.76196384429932,21
19515,19115.0,OUED EL BERD,36.4957580566406,5.41663789749146,19
41311,41020.0,CITE 69 LOGTS BT N 01,36.7115898132324,7.31396102905273,41
9507,9029.0,RUE FRERES RAHMANI ,36.3149108886719,2.52546000480652,9
35204,35033.0,VILLAGE AGRICOLE BEN CHOUD,36.8499984741211,3.90000009536743,35
34322,34044.0,CHENIA,35.9595832824707,4.91055107116699,34
34314,34048.0,TOUBOU KSOUR,36.0047988891602,4.64753580093384,34
34218,34062.0,TIZI-KACHOUCHENE,36.257999420166,4.37476587295532,34
15301,15024.0,VILLAGE AGOUNI OUADELLAH,36.3416061401367,4.23241806030273,15
8105,8043.0,OUAKDA BECHAR ,31.6521701812744,-2.18398690223694,8
19607,19124.0,SOUK EL HAD,36.5004768371582,4.99445629119873,19
38301,38018.0,HAI AHMED BOUCHAIB,35.8843231201172,2.02536511421204,38
45302,45013.0,"CENTRE VILLE, DJENIEN BOUREZG",32.3717231750488,0.803703010082245,45
15802,15085.0,HOTEL  DE LA POSTE,36.3091888427734,4.12493801116943,15
10220,10030.0,AHNIF 10130,36.3362007141113,4.26240015029907,10
42215,42042.0,CITE TEMLOUL MENCEUR,36.3008995056152,2.09050011634827,42
4410,4041.0,SILA,36.0999984741211,6.59999990463257,4
21210,21068.0,OUED-KSOB,36.8821868896484,7.03159141540527,21
10322,10070.0,LAHGUIA 10281,36.4758987426758,3.68650007247925,10
12405,12049.0,VILLAGE MESLOULA,35.8689117431641,7.83065986633301,12
12302,12037.0,VILLAGE BIR EL OUESRA,34.9570808410645,8.20786285400391,12
12306,12027.0,CENTRE VILLE OUM ALI,35.0142211914062,8.29928970336914,12
12207,12036.0,VILLAGE BIR D'HEB,35.524959564209,7.93935489654541,12
12202,12041.0,VILLAGE EL HOUDJEBET,35.2930145263672,8.27893733978271,12
21507,21056.0,DJEBEL-STAIHA,36.7362289428711,6.78758192062378,21
42305,42037.0,CITE 500 LOGTS HADJOUT,36.363109588623,2.25130009651184,42
46309,46051.0,SIDI-BOUMEDIENE,35.3533172607422,-0.89344584941864,46
36215,36029.0,COMMUNE BOUGOUS,36.6594886779785,8.36947250366211,36
39511,39036.0,CITE 20 AO?T,36.712859,3.396937,39
4401,4014.0,RUE SOUIKI,35.9799995422363,6.59000015258789,4
16801,16086.0,MOHAMED BOUDIAF 1,36.7602005004883,2.96291708946228,16
3303,3011.0,TADJEROUNA,33.3018608093262,2.06137990951538,3
3504,3043.0,OUED-TOUIL,34.1454696655273,1.51403999328613,3
4301,4007.0,CITE  LAZABI,35.7900009155273,7.38000011444092,4
4104,4009.0,CITE AN NASR,35.8899993896484,7.11999988555908,4
48309,48028.0,RUE O/SAYAH,36.1252098083496,0.897029995918274,48
3201,3014.0,EL-ASSAFIA,33.4925384521484,2.5912299156189,3
7418,7082.0,RUE EMIR AEK TOLGA,34.72224,5.37845,7
28108,28082.0,M'SILA-CNEL-AMIROUCHE CITE 5 JUILLI,35.4339485168457,4.30243396759033,28
22112,22018.0,RUE KADI BELHADI,35.531516,6.171457,22
18107,18034.0,CITE 18 FEVRIER,36.7633018493652,5.89966011047363,18
51517,51070.0,RUE SLIMANI MOHAMED OULED DJELLAL,34.4362064,5.0542503,51
31102,31035.0,PORT D'ORAN ,35.708251953125,-0.643968999385834,31
14108,14033.0,CITE DES 282 LOGEMENTS PREFA,36.265653,2.163126,14
39109,39026.0,CITE SIDI MESTOUR,36.783974,2.963904,39
29317,29031.0,HAI SIDI HAMOU TIGHENNIF,35.4178581237793,0.335325002670288,29
43106,43030.0,RUE BENSAADANE MILA VIELLE VILLE ,36.163235,6.166415,43
39402,39024.0, DOUAR  EL MA,33.3738476,7.6857696,39
45208,45016.0,"QUARTIER ESSALEM, MECHERIA",33.5410652160645,0.273575007915497,45
45210,45018.0,"QUARTIER BELKHADEM, MECHERIA",33.5559844970703,0.271389007568359,45
45313,45031.0,VILLAGE TIRKOUNT,32.8246116638184,0.607102990150452,45
5511,5022.0,CITE LIBERTE,35.2353210449219,5.22198677062988,5
46212,46043.0,OULED-BOUDJEMAA,35.4722137451172,-1.19303703308105,46
45310,45025.0,VILLAGE HADJRAT EL M'GUIL,32.2761344909668,0.961607992649078,45
12414,12026.0,CITE  EL  AMEL OUENZA ,35.9337882995605,8.17605495452881,12
10103,10001.0,CITE 98 LOGTS FARACHATI BOUIRA,36.3758316040039,3.88115000724792,10
19720,19004.0,RUE   1/11/54  EL EULMA,36.1519966125488,5.68653774261475,19
21330,21013.0,COLLO-AIN-ZIDA,37.007007598877,6.55926704406738,21
12415,12025.0,CITE  CENTRALE OUENZA,35.9531021118164,8.12241172790527,12
7112,7019.0,HAI SIDI GHEZEL BISKRA,34.8259811401367,5.69747877120972,7
7111,7018.0,HAI LEBCHECHE BISKRA ,34.754626,5.108495,7
21101,21026.0,SKIKDA-DIDOUCHE-MOURAD,36.8823127746582,6.90634202957153,21
17102,17029.0,CITE ZAHAF  DJELFA,34.67833,3.263115,17
48104,48027.0,CITE BERREZGA AEK,35.7441024780273,0.548781991004944,48
19115,19014.0, RUE BELLA MOUSSA,36.190559387207,5.42490482330322,19
45317,45010.0,"QUARTIER SAADA, AIN SEFRA",32.7570991516113,0.58474999666214,45
45316,45009.0,"QUARTIER MOUILEH, AIN SEFRA",32.7591247558594,0.597618997097015,45
45207,45015.0,"QUARTIER SUD, MECHERIA",33.5390357971191,0.287497013807297,45
29501,29028.0,CITE DES FRERES BENANI MOHAMMADIA,35.5817031860352,0.0704429969191551,29
8106,8001.0,PLACE REPUBLIQUE,31.6187381744385,-2.21359491348267,8
5611,5050.0,CITE HAMADA,35.221118927002,5.53439712524414,5
43426,43027.0,CITE BOUROUH,36.232421875,5.56562995910645,43
45102,45027.0,VILLAGE HORCHAIA,33.3383178710938,0.301005989313126,45
19518,19058.0,O.ADDOUAN,36.3441047668457,5.46729612350464,19
11102,11009.0,CITE ASSOUROU,22.7833003997803,5.53329992294312,11
10227,10041.0,RAFFOUR 10102,36.353099822998,4.28459978103638,10
39222,39029.0, HASSANI  ABDELKRIM,33.4771663,6.8948804,39
53303,53004.0,IN GHAR,27.1018319,1.9065264,53
45318,45023.0,VILLAGE BELHANDJIR,32.7029151916504,0.716868996620178,45
5113,5017.0,CITE EMIR ABDELKADER,35.3325347900391,6.10534620285034,5
43107,43029.0,CITE 300 LOGTS ,36.4381484985352,6.25664806365967,43
44413,44056.0,RUE HALIMOUCHE BEN SMAIL,36.2644996643066,1.87419998645782,44
16824,16101.0,CITE  1208 LOGTS ,36.7947158813477,2.90716505050659,16
45311,45029.0,VILLAGE OULAKAK,32.7361488342285,1.11913299560547,45
44324,44046.0,RUE DJEBOURI BENYOUCEF,36.4076995849609,2.43670988082886,44
16112,16067.0,114 RUE KRIM BELKACEM,36.7665710449219,3.04732990264893,16
16413,16073.0,RUE 11 DECEMBRE 1960,36.7654418945312,3.01456904411316,16
16202,16079.0,UNIVERSITE HOUERI BOUMEDIENNE,36.453051,2.636806,16
3510,3021.0,AFLOU-HAI-MED-BOUDIAF,34.0704917907715,2.06362009048462,3
41106,41008.0,CITE BERRAL SALA 380 LOGEMENT ,36.1762084960938,7.59232616424561,41
41105,41007.0,RUE ATARSSIA LARBI,36.1720390319824,7.57367897033691,41
5114,5018.0,AEROPORT BATNA,35.4527168273926,6.18295001983643,5
42313,42050.0,CITE BRAHIM BEN OMAR AHMEUR EL AIN,36.290699005127,2.36459994316101,42
45200,45002.0,"CENTRE VILLE, MECHERIA",33.5476722717285,0.278730988502502,45
31409,31019.0,RUE HAMOU BOUTLELIS -MERS EL KEBIR-,35.7175483703613,-0.70811402797699,31
29611,29017.0,RUE DE L'INDEPENDANCE  OUED TARIA,35.1165962219238,0.0872529968619347,29
29300,29004.0,RUE EMIR ABDALKADER TIGHENNIF,35.4148406982422,0.328642010688782,29
29500,29002.0,PLACE DU MARCHE COUVERT MOHAMMADIA,35.5893020629883,0.0657330006361008,29
48305,48003.0,CITE MOUDJEHED LAKHEDARI LAKHDER,36.1415176391602,0.846255004405975,48
20100,20000.0,BOULEVARD DE LA  REVOLUTION SAIDA 20000,34.8325576782227,0.150061994791031,20
48406,48005.0,BD ALLAM  A/RAHMANE,35.9294395446777,0.826668977737427,48
31310,31017.0,RUE HAMOU BOUTLELIS -GDYEL-,35.7844085693359,-0.425217002630234,31
31109,31007.0,AV HAMMOU MOKHTAR -ORAN-,35.6974449157715,-0.615764975547791,31
31306,31024.0,RUE PRINCIPALE -BOUFATIS-,35.6806373596191,-0.410959005355835,31
13300,13006.0,RUE EMIR ABDELKADER 1ER NOVEMBRE 1954,35.2904288,-1.1388535,13
29310,29016.0,RUE KHELLIL KHELLIL OUED EL ABTAL ,35.4557418823242,0.685728013515472,29
22502,22009.0,RUE DE SIDI CHAIB,36.625299,2.984644,22
15707,15031.0,BOUDJIMA CENTRE,36.4442901611328,4.09342288970947,15
27203,27014.0,11 RUE YAGOUB DJELTI,36.712102,3.08792,27
10206,10019.0,CHORFA CENTRE,36.359001159668,4.32310009002686,10
15412,15034.0,DJEMAA SAHARIDJ ,36.4055137634277,4.17026805877686,15
22503,22047.0,RUE HADJRI DJILLALI,35.411002,0.158546,22
27303,27013.0,RUE BENCHAA CHAREF ,35.934655,0.081794,27
17403,17006.0,CENTRE  VILLE DAR CHIOUKH,34.89638,3.48543,17
23104,23008.0,CITE O/KOUBA  ANNABA ,36.9245071411133,7.75989294052124,23
52400,52002.0,BENI ABBES ,30.1317426,-2.169031,52
15414,15035.0,IFIGHA,36.4035110473633,4.24346208572388,15
34310,34017.0,RUE ACHOUR AMAR CENTRE VILLE EL HAMMADIA,35.9762535095215,4.74872303009033,34
21312,21019.0,KERKERA,36.9303588867188,6.58319234848022,21
19713,19059.0,OUM-LADJOUL,35.9327011108398,5.89605712890625,19
31224,31029.0,HAI KHALED IBN WALID ,35.6922760009766,-0.488691985607147,31
41107,41003.0,RUE IBN KHALDOUN,36.1769981384277,7.57271480560303,41
44412,44055.0,CITE 54 LOGEMENTS,36.244800567627,1.80803000926971,44
3403,3008.0,BELLIL,33.1601295471191,3.11395001411438,3
44417,44058.0,FRACTION SOUK-LETHNINE ,36.3600006103516,1.64113998413086,44
47307,47013.0,QUARTIER EL HADIKA METLILI,32.2930221557617,3.60023307800293,47
52410,52031.0,TIMOUDI,29.321336,-1.1288101,52
52407,52025.0,BENI  IKHLEF ,29.74851465,-1.4355156583063358,52
52412,52046.0,TAMTERT ,30.1247014,-1.9016592740190608,52
5310,5024.0,CITE MEZOUDJI-AMOR,35.1516227722168,6.21085500717163,5
52409,52044.0,OUGARTA ,29.6619609,-2.2750031,52
52411,52048.0,ZEGHAMRA,29.988112,-2.490178,52
44103,44033.0,HAY MAZOUNI,36.2421989440918,1.92602002620697,44
10515,10009.0,CITE ACHIR SAID 10403 AIN BESSEM,36.2905006408691,3.67449998855591,10
44321,44012.0,HAY DARDARA,36.2542991638184,2.23099994659424,44
5512,5028.0,CITE 1000 LOGTS,35.2331047058105,5.21103477478027,5
26508,26073.0,SIDI ZIANE CENTRE,36.035099029541,3.20098996162415,26
26709,26063.0,MAGHRAOUA CENTRE,36.0924110412598,3.08254504203796,26
2115,2057.0,HAY CHEGGA,36.1920013427734,1.34669995307922,2
2117,2016.0,ZONE 2,36.1549987792969,1.35239994525909,2
49510,49035.0,KSAR KADDOUR,29.578491,0.3739728,49
9110,9026.0,CITE DES FRERES MUSTAPHA,36.291820526123,2.51065993309021,9
36302,36007.0,COMMUNE CHOTT,36.8307723999023,7.86378049850464,36
28211,28068.0,ZITOUN,35.4652099609375,4.41356611251831,28
28403,28042.0,BERARDA,35.3830032348633,3.41430711746216,28
28512,28045.0,BORDJ BELKHRIF,34.7341544,4.2876322,28
28212,28049.0,DJAOUNA,35.4619026184082,4.45116996765137,28
28701,28067.0,ZERZOUR,35.5519981384277,4.50718021392822,28
28601,28039.0,AHL EL OUED,35.5816841125488,4.95127010345459,28
7602,7075.0,RUE REGAZ SADOK SEHIRA,34.6501083374023,5.41854667663574,7
3102,3048.0,CASERNE D-C-A,33.4815483093262,2.52385997772217,3
28305,28028.0,BENZOUH,35.45671815,4.102740246151281,28
45308,45026.0,VILLAGE HASSI LABIADH,32.966983795166,0.136875003576279,45
5116,5109.0,BATNA-ZONE-INDUSTRIELLE,35.5545425415039,6.15447473526001,5
30121,30022.0,RUE 19 MARS 1962 ,34.8521235,5.7544152,30
47305,47027.0,QUARTIER SOUAREG METLILI,32.2621269226074,3.64620900154114,47
47214,47022.0,QUARTIER KEF HAMMOUDA BERRIANE,32.825855255127,3.75778198242188,47
17518,17063.0,CENTRE VILLE SELMANA,34.17191,3.59976,17
17307,17051.0,CENTRE  VILLE EL KHEMIS,36.35106,1.68233,17
17309,17054.0,1 ER Novembre  GUERNINI ,35.452653,2.903741,17
34501,34060.0,TASSAMEURT,36.256950378418,4.82179117202759,34
8118,8014.0,HAI EL FETH BECHAR ,31.6326293945312,-2.197429895401,8
8117,8006.0,HAI EL BADR  BECHAR ,31.5944747924805,-2.23222899436951,8
8119,8013.0,HAI EL DJORF BECHAR ,31.5735492706299,-2.23025608062744,8
18317,18047.0,OUDJANA,36.599609375,5.89737987518311,18
18108,18048.0,OULED BOUNAR,36.821159362793,5.72144985198975,18
18219,18043.0,BOUHENCHE BENI AHMED,36.7631988525391,5.77444982528687,18
28308,28050.0,DJEBEL MEHARGA,35.2021293640137,4.34143018722534,28
28314,28057.0,MED-SEDDIK BENYAHIA,35.2167587280273,4.11314821243286,28
28609,28044.0,BIR MADHI,35.5435180664062,4.15231990814209,28
28213,28055.0,EL GHIL,35.4640998840332,4.45139980316162,28
28312,28054.0,EL ALLIG,35.6495018005371,4.16869020462036,28
28316,28061.0,OULTEM,35.728199005127,4.22329187393188,28
28315,28052.0,DJEBEL ZYREG,35.192928314209,4.39500713348389,28
28607,28060.0,OULED MANSOUR,35.73144255,4.386750389935016,28
28207,28058.0,METARFA,35.4152984619141,4.3762001991272,28
28103,28046.0,BOUKHEMISSA,35.4757843017578,4.32591199874878,28
25310,25052.0,SIDI LARBI,35.3129966,-1.140345,25
25217,25037.0,BENI YAGOUB,34.47687425,2.818188963929131,25
25314,25044.0,KAIDI ABDELLAH,36.738055,3.204538,25
25209,25053.0,ZEHANA,35.0256882,-0.8889946,25
47102,47029.0,QUARTIER MERMED GHARDAIA,32.495777130127,3.67271494865417,47
47107,47028.0,RUE 1ER NOVEMBRE TENIET EL MAKHZEN GHARDAIA ,32.479549407959,3.68273997306824,47
47101,47030.0,QUARTIER SOUK EL HATTEB GHARDAIA,32.489818572998,3.6687159538269,47
47104,47024.0,CENTRE VILLE MELIKA,32.4819221496582,3.68698692321777,47
36315,36035.0,W FEDDAOUI MOUSSA,36.7051239013672,7.75227499008179,36
36217,36039.0,MERADIA,36.606258392334,8.2604808807373,36
36213,36047.0,VSA SEBAA,36.8445510864258,8.07605266571045,36
36403,36033.0,EL-FHIS,36.6008224487305,8.14688587188721,36
36405,36026.0,BERDJILETTE,36.5371398925781,8.1700611114502,36
36317,36049.0,VSA ZOHRAMI,36.8297958374023,7.92461109161377,36
36404,36036.0,"CNE H,B,SALAH",36.5197372436523,8.03431129455566,36
36406,36041.0,MOHAMED-TAYEB,36.5520668029785,8.08944129943848,36
36402,36044.0, CNE OUED-ZITOUNE,36.465217590332,8.05768585205078,36
36216,36042.0,OUED-DJENANE,36.8363342285156,8.64096069335938,36
36103,36038.0,VSA MATROHA,36.7184371948242,8.28448867797852,36
39223,39077.0, CITE CHEIKH EL-ADOUNI,33.342315,6.872116,39
55404,55055.0,CITE RACHEDI,36.9062764,7.747014,55
44501,44049.0,RUE ALIDJE MOHAMED,36.0674018859863,2.29752993583679,44
44411,44038.0,BELAAS CENTRE,36.2327003479004,1.65362000465393,44
44316,44053.0,RUE ACHOUR AHMED,36.3120002746582,2.34120988845825,44
44404,44051.0,MOULAY AEK  CENTRE,36.1562995910645,1.82089996337891,44
44301,44034.0,AIN-DEM CENTRE,36.3059005737305,2.509929895401,44
25303,25036.0,BENI MESTINA,36.4904349,6.6205735,25
23318,23035.0,CITE ESSAROUEL,36.8361396789551,7.6958441734314,23
23317,23040.0,CITE  LABIDI MOHAMED ,36.6906318664551,7.59852123260498,23
23230,23025.0,CITE  AZIZI AHMED  ,36.7568855285645,7.58000898361206,23
23209,23024.0,CITE BOUGUESSAS ,36.8301200866699,7.39905595779419,23
23211,23029.0,CITE DRAA EICH  O/EL ANEB ,36.8626594543457,7.51773309707642,23
23203,23044.0,CITE OUED ZIED,36.8289108276367,7.59927797317505,23
23308,23042.0,CITE MERZOUG AMAR,36.7870788574219,7.59255123138428,23
23316,23032.0,CITE  EL HORIECHA ,36.7535018920898,7.6398777961731,23
23323,23043.0,CITE 800 LOGTS BT2 BLOC 2,36.826343536377,7.63065195083618,23
23208,23030.0,CITE AZLA CHETAIBI ,36.9967231750488,7.33080101013184,23
23315,23026.0,CITE BERKA ZERGA ,36.7984733581543,7.6092357635498,23
19807,19083.0,BENI DJEMATI,36.4687423706055,4.96106481552124,19
19809,19081.0,BENI AFIF,36.4628982543945,4.9065375328064,19
19323,19087.0,BIR DJEDID (TELLA),35.9232864379883,5.33474588394165,19
19507,19094.0,CHEURFA,36.4058799743652,4.85692501068115,19
19116,19095.0,CHOUF LAKDAD   SETIF,36.2097930908203,5.37643384933472,19
19901,19092.0,BOUTALEB,35.6920776367188,5.24755191802979,19
19203,19093.0,CHAABET CHEURFA,36.1830177307129,5.31143522262573,19
19207,19102.0,FAUCIGNY,36.2551078796387,5.26630020141602,19
19608,19085.0,BENI KHELLAD,36.5331954956055,5.06377267837524,19
19213,19079.0,BATHA,36.3545417785645,5.62082529067993,19
19412,19117.0,OULED AYAD,36.3294639587402,5.01499509811401,19
19610,19077.0,AIT TIZI,36.5531539916992,5.13278293609619,19
19801,19084.0,BENI HAFED,36.3932113647461,4.82052326202393,19
19808,19105.0,GHEBOULA,36.4330787658691,4.92848682403564,19
19317,19071.0,AIN EL HAMRA,35.8124237060547,5.32228088378906,19
19107,19098.0,AIN ARNAT,36.2071113586426,5.32545614242554,19
19710,19101.0,EL MERDJA,36.1969032287598,5.41508722305298,19
19326,19114.0,MERZEGHLEL,35.841667175293,5.53593778610229,19
19902,19127.0,Z'RAIA,35.7971382141113,5.67975997924805,19
19319,19119.0,OULED M'HALA,35.9124717712402,5.16500282287598,19
19611,19076.0,A NAOUAL M'ZADA,36.5441551208496,5.07645606994629,19
19305,19089.0,BOUDJELIKH,35.6515769958496,5.25473260879517,19
19508,19118.0,OULED MAIZA,36.3820915222168,5.64826822280884,19
18421,18046.0,OULED RABAH,36.6002311706543,6.16665983200073,18
2419,2059.0,OULED FETTI,36.1110000610352,1.06289994716644,2
2323,2064.0,CHAARIR,36.3148002624512,1.09660005569458,2
2217,2080.0,ZEBABDJA,36.1761016845703,1.49179995059967,2
2421,2056.0,HAY SONELGAZ,36.067699432373,1.12609994411469,2
2422,2058.0,HAY BOULEFRED,36.095100402832,1.22549998760223,2
2501,2052.0,ZELGOU,36.3382987976074,1.32070004940033,2
2219,2078.0,MEZAOUET,36.1427001953125,1.51090002059937,2
2218,2079.0,BOUHENYENNE,36.2672996520996,1.53970003128052,2
2206,2051.0,HAOUCH EL-GHABA,36.257999420166,1.35319995880127,2
2311,2068.0,MAIN SINFITA,36.3917999267578,1.55599999427795,2
2223,2075.0,GUELAFTIA,36.1839981079102,1.40699994564056,2
2502,2047.0,KECHACHDA,36.3545989990234,1.26859998703003,2
2321,2081.0,KAHLOUL,36.4203987121582,1.2360999584198,2
2220,2077.0,OULED BOUALI,36.2092018127441,1.4536999464035,2
2403,2069.0,BENI OUAZENE,35.9870986938477,1.31429994106293,2
2420,2050.0,EL-HADJADJ,36.1110000610352,1.35539996623993,2
2215,2055.0,CAPER,36.1617012023926,1.17789995670319,2
9517,9045.0,CENTRE BAHLI,36.3205604553223,2.5511999130249,9
9409,9028.0,CENTRE DJEBABRA,36.345401763916,3.15567994117737,9
9301,9035.0,CENTRE AHL OUED,36.2917594909668,2.43563008308411,9
9311,9051.0,HAI SIDI MADANI,36.2616310119629,2.44569993019104,9
9305,9042.0,"Route Principale, Cité Bensalah",36.3402481079102,2.48501992225647,9
17519,17065.0,CENTRE VILLE ZACCAR,36.33511,2.30182,17
17411,17064.0,SIDI BAIZID,35.01880695,3.43216882430717,17
17205,17060.0,OUM CHEGAG,34.7067991,2.402462517973857,17
17514,17059.0,N THILA,34.0492799,3.1986022,17
17204,17049.0,EL HAMMAM,35.7229041,5.3693885,17
40408,40037.0, KHIRANE ,34.9767990112305,6.73759984970093,40
40407,40032.0, EL OUALDJA ,34.9155006408691,6.67640018463135,40
48419,48031.0,AHL-ABED,36.035888671875,0.873076021671295,48
48421,48038.0,BENI-CHEIKH,35.8314895629883,0.711660027503967,48
48221,48060.0,DOUAR OULED GANA,35.7730712890625,0.637679994106293,48
48310,48048.0,CENTRE EL OULDJA,35.9082374572754,1.12026000022888,48
48213,48037.0,CITE AHCEN MUSTAPHA,35.7214508056641,0.513218998908997,48
48216,48063.0,RUE L'INDEPENDENCE,35.6340866088867,0.355509012937546,48
48217,48033.0,AIN-RAHMA,35.6247367858887,0.393041014671326,48
48501,48046.0,CTA FTATCHA,35.7325172424316,1.01716494560242,48
48218,48058.0,DOUAR JOUAMSSIA,35.6857109069824,0.480742007493973,48
48413,48051.0,RUE  MEGUICHE YAMINA,36.0200805664062,0.689342021942139,48
48219,48067.0,RUE AMIR AEK,35.6763534545898,0.342197000980377,48
48415,48061.0,OULED-SIDI-MIHOUB,35.9729309082031,0.692969977855682,48
48602,48044.0,DAR-BEN-ABDELLAH,35.6981544494629,0.688889980316162,48
48202,48039.0,BENI-DERGOUN CENTRE,35.7929496765137,0.799160003662109,48
48411,48042.0,BENZIANE ,35.9689674377441,0.945841014385223,48
48503,48050.0,HAD-CHEKALLA,35.6767921447754,1.14642202854156,48
48308,48070.0,DOUAR TAMDA,36.1089782714844,0.884119987487793,48
48417,48055.0,CENTRE,35.8171768188477,1.13826704025269,48
48424,48043.0,BOUGHIDEN,35.7044944763184,1.13760900497437,48
48423,48064.0,CITE KHEDAM,36.0127830505371,0.937803983688354,48
48407,48054.0,KHARMACHA,35.9556503295898,0.908270001411438,48
48601,48065.0,CITE SIDI LAZREG,35.6462936401367,0.776668012142181,48
48502,48068.0,CITE MUSTAPHA DJILALI,35.9552574157715,1.24753499031067,48
48603,48035.0, KARIAT EL AMMAMRA,35.7802467346191,0.84578001499176,48
19504,19088.0,BOUAMRANE,36.3987121582031,5.43912744522095,19
23320,23034.0,CITE  EL MOUKAOUAMA ,36.7858505249023,7.72783803939819,23
35506,35048.0,CITE KALACHE BRAHIM EL KHAROUBA,36.7000007629395,3.4300000667572,35
35517,35037.0,RUE TAABEST BRAHIM BOUDOUAOU EL BAHRI ,36.7599983215332,3.39000010490417,35
35516,35038.0,SIEGE APC BOUZEGZA-KEDDARA,36.6290016174316,3.42799997329712,35
48416,48056.0,CITE 5 JUILLET,35.997371673584,0.990989983081818,48
18412,18045.0,GHEBALA,36.6286087036133,6.3894100189209,18
16816,16124.0,RUE ALI BEN MAHBOUB,36.6696662902832,2.98381996154785,16
35319,35061.0,RUE CHAHID FEKHARDJI LAID ZEMMOURI EL BAHRI,36.7999992370605,3.55999994277954,35
12409,12054.0,VILLAGE TORRICHA,35.6298332214355,8.05099773406982,12
12211,12038.0,VILLAGE BOUCHEBKA,35.1749076843262,8.41580200195312,12
12601,12042.0,VILLAGE EL MAZRAA,35.261402130127,7.57650709152222,12
12206,12048.0,VILLAGE KISSA,35.4745941162109,8.11163997650146,12
12301,12034.0,VILLAGE AIN ZEGUIEG,35.2552795410156,7.99889278411865,12
12504,12047.0,VILLAGE GUENTIS,34.9966659545898,8.05497741699219,12
12505,12052.0,VILLAGE TAZBENT,35.3608665466309,7.88895511627197,12
12411,12050.0,VILLAGE OULED NACEUR,35.8029365539551,8.0784215927124,12
12503,12046.0,VILLAGE GOURIGUEUR,35.4231758117676,7.59378290176392,12
12208,12039.0,VILLAGE BOULHEF DYR,35.4880981445312,8.07836723327637,12
12307,12043.0,VILLAGE EL OGLA EL MALAH,34.9916954040527,7.9410400390625,12
14223,14062.0,CITE CENTRALE,35.7082054,-0.6076129,14
14204,14043.0,RUE DES MARTYRS,35.456298828125,1.60071194171906,14
14311,14052.0,HAI EL JAMIL,34.8396987915039,1.54980003833771,14
14219,14068.0,RUE PRINCIPALE  A COTE A.P.C,36.429164,4.830321,14
14306,14046.0,RUE HOUARI BOUMEDIENE,35.87941635,0.0877451163043479,14
14508,14065.0,RUE SBAA MEZIANE,36.375777,3.902448,14
38309,38026.0,HAI BENSFAYA SAID,35.8251647949219,1.94991099834442,38
38204,38025.0,HAI CHAHID BAKI RABAH,35.744499206543,1.70642399787903,38
21416,21064.0,LA-ZAOUIA,36.8741111755371,7.34628820419312,21
21601,21050.0,AIN-TABIA,36.7972030639648,6.62725448608398,21
21314,21055.0,DEMNIA,36.901668548584,6.65138912200928,21
7324,7058.0, RUE ECOLE SLATNIA ADBELKARIM GHARTHA,34.7764091491699,5.92836666107178,7
7601,7080.0,RUE REZIGAT AMOR  OURLAL,34.6538734436035,5.49637794494629,7
7416,7051.0,HAY EL-AMRI,34.7053146362305,5.28439617156982,7
7413,7037.0,RUE MESTAOUI AIN-EL-KERMA,34.766040802002,5.54433012008667,7
7803,7043.0,RUE LAKHDAR BOUHITEM BEGHILA,34.7386779785156,6.42549085617065,7
7319,7060.0,HAI EL BLIDA M'CHOUNECHE,34.9518699645996,6.00893068313599,7
7417,7046.0,CITE AMIROUCHE  BOUCHAGROUNE,34.7206573486328,5.46779632568359,7
21408,21060.0,GUERBES,36.8796348571777,7.19047594070435,21
41302,41026.0,RUE HAMDANI AMAR,36.1045455932617,7.22037982940674,41
41305,41031.0,CITE SERGENT BOKEHILI,36.2157592773438,7.50502586364746,41
14510,14069.0,ROUTE DE SAIDA,35.0285835266113,0.0577939003705978,14
41213,41027.0,CITE GRAOUA SALAH,36.2452812194824,8.12217807769775,41
41214,41029.0,CITE BOUKEBCH,36.1622924804688,8.27620029449463,41
41404,41039.0,RUE HOUARI BOMEDIENE,36.356559753418,7.27115392684937,41
41407,41032.0,CITE 11 DECEMBRE ,36.1342010498047,8.35157012939453,41
20201,20020.0,DOUAR AIN TEGHAT 20020,34.8750114440918,0.15127369761467,20
40421,40035.0, FRIDJOU ,35.0578994750977,7.02430009841919,40
39401,39048.0,BEN GUECHA,34.111947400000005,7.287181346534425,39
11105,11022.0,OUTOUL,22.8333301544189,5.33333301544189,11
53306,53017.0,F LARAB,36.775071,3.05875,53
53302,53021.0,IGOSTEN,28.7927391,0.0329714,53
11101,11014.0,AMSEL,22.6166706085205,5.44999980926514,11
45309,45022.0,VILLAGE AIN OUARKA,32.7338333129883,0.15633599460125,45
45101,45032.0,VILLAGE TOUADJEUR,33.4147453308105,0.193032994866371,45
57305,57057.0, CITE EL-BAADJ  ,34.20931,5.74525,57
57701,57049.0,CITE CHEMORA ,35.66528,6.64806,57
39218,39066.0,CITE MERZAKA ,36.778367,3.058125,39
39215,39054.0, CITE DRIMINI ,33.571,6.93333,39
39214,39075.0,SOUIHLA ,33.521091,6.898874,39
39221,39050.0,CITE CHERGUIA ,36.19207,2.7852,39
10513,10060.0,EL MOKRANI 10402,36.4357986450195,3.60080003738403,10
10514,10067.0,HAMZA BOUGHERZOUNE VILLAGE AGRICOLE 10472,36.2050018310547,3.80920004844666,10
10512,10074.0,MIHOUBI 10442,36.2681999206543,3.62299990653992,10
10106,10091.0,THAMER VILLAGE AGRICOLE 10003  ,36.3334007263184,3.86089992523193,10
10219,10052.0,BENI HAMAD 10141,36.4101982116699,4.21199989318848,10
10226,10095.0,TOGHZA 10195 ,36.3650016784668,4.32600021362305,10
10320,10064.0,GUERGOUR 10202,36.594799041748,3.57279992103577,10
10412,10083.0,RIDANE 10300,36.0738983154297,3.46239995956421,10
10601,10092.0,TIKBOUCHT 10169,36.3788986206055,3.97370004653931,10
10317,10054.0,BOUKRAM GADIR 10213,36.4693984985352,3.29879999160767,10
10225,10093.0,TIKSIRIDENE 10194,36.4011001586914,4.30779981613159,10
10101,10084.0,SAID-ABID 10002,36.3504981994629,3.833899974823,10
10318,10078.0,OULED-GACEM 10242,36.4863014221191,3.54850006103516,10
10411,10058.0,EL HAKIMIA 10320,36.0917015075684,3.77589988708496,10
43504,43045.0,DAR-EL-HAMRA,36.3340721130371,6.95270013809204,43
43204,43052.0,rue allaoua haddad,36.5716819763184,6.33923482894897,43
43207,43038.0,ANOUCHE-ALI ,36.5716781616211,6.33923482894897,43
43209,43051.0,FERDOUA ,36.5031394958496,6.29152822494507,43
43320,43044.0,CHERRA,36.061602,6.2753003,43
43407,43053.0,KEF-BOUDERGA,36.3441535,6.0814353,43
43421,43037.0,AIN-EL-HAMRA,36.1646118164062,5.59180116653442,43
3606,3034.0,SEBGAG,34.01416015625,1.55540001392365,3
3609,3037.0,ANFOUS,33.5824584960938,2.07119989395142,3
3305,3042.0,LALMAYA,33.2526512145996,1.59538996219635,3
3107,3032.0,BORDJ-SENOUCI,33.4931411743164,2.53512001037598,3
3507,3041.0,OUED-M'ZI,33.9097694,2.4500506,3
3103,3036.0,UNIVERSITE LAGHOUAT,33.4801788330078,2.51003003120422,3
21602,21059.0,EL-OULDJA-BOULBALOUT,37.0229721069336,6.34080648422241,21
34105,34041.0,BIR-SNAB,36.0950126647949,4.79483795166016,34
34216,34045.0,EL-HAMRA,36.0364685058594,4.40608310699463,34
34318,34055.0,R'MAIL,35.9832153320312,5.08597278594971,34
34326,34050.0,OUED-LAKHDAR,35.9874801635742,4.78491592407227,34
34219,34042.0,BOUKABA,36.1361312866211,4.41333913803101,34
34503,34051.0,OULED-MAHDI,36.1985511779785,4.73433923721313,34
34305,34040.0,BIR-HAMOUDI,35.882755279541,5.02274894714355,34
34217,34043.0,BOULHAF,36.1816368103027,4.90417814254761,34
34226,34053.0,OULED-ZAID,36.2877082824707,4.69048500061035,34
34324,34054.0,RAS-EL-AIN,36.2315292358398,5.05703687667847,34
34329,34056.0,SEDRATA,36.0841102600098,5.02226686477661,34
34504,34063.0,ZENOUNA,36.0903816223145,4.58693218231201,34
16828,16114.0, VILLAGE AGRICOLE LA BRIDJA,36.7434158325195,2.87453389167786,16
16804,16125.0,LOTISSEMENT SIDI HASSEN,36.7715301513672,2.93675708770752,16
16909,16123.0,MOHAMED DJAAFRI REGHAIA,36.7706,2.961844,16
12416,12030.0,VILLAGE CHANIA GARE,35.8953819274902,8.03377246856689,12
12410,12040.0,VILLAGE DYR,35.5831565856934,8.17613697052002,12
12309,12045.0,VILLAGE FOUM EL MATLEG,35.1230812072754,7.9513578414917,12
9514,9038.0,CENTRE BEN HAMDANI,36.3455581665039,2.51366996765137,9
9516,9053.0,CENTRE TABAINETTE,36.3139801025391,3.0235800743103,9
12212,12051.0,VILLAGE RAS EL AYOUN,35.5175933837891,8.29384803771973,12
21412,21067.0,OUED-EL-KEBIR,36.7546157836914,7.28598308563232,21
21318,21061.0,HADJAR-MEFROUCH,36.8458251953125,6.44387054443359,21
15706,15102.0,AZROUBAR AIT SAID ,36.4447746276855,4.22245979309082,15
24312,24037.0,RUE HESSAINIA ALI ,36.3068199157715,7.50767993927002,24
24309,24045.0,CITE BOUCHLAGHEM MAHDI,36.4200897216797,7.62124013900757,24
24215,24042.0,CITE 10 LOGTS ,36.5695915222168,7.37994003295898,24
24212,24041.0,RUE REDHADAA SALAH,36.4807586669922,7.60270977020264,24
24205,24036.0,CITE CHOURFA AHMED,36.3904113769531,7.51930999755859,24
24204,24035.0,CITE BEN TABOUCHE,36.4627113342285,7.33856010437012,24
24105,24048.0,CITE YAHIA MAGHMOULI,36.4464302062988,7.44361019134521,24
24214,24034.0,CITE MENGUELLATNI MESSAOUD,36.432689666748,7.36987018585205,24
24317,24047.0,RUE OUDAINIA MOKHTAR,36.5559883117676,7.71249008178711,24
24320,24044.0,RUE GUETMI MABROUK,36.5839881896973,7.77747011184692,24
24216,24040.0,CITE SLAH ELSOUFI,36.4038200378418,7.50680017471313,24
24301,24031.0,RUE HEMAIZIA SADAK,36.3522682189941,7.73368978500366,24
24303,24032.0,CITE ENNACER AIN SOUDA,36.2710189819336,7.5219202041626,24
24412,24033.0,AIN TRAB,36.2271881103516,7.13663005828857,24
24410,24050.0,RUE MOHAMED ZEROUK,36.463981628418,7.11152982711792,24
24217,24039.0,RUE HADADI BACHIR,36.4620704650879,7.56907987594604,24
2418,2054.0,ZEMOURA,35.9567985534668,1.24860000610352,2
2213,2071.0,BENI BOUATEB,35.9976997375488,1.65330004692078,2
26509,26070.0,SIDI ERRABIE CENTRE,35.4758491516113,3.09332609176636,26
22201,22037.0,AIN THRID,35.292834,-0.6747741390969619,22
22512,22061.0,RUE GHERBI YOUCEF,36.613051,4.684404,22
5716,5090.0,CHAABET-EL-GOSBAT,35.3800811767578,5.31189680099487,5
5416,5114.0,CHARF-EL-AIN,35.4015617370605,5.51098394393921,5
5418,5116.0,EL-HASSI,35.480899810791,5.56228399276733,5
5906,5102.0,EL-KOUACHIA,35.4152297973633,6.36222505569458,5
5715,5089.0,KENDA,35.3947105407715,5.34172677993774,5
5713,5088.0,KOUDIAT-MESSARA,35.3924942016602,5.4742751121521,5
5419,5117.0,LAZROU,35.5032997131348,6.1257791519165,5
5610,5127.0,LEGRIDET,35.2125015258789,5.42437505722046,5
5603,5123.0,MAAFA,35.1722717285156,5.51329898834229,5
5608,5126.0,MOULIA,35.1631469726562,5.4746561050415,5
5417,5115.0,NAFLA,35.3136177062988,5.56152486801147,5
5508,5121.0,OULED-AMMAR,35.2748908996582,5.09151077270508,5
5717,5091.0,RAHBAT,35.4244575500488,5.39187717437744,5
5910,5105.0,COMMUNE DJERMA,35.3941917419434,6.1833610534668,5
5607,5125.0,TAZEGHT,35.1932563781738,5.32329988479614,5
5604,5124.0,RAS-EL-MA,35.2437629699707,5.57010889053345,5
15605,15118.0,IGHIL BOUZROU,36.3933982849121,4.10566997528076,15
5909,5104.0,COMMUNE BOUMIA,35.4040603637695,6.28550910949707,5
5911,5106.0,FESDIS-FERME,35.6199989318848,6.28999996185303,5
42524,42010.0,CITE ELKATIBA EL AMARIA - BOUISMAIL,36.3828010559082,2.42120003700256,42
16152,16109.0,CITE 379 LOGTS BT 11 N 01,36.7849769592285,2.96580410003662,16
18110,18033.0,CITE HARRATEN,36.8000907897949,5.80201005935669,18
52408,52039.0,KSABI ,29.1270304,-0.9856597,52
52406,52040.0,MAZZER,30.328974,-2.285999,52
52402,52036.0,GUERZIM,29.648435,-1.674365,52
32304,32021.0,BORDJ EL MAY,34.4073071,0.4261032,32
32308,32028.0,MOSBAH,34.4129599,0.0900083,32
32307,32030.0,SIDI KHELIFA,36.3635685,6.261707003949447,32
32405,32026.0,RUE BOUGARA BOUGARA EL M'HARRA,35.555973,6.172592,32
12209,12055.0,VILLAGE TOUALBIA,35.5111312866211,8.21208763122559,12
55401,55043.0,RUE KADRI AHMED,36.754329,2.887371,55
4421,4038.0,OULED-HAMLA,36.0999984741211,6.86999988555908,4
4303,4024.0,AIN-FERHAT,35.7599983215332,7.48000001907349,4
4317,4046.0,BIR-OUNES,35.810001373291,7.30999994277954,4
4414,4039.0,HARMELIA,35.8300018310547,6.46000003814697,4
4313,4047.0,HENCHIR-DOUAMES,35.5499992370605,7.34999990463257,4
4405,4042.0,RUE RADJAI AMMAR,35.689998626709,6.80999994277954,4
4101,4030.0,BIR-KHECHBA,35.8800010681152,7.15000009536743,4
4306,4026.0,BEHAIR-CHERGUI,35.7599983215332,7.67999982833862,4
4312,4040.0,EL-DJAZIA,35.6599998474121,7.5,4
4501,4045.0,RUE HOUARI-BOUMEDIENNE,35.75,7.65000009536743,4
4502,4044.0,RAHIA,35.6500015258789,7.80000019073486,4
4402,4043.0,CITE GOUADJLIA,36.0999984741211,6.8899998664856,4
23213,23033.0,CITE EL KALITOUSSA BERRAHAL ,36.8260040283203,7.43308782577515,23
23314,23028.0,CITE DERRADJI REDJEM ,36.7865943908691,7.65352296829224,23
21327,21063.0,KHENEG-MAYOUN,37.0103492736816,6.28395986557007,21
13413,13069.0,ROUTE NATIONAL N07,36.575554,4.303736,13
27311,27044.0,SAF SAF CENTRE,35.2951883,-1.3923044,27
29106,29064.0,RUE BENSAHNOUN MECHERKI SELATNA,35.3847351074219,0.129512995481491,29
29210,29043.0,RUE DU 1ER NOVEMBRE 1954 EL KEURT,35.3802604675293,0.0933509990572929,29
29316,29065.0,SIDI ABDELDJEBAR CENTRE,35.4431838989258,0.524101972579956,29
29315,29063.0,RUE ISMAIL BEN YESAAD SEHAILIA,35.4560317993164,0.394804000854492,29
29405,29060.0,RUE EMIR AEK RAS EL AIN AMIROUCHE,35.5830574035645,-0.206919997930527,29
29403,29053.0,RUE BERRAHOU AEK KHROUF,35.5224266052246,0.138026997447014,29
29410,29039.0,RUE TAHAR BEKHATER ALI CHERIF CHORFA,35.4302101135254,0.245038002729416,29
29504,29045.0,BARRAGE FERGOUG,35.5693435668945,0.065929003059864,29
29513,29046.0,RUE CHAHID BOUTARHA MILOUD,35.5313682556152,0.153054997324944,29
29508,29067.0,PLACE DE LA MOSQUE SIDI BENZERGA,35.691520690918,0.0174400005489588,29
29612,29076.0,RUE MEMDOUD ABDELKADER  ZELLAGA,35.3980751037598,0.680149018764496,29
29505,29054.0,RUE CHAHID HACHEMI TAYAB  MACTAA M'NAOUER,35.6549224853516,0.065929003059864,29
29313,29059.0,OULED KHAMSA CENTRE,35.4152450561523,0.315961003303528,29
29311,29071.0,RUE DE L'INDEPENDANCE SMALA SIDI MAHIEDDINE,35.3259010314941,0.315750002861023,29
29514,29037.0,BENCHENINE CENTRE,35.6059379577637,-5.50000004295725e-05,29
29616,29069.0,07 RUE EMIR ABDELKADER  SIDI BOUSSAID,35.3247108459473,0.214729994535446,29
29409,29072.0,RUE DE LA MOSQUE SOUIHIA,35.3873672485352,0.370274990797043,29
29402,29040.0,RUE CHAHID SABIL ELAH MILOUD,35.5224266052246,0.406029999256134,29
29407,29041.0,PLACE DE LA BATAILLE GHAR BOUDJLIDA 08 NOV 1954,35.4272651672363,0.317351013422012,29
29613,29050.0,CITE EMIR ABDELKADER  GUERDJOUM,35.242862701416,0.157951295375824,29
29318,29051.0,HASSI OUDJERNA CENTRE,35.4474258422852,0.601620018482208,29
29303,29035.0,AIN MANSOUR,35.3932228088379,0.577118992805481,29
29309,29073.0,RUE 05 JUILLET 1962 TEMAZNIA,35.5394897460938,0.371625989675522,29
29306,29044.0,DOUAR OULED BOUALEM EL-MENAOUER,35.5434913635254,0.403286993503571,29
29603,29034.0,RUE DU 1er NOVEMBRE 1954 AIN FRASS,35.0974998474121,0.157710000872612,29
43427,43048.0,DRAA-BENKHALFA,36.2252998352051,6.23693990707397,43
43323,43059.0,SAREG-DERFOUL,36.23914,6.15684,43
21524,21069.0,OUED-KSOB-V.S.A,36.8777275085449,7.01068878173828,21
43422,43063.0,TAMOULA,36.3222961425781,5.57198476791382,43
43502,43049.0,Cité Laghromi Abdelmadjid,36.2651443481445,6.85231018066406,43
43505,43064.0,RUE L'NIDPENDANCE,36.321662902832,6.35443019866943,43
29401,29036.0,RUE MOSTEPHA BENBOULAID ALAIMIA,35.6751708984375,0.219877004623413,29
5820,5107.0,TIGHARGHAR,35.0932922363281,5.58121681213379,5
29207,29070.0,02 RUE BOUDJENEN MILOUD SIDI SLIMANE,35.2932624816895,0.0777430012822151,29
29308,29058.0,RUE EL CHOHADA NESMOTH,35.2531585693359,0.380775988101959,29
29203,29049.0,RUE BELKAID KADA GRARA,35.3459167480469,0.0380790010094643,29
19102,19062.0,LOT N°20 BELAIR,36.2004013061523,5.40268516540527,19
19103,19063.0,CITE 1000 LOGTS SETIF,36.1771049499512,5.40591621398926,19
29202,29048.0,GRAIA CENTRE,35.2851219177246,-0.144579395651817,29
42311,42043.0,CITE CINQ MARTYRS AHMEUR EL AIN,36.3105010986328,2.33080005645752,42
42304,42048.0,CITE BOUTELDJA MERAD,36.271800994873,2.24289989471436,42
42219,42068.0,ECOLE MILITAIRE D'INFANTERIE,36.4768981933594,2.56590008735657,42
42201,42067.0,ACADEMIE MILITAIRE INTER ARMES CHERCHELL,36.3606986999512,2.11229991912842,42
42314,42062.0,DOUAR MED ARAB EX SIDI GHIAT MERAD,36.2830009460449,2.22519993782043,42
42312,42049.0,DOUAR BOUYAGHSENE HADJOUT,36.3157997131348,2.24320006370544,42
42216,42059.0,RUE PRINCIPALE HAMDANIA CHERCHELL,36.3730010986328,2.16199994087219,42
4308,4027.0,BIR-ROGAA,35.8199996948242,7.26000022888184,4
42520,42053.0,CITE EL ISLAH DOUAOUDA,36.401798248291,2.4702000617981,42
42518,42052.0,CITE DES OLIVIERS DOUAOUDA,36.4033012390137,2.47449994087219,42
42519,42044.0,CITE AIN LAHDJAR FOUKA,36.3959007263184,2.45000004768372,42
24319,24046.0,RUE BOURENAB KHEMISSI,36.6097297668457,7.64611005783081,24
4429,4033.0,BIR-TANDJA,36.0499992370605,6.57000017166138,4
4422,4037.0,OULED-NACEUR,36.060001373291,6.57999992370605,4
31322,31061.0,DOUAR ARABA ,35.757438659668,-0.241383999586105,31
31408,31072.0,FELLAOUCENE AVDELMALEK RAMDANE ,35.7180213928223,-0.77963399887085,31
25101,25007.0,14 BD BELOUIZDAD  ,36.750195,3.065928,25
6500,6021.0,ADEKAR CENTRE CHEF LIEU COMMUNAL,36.6898994445801,4.66666984558105,6
4403,4005.0,AIN EL BORDJ,35.9735984802246,6.87599992752075,4
5300,5007.0,PLACE BEN BOULAID,35.152717590332,6.20590209960938,5
34209,34009.0,RUE WALI ABDELLAH MEDJANA,36.1293067932129,4.67135190963745,34
36200,36002.0,RUE DU SAHARA,36.8973770141602,8.44723033905029,36
18207,18005.0,BD FROND DE MER,36.773250579834,5.60977983474731,18
19300,19002.0,RUE KANOUNI ATHMANE ,35.9247665405273,5.29580307006836,19
25300,25014.0,RUE DE L'INDEPENDANCE,36.6383183,2.7687407,25
23300,23004.0,  EMIR A/KADER ,36.8045425415039,7.73761081695557,23
21402,21009.0,BEKKOUCHE-LAKHDAR,36.6990928649902,7.30605840682983,21
15408,15028.0,AGOULMIME,36.3956527709961,4.18475818634033,15
6400,6008.0,AMIZOUR CENTRE,36.644100189209,4.90561008453369,6
19500,19008.0, RUE 1ER NOV 54   ,36.3658180236816,5.50637102127075,19
21510,21017.0,EMJEZ-ED-CHICHE,36.7048988342285,6.80474281311035,21
34300,34001.0,RUE BACHIR ACHOUR RAS  EL OUED,35.9442100524902,5.03339576721191,34
5407,5016.0,CENTRE VILLE OUED-EL-MA,35.3844184875488,5.59441804885864,5
21405,21037.0,DJENDEL-SAADI-MOHAMED,36.7806282043457,7.17144918441772,21
5706,5009.0,CENTRE VILLE RAS-EL-AIOUN,35.4028816223145,5.3912410736084,5
4404,4006.0,RUE DRAGA MAOUCHE ,35.9000015258789,6.67000007629395,4
24403,24014.0,RUE MOHAMED AOUNI,36.2591514587402,7.07485008239746,24
16815,16091.0,AVENUE MOHAMED BELHADJET,36.6774063110352,2.98325490951538,16
24308,24026.0,ROUTE PRINCIPAL M/ SFA,36.4337310791016,7.78363990783691,24
48203,48018.0,RUE DE L'IDEPENDENCE,35.5818977355957,0.329156011343002,48
5808,5012.0,CENTRE VILLE MENAA,35.1037178039551,6.0017352104187,5
19302,19018.0,AIN LAHDJAR,35.9373893737793,5.53989410400391,19
48409,48013.0,RUE HAMADI DJILALI,36.0446014404297,0.897689998149872,48
6405,6033.0,FERAOUNE CENTRE,36.5569000244141,4.8664698600769,6
18210,18032.0,ERRAGUENE,36.6076507568359,5.58298015594482,18
2412,2025.0,SENDJAS,36.0651016235352,1.39859998226166,2
5806,5041.0,BOUZINA CENTRE,35.155200958252,6.05574083328247,5
36205,36018.0,COMMUNE EL-AIOUN,36.8271789550781,8.60132503509521,36
6200,6023.0,TICHI CENTRE,36.6674995422363,5.16008996963501,6
31309,31044.0,12 RUE RAHMOUNI NACER -EL MOHGOUN-,35.8212547302246,-0.354546993970871,31
31328,31079.0,DOUAR MENATSIA ,35.7294311523438,-0.344258010387421,31
21328,21070.0,RAKOUBA,36.9044761657715,6.2925009727478,21
30206,30040.0,CITE AIN MOUSSA,36.2658061,1.9714366,30
31301,31060.0,HAI AKID OTHMANE ,35.8954124450684,-0.339107990264893,31
1203,1028.0,APC TAMEST,27.4083938598633,-0.181930005550385,1
1212,1030.0,KSAR MLOUKA,27.87619972229,-0.34145399928093,1
1213,1021.0,KSAR BOUFADI,27.7191104888916,-0.271566987037659,1
1211,1023.0,APC BOUDA EL MANSOUR,27.9554252624512,-0.424751996994019,1
1208,1026.0,APC BOUDA BEN DRAOU,28.0100059509277,-0.426800012588501,1
1202,1027.0,KSAR OUDGHA,27.6557445526123,-0.31105700135231,1
1306,1040.0,KSAR BOUALI,27.1599521636963,-0.131987005472183,1
4107,4028.0,TOUZELINE,35.9300003051758,6.96000003814697,4
6416,6100.0,TIZI BENI KHETTAB,36.5604095458984,4.85453987121582,6
6711,6080.0,TIZOUEL 06080  Cne  AIT SMAIL,36.5462989807129,5.22966003417969,6
6609,6099.0,VILLAGE  AKHNAK  06099,36.5471992492676,4.68611001968384,6
6207,6062.0,MELLALA,36.7167015075684,5.01667022705078,6
6804,6082.0,BENI DJELLIL,36.5833015441895,4.93333005905151,6
6806,6084.0,SEMAOUNE CHEMINI,36.5956993103027,4.61520004272461,6
6707,6078.0,AIT IDRISS,36.4795989990234,4.67969989776611,6
6608,6079.0,VILLAGE  TIBOUAMOUCHINE  06079,36.5332984924316,4.69999980926514,6
6208,6065.0,TIZI OUAKLANE,36.6699981689453,5.15999984741211,6
6322,6052.0,CHELLATA,36.519401550293,4.49749994277954,6
6413,6071.0,ACHELOUF,36.7585983276367,4.8932900428772,6
6607,6081.0,AIT ADJISSA,36.7285995483398,4.958899974823,6
6712,6070.0,VILLAGE  BERZAKH  DRAA EL  KAID,36.4205017089844,5.22450017929077,6
6318,6048.0,TASLENT,36.4500007629395,5.55359983444214,6
6323,6068.0,AYACHA,36.3843994140625,4.39327001571655,6
6317,6045.0,DJAMAA,36.551830291748,4.56357097625732,6
6204,6059.0,VILLAGE  TAGUEMOUNT,36.6143989562988,5.08720016479492,6
6315,6069.0,IGHIL NASSER,36.4630012512207,4.50530004501343,6
6418,6102.0,MERDJ OUAMENE,36.6815376281738,4.94902610778809,6
6105,6047.0,VILLAGE AMITIK N'TAFATH BEJAIA,36.75,5.05673313140869,6
6509,6106.0,BENI K'SILA,36.8824996948242,4.66191005706787,6
4201,4025.0,BIR-AMAR,36.0099983215332,6.98999977111816,4
35515,35034.0,VILLAGE BEN MERZOUGA BOUDOUAOU,36.7000007629395,3.42000007629395,35
35213,35056.0,16 CITE BELKACEM GHERNAOUT SIDI EL MEDJNI DELLYS ,36.7099990844727,3.86999988555908,35
14217,14064.0,CITE DES 20 LOGEMENTS,36.6395574,2.766457593338001,14
4204,4023.0,ROUTE DE WILAYA N°9 VERS BATNA N°10,35.6800003051758,7.01000022888184,4
46307,46028.0,AIN-BEIDA,35.4331359863281,-0.981099009513855,46
46313,46029.0,AIN-ISDIEL,35.3050575256348,-0.891409993171692,46
46221,46041.0,CITE HOUARI BOUMEDIENE,35.3254547119141,-1.10508596897125,46
46302,46032.0,AURES-EL-MEIDA,35.3687210083008,-1.00957703590393,46
46413,46030.0,AIN-LARBAA-SAFI,35.2777862548828,-1.33951795101166,46
46315,46039.0,HADJAIRIA,35.3759994506836,-0.809669971466064,46
46311,46049.0,SAIDA,35.4042892456055,-0.770031988620758,46
46410,46053.0,TEDMAYA,35.2439422607422,-1.44659399986267,46
46219,46046.0,OULED-TAOUI,35.4679641723633,-1.13532197475433,46
46214,46036.0,EL-MESSAID,35.5332984924316,-1.11667001247406,46
46409,46047.0,RECHGOUN,35.2964363098145,-1.46934902667999,46
46215,46045.0,OULED-KIHAL,35.369270324707,-1.23774302005768,46
46314,46040.0,HAMAINA,35.1926574707031,-0.942242980003357,46
46501,46042.0,VSA M'SELLA DJURDJURA,35.1294555664062,-1.36062097549438,46
42220,42057.0,DOUAR GHERDOUS SIDI SEMIANE,36.3049011230469,2.08439993858337,42
35317,35060.0,VILLAGE ZAATRA ,36.7599983215332,3.59999990463257,35
37106,37006.0,HASSI-MOUNIR,29.1100006103516,-7.28999996185303,37
37104,37004.0,GARA-DJEBILET,26.75,-7.25,37
46220,46048.0,ROUAIBA,35.5454940795898,-1.08545005321503,46
8122,8015.0,HAI ESSALAM BECHAR ,31.6238460540771,-2.22247004508972,8
4427,4035.0,RUE D'INDEPENDANCED,36.0400009155273,6.82000017166138,4
7308,7052.0, RUE ECOLE CHOUCHANE LAKHDAR EL-HORAYA,34.7117195129395,5.96395444869995,7
46401,46018.0,CITE  BOUHMIDI -  plan2,35.2955131530762,-1.38089513778687,46
46402,46019.0,CITE  NAHDA- Plan1,35.2770729064941,-1.39513051509857,46
21321,21048.0,AIN-CHERAIA,36.823974609375,6.71032619476318,21
13613,13073.0,CITE A/MEDAGHRI,36.743497,2.949379,13
46213,46031.0,AISSAOUI-BOUZIANE,35.4525909423828,-1.07620596885681,46
45303,45028.0,VILLAGE MEKTER FORTASSA,32.8433418273926,1.24444699287415,45
45103,45020.0,"CITE 540 LOGTS, NAAMA",33.3743591308594,0.312366992235184,45
10228,10015.0,BOUAKLANE CENTRE,36.3535995483398,4.26949977874756,10
24109,24004.0,CITE EMIR A/KADER,36.4693717956543,7.44905996322632,24
43104,43058.0,RUE BENCHEKOUF MOHAMED OULED EL KAIM,36.3638763427734,6.26393413543701,43
22322,22042.0,BOUAICHE,35.5538128,2.358512,22
1109,1002.0,CITE 140 LOGTS ADRAR DJADIDA,27.8928928375244,-0.304791986942291,1
44325,44013.0,HAY  ESSALEM,36.2532997131348,2.22123003005981,44
22315,22053.0,RUE DIDOUCHE MORAD,36.453794,6.630316,22
22318,22043.0,RUE DE 20 LOGTS,35.7034599,-0.5718872,22
22207,22035.0,RUE HRENICHE LAKHDAR ,35.917075,5.294166,22
10602,10055.0,CHABET-BRAHEM 10055,36.4080009460449,3.93379998207092,10
14511,14045.0,ROUTE DE MASCARA,35.2112007141113,0.653400003910065,14
10108,10027.0,OULED-BOUCHIA BOUIRA,36.3568992614746,3.90400004386902,10
2324,2027.0,TENES CENTRE,36.5108985900879,1.30799996852875,2
42224,42060.0,DOUAR LES MINES LARHAT,36.4668998718262,2.5,42
42525,42070.0,ECOLE DES TRANSMISSIONS ICHARA - KOLEA,36.3801002502441,2.46070003509521,42
27111,27012.0,ROUTE D'ORAN CIA MOSTAGANEM,35.315403,-1.133095,27
35202,35032.0,VILLAGE AZROU - AZROU,36.8699989318848,3.92000007629395,35
35316,35040.0,VILLAGE AGRICOLE CHLEF BOUMERAOU,36.7599983215332,3.80999994277954,35
35214,35030.0,VILLAGE ABADA - ABADA,36.8400001525879,3.98000001907349,35
23212,23047.0,CITE ZAOUIA  CHETAIBI ,37.0319938659668,7.37838506698608,23
18223,18039.0,LES AFTIS,36.7126197814941,5.55166912078857,18
22117,22016.0,EL WIAAM SIDI BEL ABBES,35.212454,-0.62497,22
13201,13058.0,ROUTE NATIONNAL,36.812365,2.961662,13
13800,13068.0,HAI EL-BADR,36.7211099,3.0986827,13
31232,31001.0,NOUVEAU CENTRE BIR EL DJIR  - ORAN ,35.750098,-0.566713,31
38105,38011.0,HAI EL MOUDJAHID BARDALI BEN AMAR ,35.6079597473145,1.80310201644897,38
21110,21027.0,SKIKDA-FRERES-SAADI,36.8683052062988,6.9834098815918,21
42526,42063.0,CITE SALAH - KOLEA,36.3815002441406,2.46239995956421,42
13309,13060.0,RUE EL-KARIERE,36.729325,3.076335,13
35306,35047.0,VILLAGE KEF EL GHARBI,36.7099990844727,3.55999994277954,35
10229,10050.0,ATH-BOUALI 10050,36.3390998840332,4.33330011367798,10
5907,5103.0,LEGRINE,35.3436508178711,6.43426609039307,5
9310,9052.0,HAI SOUAKHRIA,36.3916397094727,3.12168002128601,9
16831,16126.0,RUE HAMIDI MOHAMED RAHMANIA,36.6583442687988,2.86429691314697,16
36106,36009.0,CITE SIDI BELGACEM,36.758731842041,8.33085823059082,36
6613,6064.0,IGHIL OUANTAR,36.682300567627,4.99020004272461,6
16835,16128.0,LOT CHEHATTE RABEH,36.7262496948242,2.89002895355225,16
25207,25047.0,LAMAMRA 20 AOUT 1955,36.072443,4.788063,25
48312,48010.0,CHAHID AKID OTHMAN,36.1216201782227,0.870869994163513,48
42225,42064.0,DOUAR TEFSASSINE BNI MELLEUK,36.4607009887695,2.04999995231628,42
3511,3030.0,AIN-SKHOUNA,34.1429901123047,2.12586998939514,3
3512,3031.0,CHEKKALA,34.1728096008301,2.1347599029541,3
22513,22065.0,RUE BOUCIF BENABDALLAH,35.307658,-1.375141,22
10323,10025.0,KADIRIA 1ER NOV 215 LOGTS ,36.5369987487793,3.67860007286072,10
45320,45033.0,"QUARTIER 60 LOGEMENTS, AIN SEFRA",32.7687377929688,0.560905992984772,45
10316,10090.0,TAIOUINE CENTRE 10090,36.543098449707,3.66499996185303,10
12417,12057.0,CITE 6 MAI OUENZA,35.9417037963867,8.13634300231934,12
9501,9072.0,BASE MILITAIRE AIRIENNE,36.3034210205078,2.48505997657776,9
31234,31085.0,CITE1500 LOGTS USTO - ORAN,35.7023544311523,-0.585541009902954,31
9413,9061.0,Hai sidi hamed Meftah Blida,36.3512191772461,3.11138010025024,9
21211,21076.0,OUED-RIGHA-BAHRI,36.9039878845215,7.04957485198975,21
19722,19128.0,CHIRHOUM,36.2726516723633,5.49773979187012,19
42226,42069.0,ECOLE MILITAIRE ABANE RAMDANE CHERCHELL,36.3521003723145,2.14260005950928,42
35312,35059.0,VILLAGE TIZI N'ALI SLIMANE,36.7400016784668,3.70000004768372,35
16837,16134.0,"HAI NAAMANE EL AMRI,RAHMANIA",36.686279296875,2.92432999610901,16
16836,16133.0,HAI BRAHIMI MOHAMED SOUIDANIA,36.7197608947754,2.90425992012024,16
9316,9062.0,CENTRE RIHANE,36.254711151123,2.41201996803284,9
16420,16137.0,CITE 389 LOGTS BENI MESSOUS,36.7857894897461,2.96634006500244,16
16160,16080.0,ECOLE SUPERIEUR DE POLICE,36.768253326416,3.01144504547119,16
19327,19042.0,DRAA  EL MIAD,35.9551773071289,5.30072546005249,19
16840,16149.0,CITE DJAADI SOUIDANIA,36.7018394470215,2.90949010848999,16
16161,16150.0,"RUE N° 12 CITE LEVEILLEY , HUSSEIN DEY",36.728428,3.150313,16
26208,26064.0,OULED BOUACHERA CENTRE,36.2106170654297,3.32093000411987,26
16716,16146.0,CITE 193 LOGTS  BABA ALI,36.7634391784668,2.97592401504517,16
16839,16148.0,CITE 300 LOGT COSIDER ROUTE DE SAOULA,36.7161407470703,3.01242995262146,16
29610,29078.0,RUE GHAZEL MAHDI  SIDI M'BAREK,35.3933143615723,0.10801500082016,29
10516,10102.0,CITE DAHMANI MAHFOUDH 10102,36.2943000793457,3.63809990882874,10
29614,29068.0,SAF SAF CENTRE,35.2207984924316,0.118066996335983,29
29512,29077.0,DOUAR  BEKHAITIA N°2 SIDI ABDEL MOUMENE,35.6340293884277,0.0524690002202988,29
48106,48074.0,CITE 340LOGTS BORMADIA,35.7012825012207,0.57185697555542,48
10231,10100.0,IGHREM CENTRE 10100,36.3377990722656,4.18569993972778,10
31332,31090.0,LOCALITE MERS EL HADJADJ ,35.7890892028809,-0.193312004208565,31
31333,31091.0,LOCALITE ARRASA ,35.7887916564941,-0.254608988761902,31
15440,15162.0,AZAZGA VILLE ,36.4441261291504,4.22125291824341,15
43428,43067.0,CITE 529 LOGTS ,36.2439842224121,5.57137012481689,43
43306,43042.0,BOUFOULA,36.1659936,6.225943,43
10325,10099.0,BEN HAROUNE EST 10099,36.4574012756348,3.7688000202179,10
16841,16160.0,ECOLE POLICE JUDICIAIRE,36.6946105957031,2.82499408721924,16
17501,17067.0,HANIET-OULED-SALM,35.681987,4.735596,17
19519,19130.0,BAHBAHA,36.4893608093262,5.53375101089478,19
35206,35053.0,VILLAGE OULED H'MIDA,36.8199996948242,3.90000009536743,35
35207,35055.0,VILLAGE SEBAOU EL KEDIM,36.7798004150391,3.87299990653992,35
17419,17068.0,SED-OUM-DROU,36.19953,1.38932,17
21523,21077.0,SOUK-TLETA,36.7551918029785,6.65926122665405,21
49516,49054.0,KSAR FATIS,33.793918,2.301108,49
24321,24051.0,CITE BOUDAROUA O/FRAGHA ,36.5235900878906,7.70626020431519,24
27323,27056.0,OULED EL BACHIR,35.32402,0.13898,27
9317,9063.0,Cité hamdania oued kerrouche chiffa,36.265251159668,2.4409499168396,9
36316,36031.0,EUE SIDI ABED,36.7357406616211,7.92401123046875,36
1110,1057.0,KSAR BOUDA LAGMARA,28.0279731750488,-0.460485488176346,1
38109,38036.0,HAI CHAHID LAROUL RABAH,35.6049308776855,1.82041001319885,38
43212,43068.0,CHEGLIBI-MAKHLOUF,36.557788848877,6.32722997665405,43
45215,45035.0,"QUARTIER EL WIAM, MECHERIA",33.5429801940918,0.263182997703552,45
48108,48075.0,HAI EL NASR CITE 600 LOGTS,35.7475738525391,0.540602028369904,48
48220,48045.0,DOUAR EL AOUDJ,35.78271484375,0.337966412305832,48
34330,34066.0,EL-HAMMA,35.991813659668,4.59793376922607,34
9512,9049.0,39 Rue medah ali Boufarik,36.3600807189941,2.57023000717163,9
9508,9048.0,Cité 5 juillet 1962 centre melaha bouinan,36.3121910095215,2.59260010719299,9
48215,48053.0,KHACHAB  ZAGHLOUL,35.6327705383301,0.552123010158539,48
20310,20039.0,DOUAR SFID  20039,34.4885749816895,0.0911775976419449,20
13801,13086.0,BD KHELIFI MOHAMED,34.876091,-1.313818,13
41314,41041.0,CITE ACHOURI ALI,36.4237289428711,7.49349308013916,41
4408,4052.0,RUE DU 1ER NOVEMBRE 54,35.8400001525879,6.67000007629395,4
29413,29079.0,RUE YAHYAOUI MOHAMED AHL EL AID,35.5836563110352,0.268723994493484,29
52416,52051.0,BECHIR ,29.93063843859322,-1.9622018878450185,52
13222,13084.0,CITE LES JASMINS,36.74152305,3.0614524943296093,13
4304,4051.0,AIN BENAYAD,35.7900009155273,7.51000022888184,4
9412,9067.0,CENTRE M'HADA,36.3832893371582,3.14382004737854,9
9318,9066.0,CENTRE CINQ PALMIERS,36.3113708496094,2.44355988502502,9
21107,21078.0,UNIVERSITE DE SKIKDA,36.8474388122559,6.89143753051758,21
44105,44061.0,EPLF HAY  NADJEM,36.2613792419434,1.97360002994537,44
5712,5118.0,CHOTT,35.5307502746582,5.50259017944336,5
5412,5110.0,TENIET-ESSADRA,35.5109100341797,6.09425210952759,5
16720,16170.0,MINISTERE-DES-AFFAIRES-ETRANGERES,36.735708,3.079449,16
41402,41042.0,CITE OULED -ABBES ,36.0180511474609,8.16201972961426,41
19904,19132.0,CITE  CHIBI A AIN AZEL,35.8164863586426,5.51306104660034,19
19122,19131.0,CITE EL HIDHAB  SETIF,36.2054824829102,5.43171882629395,19
39107,39080.0, CITE EL QODS,35.441522,2.892155,39
28611,28076.0,LOUGMANE,35.4758148193359,4.26794004440308,28
48109,48077.0,CTE UNIVERSITAIRE BORMADIA,35.7048225402832,0.577746987342834,48
34502,34068.0,OULED EMBAREK,36.1593284606934,4.84950590133667,34
24501,24052.0,VILLAGE AIN KHAROUBA ,36.4312782287598,7.21050977706909,24
2325,2089.0,SIDI ZIANE,36.3143005371094,1.14830005168915,2
4409,4053.0,GARAA SAIDA,36.1100006103516,6.71999979019165,4
16834,16171.0,HAI BOUREGAA,36.7626304626465,2.8853440284729,16
29110,29080.0,RUE CHEIKH EL KHALDI MASCARA,35.411979675293,0.131639003753662,29
39605,39082.0, CITE EL AOUACHIR,36.725344,3.101906,39
21419,21080.0,EL-HAMMA,36.7908325195312,7.28048658370972,21
45216,45036.0,VILLAGE SIDI MOUSSA,33.3137550354004,0.781489014625549,45
9203,9068.0,Université Saad dahleb blida 1 ouled yaich blida,36.3016586303711,2.52353000640869,9
5719,5132.0,BOUTERAA-KERMIA,35.4059715270996,5.39194583892822,5
16214,16174.0,B P N° 05 ENPEI ROUIBA,36.791716,3.238041,16
29414,29082.0,03 RUE MENCHOUT MOHAMED AHL EL OUANANE,35.5496292114258,-0.247777000069618,29
29111,29081.0,RUE 293 LOGEMENTS  MASCARA,35.410327911377,0.12941700220108,29
34506,34070.0,VILLAGE LACHBOUR ,36.079231262207,4.66995000839233,34
24405,24053.0,VILLAGE KSAR EL AZEB,36.3283805847168,7.06399011611938,24
22210,22074.0,TOUAITA,35.0879703,-0.6157226,22
45217,45037.0,"QUARTIER 542 LOGTS, MECHERIA",33.545581817627,0.257335990667343,45
45218,45038.0,"QUARTIER 70 LOGTS, EL BIODH",33.7624168395996,0.134646996855736,45
42527,42066.0,ECOLE NATIONALE SUPERIEURE DE MANAGEMENT - POLE UNIVERSITAIRE - KOLEA,36.3832015991211,2.47259998321533,42
34331,34071.0,OULED-HAMZA,36.2573051452637,4.98099613189697,34
46223,46055.0,EL-HOUAOURA,35.5712890625,-1.10253703594208,46
6419,6117.0,EL HAMMA,36.6278495788574,4.95846700668335,6
10112,10103.0,RAS BOUIRA BENABDELLAH 10112,36.3648986816406,3.63639998435974,10
9109,9069.0,MINISTERE DE LA DIFENCE 1ER/RM BLIDA,36.294319152832,2.48217010498047,9
16423,16180.0,BEN AKNOUN,36.7605323791504,3.01525807380676,16
16842,16179.0,RESIDENCE UNIVERSITAIRE 03 OULED FAYET,36.729663848877,2.94259095191956,16
16164,16176.0,COMMANDEMENT DE LA GENDARMERIE NATIONALE,36.7679061889648,2.92337799072266,16
16802,16178.0,BASE AERIENNE CHERAGA,36.776294708252,2.92744994163513,16
2120,2090.0,HAY BADR AADL,36.1455993652344,1.31159996986389,2
4504,4058.0,EL-BELLALA,35.5499992370605,7.6100001335144,4
13615,13088.0,AEROPORT,32.3857079,3.7943320012162,13
18411,18051.0,SIDI REZZOUK,36.6368217468262,6.28696012496948,18
5612,5133.0,TAMESGHIT,35.2719993591309,5.45219993591309,5
32108,32035.0,GARE-ROUTIERE EL-BAYADH,33.669621,1.028398,32
7119,7088.0,GARE ROUTIERE SOGRAL BISKRA,34.8272438049316,5.68094778060913,7
10113,10104.0,POLE UNIVERSITAIRE BOUIRA,36.3791007995605,3.87610006332397,10
10114,10105.0, BOUIRA GARE ROUTIERE 10005,36.3680992126465,3.87140011787415,10
6327,6121.0,HELLOUANE,36.5419998168945,4.61290979385376,6
17112,17073.0,GARE ROUTIERE DJELFA,35.064858,3.033361,17
29320,29083.0,ANNEXE APC EL MALEH,35.2047691345215,0.566417992115021,29
46106,46056.0,"CITE MOHAMED BOUDIAF 320 LOGTS,AIN TEMOUCHENT",35.2926902770996,-1.13299798965454,46
46107,46057.0,"HAI ZITOUNE,GARE ROUTIERE,AIN TEMOUCHENT",35.3132400512695,-1.14924156665802,46
6420,6120.0,R.U.BERCHICHE 3. ELKSEUR,36.6800003051758,4.85200023651123,6
17527,17069.0,ABDELMADJID,36.0704292,4.7543229,17
39606,39087.0,CITE  ALI DERBAL,33.2749404907227,6.9064359664917,39
36321,36051.0,"CITE 36 LOGEMENTS,COMMUNE DE BESBES",36.705005645752,7.83827495574951,36
22101,22080.0,RUE MAAROUF EL ARBI,35.741247,0.544378,22
22122,22076.0,CITE AADL SIDI DJILLALI,35.207063,-0.632193,22
46224,46058.0,CITE NAHDA,35.5239105224609,-1.0166300535202,46
29415,29084.0,RUE COLONEL LOTFI SIG,35.586986541748,0.202049002051353,29
16845,16184.0,CITE SIDI MENIF 02 ZERALDA,36.6947364807129,2.82567310333252,16
48110,48078.0,GARE ROUTIERE,35.722484588623,0.524860978126526,48
9319,9070.0,EL-AFFROUN UNIVERSITE 2,36.2707290649414,2.38204002380371,9
43213,43070.0,RAS EL BIR,36.5067067,6.2436214,43
22323,22083.0,LOUZA BEN ACHIBA,35.226692,-0.389588,22
22124,22081.0,ECOLE DE POLICE TAYEBI LARBI,36.716393,3.088443,22
22418,22082.0,BORDJ DJAAFER,36.087292,4.779661,22
16846,16185.0,OULED FAYET PLATEAU,36.728271484375,2.95677804946899,16
16847,16186.0,RUE TAKARLI ABDEL GHANI,36.7123985290527,2.99761009216309,16
9120,9071.0,Rue el aichi abdellah bab essabt blida,36.2810897827148,2.49390006065369,9
5413,5111.0,TIMEDOUINE,35.5149917602539,5.43510389328003,5
10416,10106.0,GARE ROUTIERE SEG  10006,36.1342010498047,3.69379997253418,10
2319,2062.0,VIEUX TENES,36.5008010864258,1.31420004367828,2
38207,38037.0,RUE  EMIR ABDELKADER,35.6647758483887,1.96386694908142,38
34230,34074.0,AIN-DEFLA RN05,36.0696144104004,4.54808807373047,34
22120,22084.0,CAMPUS -UNIVERSITAIRE,35.220921,-0.643018,22
2119,2088.0,712 LOGTS,36.1346015930176,1.2849999666214,2
28215,28072.0,EL DJORF,35.4111976623535,4.44332981109619,28
31155,31101.0,25 RUE KHIALI BENSALEM DAE EL BEIDA -ORAN ,35.695259,-0.652638,31
44414,44062.0,FRACTION OULED-BESSA  ,36.3333015441895,1.57782995700836,44
16721,16189.0,RAIS SIDI MOUSSA,36.613472,3.1230911,16
29617,29086.0,CITE DES 64 LOGTS GHRISS,35.3258628845215,0.31613901257515,29
11114,11026.0,GARE ROUTIERE,22.8166694641113,5.48333311080933,11
16426,16191.0,ITFC BEN AKNOUN,36.7485580444336,3.01321601867676,16
33308,33017.0,Base de vie DP-SONATRACH,32.944699,3.259107,33
3112,3049.0,UNIVERSITE POLE 1 LAGHOUAT,33.4746513366699,2.50492000579834,3
3514,3050.0,AFLOU-UNIVERSITE,34.063419342041,2.041179895401,3
32109,32036.0,CENTRE UNIVERSITAIRE NOUR BACHIER EL BAYADH,32.864479,0.02552,32
17321,17074.0,GARE ROUTIERE  AIN OUSSERA,35.546718,2.617667,17
29618,29087.0,RUE FERAOUN MOKHTAR  OUED TARIA,35.1237335205078,0.0882640033960342,29
23325,23051.0,UNIVERSITE EL BOUNI,36.8617782592773,7.72779321670532,23
23326,23052.0,UNIVERSITE SIDI AMAR,36.8127861022949,7.72142505645752,23
13101,13092.0,BD ALLAM MOULOUD,34.5434494018555,1.19139099121094,13
28114,28078.0,POLE UNIVERSITAIRE MSILA,35.740115,4.548037,28
24110,24054.0,UNIVERSITE 08 MAI 1945,36.4452018737793,7.42477989196777,24
6421,6132.0,CITE AKAL ABERKAN. EL KSEUR,36.6804733276367,4.84818983078003,6
10105,10061.0,ERRICH 10111,36.4444999694824,3.87220001220703,10
3109,3051.0,LA BASE AIRIENNE LAGHOUAT ,33.4612312316895,2.54595994949341,3
31247,31099.0,HAI 500LOGTS OUED TLELAT ,35.5586585998535,-0.444458991289139,31
23130,23053.0,CITE  BOUZERED HOCINE ANNABA ,36.8947830200195,7.74507617950439,23
46317,46061.0,CITE KHOUALEF ZOUBIR,35.4053688049316,-0.886883020401001,46
46109,46060.0,CITE COLONEL MERBAH,35.2959671020508,-1.13294494152069,46
46108,46059.0,Université Belhadj Bouchaib -Ain témouchent,35.2861289978027,-1.12449157238007,46
10110,10108.0,CITE 1100 BOUIRA 10108,36.3772048950195,3.88404631614685,10
16849,16192.0, 20 AOUT 1965,36.6958236694336,2.98026704788208,16
44216,44064.0,CITE 234 LOGTS OUED BEDDA,36.3040580749512,2.00027990341187,44
28113,28084.0,M'SILA-GARE-ROUTIERE,35.708196,4.520869,28
28109,28083.0, UNIVERSITE DE MSILA ,35.4256172180176,4.31323623657227,28
15406,15155.0,TIZI-N'TERGA,36.3911209106445,4.16584300994873,15
5422,5138.0,ERIS SERIANA,35.4108734130859,6.12337684631348,5
5107,5135.0,ECOLE MILITAIRE E-A-A-B,35.0,6.0,5
5118,5137.0,BATNA-UNIVERSITE,35.3227157592773,6.09006977081299,5
45212,45043.0,"GARNISON MILITAIRE, MECHERIA",33.5498886108398,0.282166987657547,45
45211,45042.0,"BASES AERIENNE, MECHERIA",33.5280265808105,0.249806001782417,45
45322,45045.0,"GARE ROUTIERE, AIN SEFRA",32.7633743286133,0.596333026885986,45
45312,45041.0,"QUARTIER KSAR SIDI BOUTKHIL, AIN SEFRA",32.7498321533203,0.581166982650757,45
45105,45044.0,"RESIDENCE UNIVERSITAIRE, NAAMA",33.2764663696289,0.31972798705101,45
44326,44065.0,UNIVERSITE KHEMIS-MILIANA,36.2539405822754,2.23682308197021,44
5513,5136.0,BARIKA DIVISION BLINDEE,35.2044143676758,5.22332000732422,5
8123,8054.0,CENTRE-UNIVERSITAIRE BECHAR ,31.603702545166,-2.23444104194641,8
8125,8057.0,CITE UNIVERSITAIRE 1500 LITS BECHAR,31.652811050415,-2.22380805015564,8
8128,8059.0,GARE ROUTIERE BECHAR ,31.6375617980957,-2.19923901557922,8
14102,14075.0,CITE MARIE CURIE,35.3757019042969,1.31120002269745,14
1111,1063.0,UNIVERSITE  ADRAR,27.8907413482666,-0.284996002912521,1
1112,1064.0,CITE UNIVERSITE TILLILANE,27.9809875488281,-0.286547005176544,1
29109,29088.0,MASCARA UNIVERSITE SIDI SAID,35.4035530090332,0.121413998305798,29
29107,29089.0,MASCARA CITE ADMINISTRATIVE,35.4035148620605,0.136046007275581,29
27109,27060.0,ROUTE DU PORT,35.914045,0.0723544,27
27104,27059.0,CITE UNIVERSITAIRE,34.8512001,5.7463488,27
19719,19133.0,EL EULMA THABET BOUZID,36.1456871032715,5.70364570617676,19
17207,17078.0,11 DECEMBRE 1960  EL IDRISSIA,36.776205,3.264357,17
17114,17077.0,CITE BEN LABIAD MED,36.177228,5.413448,17
48101,48076.0,RUE SIDI M'HAMED BENAOUDA,35.7385940551758,0.558134973049164,48
26102,26082.0,UNIVERSITE  YAHIA FARES MEDEA,36.134090423584,2.46412301063538,26
20115,20050.0,CITE SALEM 2 SAIDA 20050,34.8361968994141,0.174462005496025,20
20226,20049.0,SIDI BOUBEKEUR GARE - SIDI BOUBEKEUR 20049,35.0393180847168,0.0616853013634682,20
20114,20044.0,UNIVERSITE DR MOULAY TAHAR  20044,34.8599243164062,0.150747001171112,20
28326,28087.0,"CITE 300 LOGEMENTS EL BATEN,BOUSAADA,M'SILA",35.1149101257324,4.94596004486084,28
28612,28079.0,HAMMAM DALAA RAGE ROUTIERE,35.4111976623535,4.22502517700195,28
28409,28080.0,SIDI-AISSA-GARE-ROUTIERE,35.5239372253418,3.46357488632202,28
31249,31103.0,HAMOU ALI ,35.6794368,-0.6672556,31
18104,18052.0,BASE NAVALE JIJEL EL KALAA,36.8249130249023,5.76705503463745,18
41315,41047.0,"GARE-ROUTIERE,COMMUNE DE MDAOUROUCH",36.5128517150879,7.49309015274048,41
41218,41044.0,INSTITUT VETERINAIRE TAOURA ,36.0918159484863,7.59327220916748,41
41110,41043.0,UNIVERSITE  MESSAADIA MOHAMED CHERIF,36.1756286621094,7.55284786224365,41
16223,16195.0,LOCALITE DE DERGANA ,36.767275,3.26172,16
23122,23054.0,CITE SYBOUSE ANNABA ,36.8796615600586,7.76049995422363,23
4432,4060.0,ECOLE NATIONALE  DE LA GENDARMERIE,36.0999984741211,6.78999996185303,4
31334,31105.0,850 LOGEMENTS MAHGOUN,35.822582244873,-0.350030988454819,31
31239,31106.0,HOPITAL EHU 1 NOVEMBREHAI SABAH - ORAN ,35.698281,-0.582771,31
39115,39093.0,CITE 01 NOVEMBRE ,34.155902999999995,5.828502879254167,39
33309,33019.0,Zone industrielle -IN AMENAS,36.303894,3.667944,33
28327,28090.0,GARE ROUTIERE DE BOUSAADA,35.1344337463379,4.95905017852783,28
35104,35063.0,FACULTE DES SCIENCES. ROUTE DE LA GARE FERROVIAIRE - BOUMERDES,36.7599983215332,3.46000003814697,35
41216,41048.0,"LOCALITE DE DJEHIFA ,COMMUNE ZAAROURIA",36.0812110900879,7.54132223129272,41
38110,38038.0,"CENTRE UNIVERSITAIRE AHMED BEN YAHIA EL WANCHARISSI,TISSEMSILT",35.5987434387207,1.82382595539093,38
35523,35064.0,"FACULTE DE DROIT, BOUDOUAOU, BOUMERDES",36.7322998046875,3.39190006256104,35
35320,35066.0,ESGN RUE ABANE REMDANE ISSER ,36.7099990844727,3.66000008583069,35
45219,45046.0,AIN BENKHELIL 170 LOGTS KENOUDA BOUFELDJA,33.2925605773926,0.757085978984833,45
2507,2092.0,CITE UNIVERSITAIRE,36.2285995483398,1.24290001392365,2
41219,41045.0,CITE SIDI BRAHIM COMMUNE DE MECHROHA,36.215747833252,7.50502920150757,41
43109,43072.0,ROUTE  ZEGHAIA,36.4624938964844,6.21315383911133,43
23128,23055.0,CITE SIDI SALEM,36.862133026123,7.77884387969971,23
16850,16193.0,FACULTE DES SCIENCES ECONOMIQUES UNIVERSITE D'ALGER 03 DELY IBRAHIM ,36.7568130493164,2.98377990722656,16
19701,19135.0,EL EULMA 19 JUIN,36.1613960266113,5.68623161315918,19
46101,46063.0,siège Annexe APC Moulaya Mustapha,35.3136711120605,-1.13853001594543,46
46103,46064.0,RUE MAACHOU MOHAMED,35.2989768981934,-1.1466029882431,46
46416,46062.0,Hedahda commune de Oulhaca,35.2208290100098,-1.54341495037079,46
2428,2095.0,"CENTRE VILLE D'AIN MERANE,CHLEF",36.1633987426758,0.981100022792816,2
36107,36053.0,UNIVERSITE EL TARF,36.7611961364746,8.3211498260498,36
2429,2096.0,"LOCALITE D'AIN SERAGUE,HERENFA",36.2436981201172,1.05659997463226,2
20223,20046.0,DOUAR MORGHAD 20046,34.5487670898438,0.259661972522736,20
37112,37011.0,"CENTRE UNIVERSITAIRE,TINDOUF",27.677329,-8.134497,37
19118,19137.0,UNIVERSITE EL BAZ SETIF,36.1961364746094,5.3597297668457,19
19325,19136.0,SETIF-AIN-ROMANE,36.1794242858887,5.50087022781372,19
29321,29090.0, OULED BALI CENTRE,35.4538459777832,0.684153020381927,29
29322,29091.0,AHNAIDJA CENTRE,35.1954498291016,0.399100989103317,29
19111,19138.0,SETIF-UNIVERSITE,36.1951637268066,5.38501691818237,19
26108,26085.0,QUARTIER M'SALLAH MEDEA,36.1526527404785,2.45595502853394,26
26109,26086.0,QUARTIER KOUALA MEDEA,36.1712608337402,2.45354104042053,26
22324,22085.0,"QUARTIER 05 JUILLET,SFISEF,SIDI BEL ABBES",35.166561,-0.686648,22
45106,45048.0,GARE ROUTIERE DE NAAMA,33.2813720703125,0.307781010866165,45
37111,37010.0,"9EME BRIGADE BLINDEE,TINDOUF",27.7674198150635,-8.08633995056152,37
43429,43071.0,HEMMA AHCEN,36.2326011657715,5.59232902526855,43
21111,21082.0,"CITE MARDJ EDDIB 218 LOGEMENTS BAT 02 N°01,SKIKDA",36.8610801696777,6.92475557327271,21
46225,46067.0,"Rue Larbi Ben Mehidi route de Terga,el Malah",35.3930435180664,-1.09792101383209,46
33104,33021.0,"IN EL KOURS ,ILLIZI",36.212905,5.441448,33
29323,29093.0,220 LOGTS HAI EL WIAM TIGHENNIF,35.4230308532715,0.343867003917694,29
29113,29092.0,"CITE DES 936 LOGEMENTS, MASCARA",35.3932456970215,0.15022300183773,29
46319,46066.0,CITE de Rahal Belabna prés de la gare routiere,35.3831100463867,-0.962852001190186,46
6328,6141.0,RUE DE LA GARE  N° 40  TOURNANT  CHALAL  AKBOU,36.4500007629395,4.55359983444214,6
37114,37013.0,"FORT LOTFI, TINDOUF",28.8600006103516,-5.84999990463257,37
13113,13112.0,"LOCALITE DE SIDI SAID,TLEMCEN",34.889955,-1.31417,13
16428,16206.0,"ROUTE NATIONALE NUMERO 36 CHATEAUNEUF,EL BIAR",36.7605323791504,3.01321601867676,16
31250,31109.0,NOUVELLE CITE 3000 LOGEMENTS OUED TLELAT,35.5552635192871,-0.443123996257782,31
31251,31110.0,"CITE EL NEDJMA 07 EME TRANCHE ,COMMUNE DE SIDI CHAMI",35.6506385803223,-0.575829982757568,31
35322,35067.0,"CITEE AADL 919 LOGEMENTS, BLOC 12B N° 38 Â, B, C, ZEMMOURI",36.7900009155273,3.59999990463257,35
17314,17084.0,BASE AIRIENNE  AIN OUSSERA,35.519506,2.890917,17
17416,17085.0,HASSI EL MORRA,31.966298,5.331657,17
27117,27062.0,CENTRE-VILLE MOSTAGANEM,35.93115,0.08918,27
31336,31112.0,"CITE 1050 LOGEMENTS, GDYEL",35.7939262390137,-0.42747101187706,31
36323,36055.0,ESSAD Commune de CHEFFIA,36.6115608215332,8.03838920593262,36
36322,36054.0,VILLAGE D'AIN TOUILA COMMUNE DE BESBES,36.7043952941895,7.87302780151367,36
11109,11027.0,UNIVERSITE TAMANRASSET,22.8799991607666,5.5,11
5613,5140.0,"CITE CHAFFET, COMMUNE AIN TOUTA, BATNA",35.3991088867188,5.91983890533447,5
36219,36056.0,CITE FLN EL KALA,36.8858489990234,8.43733024597168,36
23327,23056.0,CITE EL HAROUCHI - AIN BERDA ,36.6360855102539,7.59781312942505,23
46503,46068.0,CITE 117LOGTS,35.198429107666,-1.20056104660034,46
48111,48079.0,CITE 281 LOGTS,35.7116317749023,0.567879974842072,48
45220,45050.0,GARE ROUTIERE MECHERIA,33.5422096252441,0.256381005048752,45
45107,45049.0,HAI CHAHID NAAS SLIMENE NAAMA,33.2745246887207,0.317811012268066,45
5206,5142.0,ALLEES MENZER CHERIF ,35.2900466918945,6.15351295471191,5
27101,27064.0,"RUE MESKINE FELOUH , TIGDIT ",35.945059,0.08921,27
3114,3054.0,UNIVERSITE POLE 2 LAGHOUAT,33.4626502990723,2.49310994148254,3
16853,16208.0,cite 602 logts les dunes chéraga,36.7787055969238,2.91356801986694,16
11106,11028.0,6 EME REGION MILITAIRE,22.7333297729492,5.51666688919067,11
19124,19140.0,UNIVERSITE-MOHAMED-LAMINE-DEBAGHINE-2,36.2153816223145,5.44625186920166,19
31252,31113.0,DOUAR TOUMIAT,35.5737991333008,-0.429832994937897,31
31225,31116.0,UNIVERSITE ES SENIA- ORAN ,35.6374549865723,-0.615033984184265,31
13112,13111.0,BD RAHMOUNE ABDELHAMID RUE SIDI YAHIA,36.770654,3.052499,13
24323,24056.0,VILLAGE OUED EL MELLAH,36.3638000488281,7.63875007629395,24
18320,18053.0,BENI-METRANE,36.7576522827148,5.92269706726074,18
9320,9076.0,80 LGTS OPGI,36.2909088134766,2.37092995643616,9
9414,9075.0,BOUGARA2/ 630 LOGTS OPGI,36.3216781616211,3.05467009544373,9
16854,16209.0,cyber parc RAHMANIA,36.6791610717773,2.89891791343689,16
2430,2097.0,DHARIDJ,36.0853538513184,1.23935604095459,2
36324,36058.0, AIN ALLEM,36.6809272766113,7.71851778030396,36
36407,36057.0,EL ANNAB,36.520393371582,8.1313362121582,36
48426,48080.0,CITE 50 LOGTS JDIOUIA ,35.9294090270996,0.838930010795593,48
25225,25063.0, ZONE H BT F N 02 CITE MASSINISSA,36.161233,1.330056,25
43111,43075.0,CITE ETHNIA,35.871767,7.110636,43
4435,4066.0,CITE ESSALAM,36.1100006103516,6.80000019073486,4
16855,16219.0,CITE 834 LOGTS SIDI SLIMANE KHRAICIA,36.6834182739258,2.98334693908691,16
9209,9077.0,GARE ROUTIERE SOGRALE CITE BEN MOKADEM,36.2919692993164,2.50494003295898,9
4436,4067.0,CITE 20 AOUT 1955,35.9000015258789,6.3899998664856,4
32415,32042.0,RUE BODOUA LARBI HAI EL ISTIKLAL  EL-ABIODH-SIDI-CHEIKH,32.893,0.54839,32
38313,38041.0,HAI FRERES LAAZEB,35.8646278381348,2.27419090270996,38
9415,9078.0,HAMMAM ELLOUENE 2 CITE NOUVELLE,36.3110694885254,3.0436999797821,9
5121,5144.0,CITE 208 LOGTS CITE BOUZOURANE,35.5622062683105,6.19568872451782,5
18224,18054.0,EL GHERIANA,36.6933135986328,5.77351903915405,18
16230,16223.0,ANNEXE APC CITE KAIDI BORDJ EL KIFFAN ,36.735642,3.198039,16
41220,41052.0,EL FOUIDH ,36.2526397705078,8.21226501464844,41
19214,19142.0,ECOLE DE L'AVIATION MILITAIRE ,36.1099853515625,5.33930492401123,19
24322,24055.0,VILLAGE EL MAGROUN,36.3259201049805,7.79392385482788,24
21332,21084.0,TALEZA,36.9783744812012,6.56907987594604,21
38112,38042.0,GARE-ROUTIERE,35.599437713623,1.78510785102844,38
47223,47041.0,RUE GUERRARA QUARTIER CHEKH AMEUR BERRIANE,32.8323173522949,3.77783894538879,47
29516,29095.0,NOUVEAU POLE MOHAMMADIA,35.5600280761719,0.0729859992861748,29
31337,31114.0,HA ESALEM AN EL BYA ,35.8101692199707,-0.303175985813141,31
31335,31111.0,CENTRE CHEF LIEU DE LA COMMUNE BETHIOUA,35.8041687011719,-0.269960999488831,31
18111,18055.0,CITE 300 LOGTS BT24 HARRATEN,36.7951850891113,5.79811191558838,18
37117,37017.0,tindouf,27.6721823,-8.1404163,37
39116,39097.0,KHOBNET TRIFAOUI,33.413939,6.945808,39
17115,17086.0,cite haouri boumedienne DJELFA,34.669866,3.262248,17
33106,33025.0,ILLIZI SIEGE DWPT,26.531605,8.428624,33
48306,48071.0,TAMDJET,36.1356887817383,0.789590001106262,48
41313,41053.0,ECOLE GENDARMERIE M'DAOUROUCH,36.4001388549805,7.49506378173828,41
23120,23027.0,BOUZIZI,36.903076171875,7.64096879959106,23
29324,29094.0,200 LOGEMENTS LPA TIGHENNIF,35.4230308532715,0.315925002098083,29
11113,11035.0,DIR /REGIONAL GENDAR,22.7666702270508,5.51666688919067,11
2123,2098.0,RN N°04,36.1558532714844,1.30460274219513,2
27418,27066.0,RUE BENAMOUR MILOUD ,35.694525,-0.643626,27
46110,46069.0,UPW Ain temouchent,35.2890815734863,-1.12456905841827,46
6121,6144.0,SIEGE DE LA DIRECTION DE L'UPW  BEJAIA,36.753612,5.073396,6
35325,35069.0,CITE 1700 LGTS OULED MOUSSA,36.689998626709,3.36999988555908,35
31254,31117.0,CITE 2500 LOGEMENTS AIN EL BAIDA ,35.6533241271973,-0.659673988819122,31
21333,21085.0,LAOUINETTES,36.9622077941895,6.30583667755127,21
35324,35071.0,CITE 1588 LGTS SI MUSTAPHA,36.7200012207031,3.61999988555908,35
31157,31118.0,ORAN ,35.6950607299805,-0.632849991321564,31
4603,4068.0,CITE AFAK2,35.9799995422363,6.82999992370605,4
7215,7093.0,HAY OULED SEID ,35.0013389587402,5.78276395797729,7
27324,27069.0,RUE LARBI BENMEHIDI ,35.782478,-0.421687,27
38413,38044.0,HAI GHAZLIA,35.724853515625,1.55682194232941,38
4113,4069.0,OEB GARE ROUTIERE ,35.8800010681152,7.09999990463257,4
3111,3056.0,RUE DHALAA,33.4826889038086,2.53098011016846,3
16432,16242.0,CENTRE HOSPITALO UNIVERSITAIRE DE BENI MESSOUS,36.7798538208008,2.98098301887512,16
16332,16240.0,ANNEXE APC CITE TOUILEB SIDI-MOUSSA,36.767081,3.052232,16
16725,16239.0,CITE ZOUAOUI SIDI-MOUSSA,36.64155,2.778635,16
10115,10110.0,110/1000/3000 HAI EZZITOUNE BOUIRA,36.4014015197754,3.89359998703003,10
13114,13114.0,GARE ROUTIERE,34.8814289,-1.3049306083569774,13
31230,31075.0,HAI EL AMEL - EL KARMA- ORAN ,35.690281,-0.568087,31
28116,28093.0,Cite GHEZAL M'SILA,35.4030990600586,4.27110004425049,28
19126,19146.0,CITE 3700 LOGTS SETIF,36.180855,5.451973,19
36325,36059.0,CITE BELAID H'MAIDA COMMUNE DE ECHATT,36.8269805908203,7.88564109802246,36
37120,37020.0,hai el wiam tindouf,27.6418495178223,-8.11800003051758,37
29214,29098.0,RUE BOUHADI MOSTAPHA VILLAGE NOUREDDINE,35.4378890991211,0.206630006432533,29
29213,29097.0,DOUAR OULED M'RAH,35.2934341430664,0.158996000885963,29
29416,29099.0,CITE 500 LOGEMENTS SOCIAUX BLOC N° 15 SIG,35.5260047912598,-0.16100800037384,29
6423,6145.0,Village AMARAT,36.5666694641113,4.96667003631592,6
20116,20054.0,SAIDA,34.8302067,0.1502692,20
18423,18057.0,EL MERIDJA,36.7617416381836,6.26172494888306,18
2126,2101.0,NOUVELLE VILLE BRADI,36.1513786315918,1.30776596069336,2
18321,18058.0,CHEKFA-DJIMAR,36.8025856018066,5.94739580154419,18
29212,29096.0,DOUAR SENAISSA,35.2468872070312,0.157171994447708,29
7121,7096.0,DUPW BISKRA ,34.85038,5.72805,7
53119,53038.0,IN SALAH ,27.1950331,2.4826132,53
22127,22093.0,SIDI BEL ABBES,35.1907399,-0.6341153,22
37123,37023.0,chenachen,26.0404393,-4.2155004,37
23132,23059.0,AEROPORT-ANNABA RABAH-BITAT,36.895546,7.758763,23
15536,15170.0,VILLAGE AIT OULHADJ,36.529899597168,4.07614707946777,15
26117,26092.0,MEDEA,36.265344,2.766957,26
18424,18059.0,EL-MILIA-TARZOUST,36.7655715942383,6.23382902145386,18
25226,25064.0,UV 20 NOUVELLE VILLE ALI MENDJELI,36.256025,6.587828,25
19521,19147.0,CITE BARKET AMOR  AMOUCHA,36.3757705688477,5.41523599624634,19
19330,19149.0,CITE 19 MARS  SALEH BEY,35.8593826293945,5.29699325561523,19
17531,17090.0,AIN EL IBEL,34.3550616,3.2238301,17
5912,5149.0,CITE DOUAR EL CHAIR ,35.4006385803223,6.38391208648682,5
32208,32045.0,ROUTE KHALAF BREZINA ,35.743805,8.032862,32
22520,22092.0,RUE SAIDA AMELZA ,34.834517,0.154143,22
6424,6146.0,Village AIT OUNIR,36.5569000244141,4.86660003662109,6
2326,2093.0,HAI EL FELLAGUIA,36.3395004272461,1.40209996700287,2
13224,13097.0,UNIVERSITE ABOU BAKR BELKAID,34.920304,-1.303009,13
25321,25067.0,CITE DJEBLI AHMED HAMMA BOUZIANE,35.45653,1.43757,25
35215,35074.0,CITE KIRECHE SAID DELLYS,36.755911,3.005405,35
27419,27071.0,RUE BOUZIANE MOHAMED ,36.740029,3.103782,27
13116,13117.0,CITE 760/1000 LOGTS,36.494583,2.850032,13
46417,46070.0,Douar Beni Ghenam,35.2541618347168,-1.42854595184326,46
13315,13116.0,ROUTE SIDI DJILALI,35.215937,-0.623567,13
28518,28097.0,cite beau séjour Medjedel,35.14415,3.68361,28
14603,14085.0,HAY EL BADR,33.784729,2.863997,14
16436,16254.0,boulevard du 11 decembre 1960,36.761378,3.02472,16
46226,46071.0,Douar Bâalcha,35.5085067749023,-1.11773705482483,46
46320,46072.0,SIDI BELHADRI,35.3193844,-0.8741535,46
32113,32047.0,NOUVELLE VILLE POS22 EL BAYADH,33.690358,1.009954,32
14314,14082.0,CITE 50 LOGEMENTS  ,35.9145035,5.3025482,14
41114,41061.0,CITE 2900 LOGEMENT OPGI SOUK AHRAS,36.284893,7.950859,41
13238,13124.0,RUE DE LA POSTE TADJMOUT,33.87729,2.52113,13
43216,43085.0,GRAREM,36.4577041,6.2682685,43
14122,14088.0,ECOLE DES SOUS OFFICIERS DE TRANSMISSION TIARET,35.650027,-0.654419,14
18322,18061.0,UNIVERSITE TASSOUST,36.80037,5.842973,18
25143,25070.0,AEROPORT MOHAMED BOUDIAF CONSTANTINE,36.283444,6.622055,25
25119,25069.0,5EME REGION MILITAIRE MANSOURAH,35.682299,-0.668888,25
55321,55067.0,ECOLE DE TRANSMISSION ROUTE N° 03 TOUGGOURT,36.673534,5.146849,55
22213,22096.0,RUE MOHAMED BOUDIAF SIDI LAHCENE,35.31524,-5.49016,22
32416,32051.0,VILLAGE AGRICOLE DE BENHADJEM,33.944972,8.332086,32
32312,32050.0,VILLAGE AGRICOLE DE BOUGHRARA,35.16081,-3.26923,32
39118,39101.0,CITE CHOTT EL OUED,33.964328,9.377191,39
19130,19153.0,CITE EL BEZ SETIF,36.19112,5.41373,19
16863,16261.0,HOTEL MILITAIRE BOUCHAOUI,36.718685,3.05833,16
43321,43086.0,TELERGHMA-TERRE,36.11653,6.35434,43
25229,25074.0,NOUVELLE VILLE ALI MENDJELI UNITE DE VOISINAGE N°18,35.588268,0.060699,25
4206,4074.0,QUARTIER OUAKAF SEBTI,35.941434,7.186715,4
16728,16265.0,CITE 1680 LOGEMENTS BIRTOUTA ALGER,36.6439229,2.987988063277336,16
43332,43087.0,CITE HOUARI BOUMEDIEN,36.1608709,5.6812398,43
30132,30071.0,SIDI BENSACI OUARGLA,31.954456,5.305887,30
21113,21087.0,CITE RABAH BITAT,36.8561243,6.9256458,21
32115,32054.0,EL HAOUD-GHAZAL CHEIKH,35.39539,6.318764,32
18116,18067.0,ZONE URBAINE N°03 CITE 70 LOGTS JIJEL,36.754593,5.875785,18
22420,22097.0,RUE ALI IBN ABI TALEB,35.1970711,-0.6310501,22
16872,16273.0,COMMANDEMENT-DES-FORCES-NAVALES-ZERALDA,36.786673,3.065808,16
35107,35081.0,BOUMERDES,36.7590403,3.473102,35
3118,3064.0,ZONE MILITAIRE ROUTE NATIONALE N°01 LAGHOUAT ,33.77446,2.880942,3
16182,16276.0,19 RUE DOCTEUR SAADANE ALGER,36.77292,3.056747,16
5127,5157.0,CITE 350 LOGEMENTS AADL BATNA,35.55597,6.17414,5
23134,23066.0,AIN BARBAR,36.9916371,7.5579918,23
14413,14091.0,CITE 08 MAI 1945 KSAR CHELLALA ,36.737329,3.184878,14
50318,50074.0,BORDJ BADJI MOKHTAR,21.3302568,0.9540403,50
41319,41063.0,M’DAOUROUCH WILAYA SOUK AHRAS,36.0773091,7.8212383,41
32314,32056.0,RUE AMIR ABDELKADER 32018 ROGASSA,36.149081,0.839263,32
13710,13136.0,RUE DE LA POSTE SIDI ALI BENZEMRA ,37.007205,6.565312,13
26615,26101.0,BIR MESSAOUD 26038 OULED MAAREF,35.736397295522245,3.084688971255053,26
